id,name,name_kana,building,zip,address,latitude,longitude
1000,北海道,ほっかいどう,北海道庁,060-8588,札幌市中央区北3条西6-1,43.06428,141.3468
1100,札幌市,さっぽろし,札幌市役所,060-8611,札幌市中央区北1条西2丁目,43.06195,141.3544
1101,札幌市中央区,さっぽろしちゅうおうく,中央区役所,060-8612,札幌市中央区南3条西11丁目,43.05539,141.341
1102,札幌市北区,さっぽろしきたく,北区役所,001-8612,札幌市北区北24条西6丁目1-1,43.09069,141.3409
1103,札幌市東区,さっぽろしひがしく,東区役所,065-8612,札幌市東区北11条東7丁目1-1,43.07611,141.3636
1104,札幌市白石区,さっぽろししろいしく,白石区役所,003-8612,札幌市白石区南郷通1丁目南8-1,43.04545,141.3964
1105,札幌市豊平区,さっぽろしとよひらく,豊平区役所,062-8612,札幌市豊平区平岸6条10丁目1-1,43.03137,141.38
1106,札幌市南区,さっぽろしみなみく,南区役所,005-8612,札幌市南区真駒内幸町2丁目2-1,42.98995,141.3534
1107,札幌市西区,さっぽろしにしく,西区役所,063-8612,札幌市西区琴似2条7丁目1-1,43.07436,141.3009
1108,札幌市厚別区,さっぽろしあつべつく,厚別区役所,004-8612,札幌市厚別区厚別中央1条5丁目3-2,43.03615,141.4747
1109,札幌市手稲区,さっぽろしていねく,手稲区役所,006-8612,札幌市手稲区前田1条11丁目1-10,43.12185,141.2457
1110,札幌市清田区,さっぽろしきよたく,清田区役所,004-8613,札幌市清田区平岡1条1丁目2-1,42.99954,141.4439
1202,函館市,はこだてし,函館市役所,040-8666,函館市東雲町4-13,41.76868,140.7291
1203,小樽市,おたるし,小樽市役所,047-8660,小樽市花園2-12-1,43.19081,140.9943
1204,旭川市,あさひかわし,旭川市役所,070-8525,旭川市6条通9丁目,43.77085,142.3649
1205,室蘭市,むろらんし,室蘭市役所,051-8511,室蘭市幸町1-2,42.31521,140.9736
1206,釧路市,くしろし,釧路市役所,085-8505,釧路市黒金町7-5,42.98483,144.3817
1207,帯広市,おびひろし,帯広市役所,080-8670,帯広市西5条南7-1,42.92369,143.1966
1208,北見市,きたみし,北見市役所,090-8509,北見市大通西2丁目1番地 まちきた大通ビル,43.80399,143.8957
1209,夕張市,ゆうばりし,夕張市役所,068-0492,夕張市本町4-2,43.05683,141.974
1210,岩見沢市,いわみざわし,岩見沢市役所,068-8686,岩見沢市鳩が丘1-1-1,43.19619,141.7759
1211,網走市,あばしりし,網走市役所,093-8555,網走市南6条東4丁目,44.02063,144.2735
1212,留萌市,るもいし,留萌市役所,077-8601,留萌市幸町1-11,43.94097,141.6369
1213,苫小牧市,とまこまいし,苫小牧市役所,053-8722,苫小牧市旭町4-5-6,42.63409,141.6055
1214,稚内市,わっかないし,稚内市役所,097-8686,稚内市中央3-13-15,45.41555,141.6731
1215,美唄市,びばいし,美唄市役所,072-8660,美唄市西3条南1-1-1,43.33299,141.854
1216,芦別市,あしべつし,芦別市役所,075-8711,芦別市北1条東1-3,43.5182,142.1895
1217,江別市,えべつし,江別市役所,067-8674,江別市高砂町6,43.10361,141.536
1218,赤平市,あかびらし,赤平市役所,079-1192,赤平市泉町4-1,43.55797,142.0442
1219,紋別市,もんべつし,紋別市役所,094-8707,紋別市幸町2-1-18,44.35648,143.3541
1220,士別市,しべつし,士別市役所,095-8686,士別市東6条4-1,44.17866,142.4005
1221,名寄市,なよろし,名寄市役所,096-8686,名寄市大通南1-1,44.35584,142.4632
1222,三笠市,みかさし,三笠市役所,068-2192,三笠市幸町2,43.2458,141.8756
1223,根室市,ねむろし,根室市役所,087-8711,根室市常盤町2-27,43.33,145.583
1224,千歳市,ちとせし,千歳市役所,066-8686,千歳市東雲町2-34,42.82151,141.6511
1225,滝川市,たきかわし,滝川市役所,073-8686,滝川市大町1-2-15,43.55774,141.9105
1226,砂川市,すながわし,砂川市役所,073-0195,砂川市西6条北3-1-1,43.49475,141.9035
1227,歌志内市,うたしないし,歌志内市役所,073-0492,歌志内市字本町5,43.52161,142.0353
1228,深川市,ふかがわし,深川市役所,074-8650,深川市2条17-17,43.72326,142.0536
1229,富良野市,ふらのし,富良野市役所,076-8555,富良野市弥生町1-1,43.34192,142.3832
1230,登別市,のぼりべつし,登別市役所,059-8701,登別市中央町6-11,42.41273,141.1066
1231,恵庭市,えにわし,恵庭市役所,061-1498,恵庭市京町1,42.88247,141.5779
1233,伊達市,だてし,伊達市役所,052-0024,伊達市鹿島町20-1,42.47192,140.8647
1234,北広島市,きたひろしまし,北広島市役所,061-1192,北広島市中央4-2-1,42.98682,141.5637
1235,石狩市,いしかりし,石狩市役所,061-3292,石狩市花川北6条1-30-2,43.17135,141.3154
1236,北斗市,ほくとし,北斗市役所,049-0192,北斗市中央1-3-10,41.82414,140.6529
1303,当別町,とうべつちょう,当別町役場,061-0292,石狩郡当別町白樺町58-9,43.22382,141.5171
1304,新篠津村,しんしのつむら,新篠津村役場,068-1192,石狩郡新篠津村第47線北13,43.22527,141.6493
1331,松前町,まつまえちょう,松前町役場,049-1592,松前郡松前町字福山248,41.43003,140.1105
1332,福島町,ふくしまちょう,福島町役場,049-1392,松前郡福島町字福島820,41.48361,140.2513
1333,知内町,しりうちちょう,知内町役場,049-1103,上磯郡知内町字重内21-1,41.59836,140.4189
1334,木古内町,きこないちょう,木古内町役場,049-0422,上磯郡木古内町字本町218,41.6784,140.4376
1337,七飯町,ななえちょう,七飯町役場,041-1192,亀田郡七飯町本町6丁目1-1,41.89569,140.6944
1343,鹿部町,しかべちょう,鹿部町役場,041-1498,茅部郡鹿部町字宮浜299,42.0386,140.8159
1345,森町,もりまち,森町役場,049-2393,茅部郡森町字御幸町144-1,42.10497,140.5765
1346,八雲町,やくもちょう,八雲町役場,049-3192,二海郡八雲町住初町138,42.25589,140.2653
1347,長万部町,おしゃまんべちょう,長万部町役場,049-3592,山越郡長万部町字長万部453-1,42.51401,140.3809
1361,江差町,えさしちょう,江差町役場,043-8560,檜山郡江差町字中歌町193-1,41.86929,140.1276
1362,上ノ国町,かみのくにちょう,上ノ国町役場,049-0698,檜山郡上ノ国町字大留100,41.80083,140.1203
1363,厚沢部町,あっさぶちょう,厚沢部町役場,043-1113,檜山郡厚沢部町新町207,41.92098,140.2253
1364,乙部町,おとべちょう,乙部町役場,043-0103,爾志郡乙部町字緑町388,41.96861,140.1355
1367,奥尻町,おくしりちょう,奥尻町役場,043-1498,奥尻郡奥尻町字奥尻806,42.17229,139.5142
1370,今金町,いまかねちょう,今金町役場,049-4393,瀬棚郡今金町字今金48-1,42.42936,140.0087
1371,せたな町,せたなちょう,せたな町役場,049-4592,久遠郡せたな町北檜山区徳島63-1,42.41486,139.8762
1391,島牧村,しままきむら,島牧村役場,048-0621,島牧郡島牧村字泊83-1,42.7005,140.0615
1392,寿都町,すっつちょう,寿都町役場,048-0406,寿都郡寿都町字渡島町140-1,42.79105,140.2288
1393,黒松内町,くろまつないちょう,黒松内町役場,048-0192,寿都郡黒松内町字黒松内302-1,42.66779,140.3078
1394,蘭越町,らんこしちょう,蘭越町役場,048-1392,磯谷郡蘭越町蘭越町258-5,42.80923,140.5284
1395,ニセコ町,にせこちょう,ニセコ町役場,048-1595,虻田郡ニセコ町字富士見47,42.80484,140.6875
1396,真狩村,まっかりむら,真狩村役場,048-1631,虻田郡真狩村字真狩118,42.76302,140.8035
1397,留寿都村,るすつむら,留寿都村役場,048-1731,虻田郡留寿都村字留寿都175,42.73741,140.8756
1398,喜茂別町,きもべつちょう,喜茂別町役場,044-0292,虻田郡喜茂別町字喜茂別123,42.79541,140.9346
1399,京極町,きょうごくちょう,京極町役場,044-0101,虻田郡京極町字京極527,42.85823,140.8841
1400,倶知安町,くっちゃんちょう,倶知安町役場,044-0001,虻田郡倶知安町北1条東3-3,42.90172,140.759
1401,共和町,きょうわちょう,共和町役場,048-2292,岩内郡共和町南幌似38-2,42.9804,140.6112
1402,岩内町,いわないちょう,岩内町役場,045-8555,岩内郡岩内町字高台134-1,42.97976,140.5148
1403,泊村,とまりむら,泊村役場,045-0202,古宇郡泊村大字茅沼村字臼別191-7,43.06303,140.499
1404,神恵内村,かもえないむら,神恵内村役場,045-0301,古宇郡神恵内村大字神恵内村81-4,43.14388,140.4308
1405,積丹町,しゃこたんちょう,積丹町役場,046-0292,積丹郡積丹町大字美国町字船澗48,43.29906,140.5983
1406,古平町,ふるびらちょう,古平町役場,046-0192,古平郡古平町大字浜町40-4,43.26548,140.6389
1407,仁木町,にきちょう,仁木町役場,048-2492,余市郡仁木町西町1-36-1,43.15464,140.7641
1408,余市町,よいちちょう,余市町役場,046-8546,余市郡余市町朝日町26,43.19533,140.7836
1409,赤井川村,あかいがわむら,赤井川村役場,046-0592,余市郡赤井川村字赤井川74-2,43.08354,140.8136
1423,南幌町,なんぽろちょう,南幌町役場,069-0292,空知郡南幌町栄町3-2-1,43.0637,141.6503
1424,奈井江町,ないえちょう,奈井江町役場,079-0392,空知郡奈井江町字奈井江11,43.42531,141.8829
1425,上砂川町,かみすながわちょう,上砂川町役場,073-0292,空知郡上砂川町中央北1条5丁目1-7,43.48267,141.9841
1427,由仁町,ゆにちょう,由仁町役場,069-1292,夕張郡由仁町新光200,42.99955,141.7904
1428,長沼町,ながぬまちょう,長沼町役場,069-1392,夕張郡長沼町中央北1-1-1,43.01038,141.6954
1429,栗山町,くりやまちょう,栗山町役場,069-1512,夕張郡栗山町松風3-252,43.05629,141.7842
1430,月形町,つきがたちょう,月形町役場,061-0592,樺戸郡月形町1219,43.3384,141.6696
1431,浦臼町,うらうすちょう,浦臼町役場,061-0692,樺戸郡浦臼町字ウラウスナイ183-15,43.43045,141.8189
1432,新十津川町,しんとつかわちょう,新十津川町役場,073-1103,樺戸郡新十津川町字中央301-1,43.54849,141.8771
1433,妹背牛町,もせうしちょう,妹背牛町役場,079-0592,雨竜郡妹背牛町字妹背牛5200,43.70034,141.9621
1434,秩父別町,ちっぷべつちょう,秩父別町役場,078-2192,雨竜郡秩父別町4101,43.767,141.9585
1436,雨竜町,うりゅうちょう,雨竜町役場,078-2692,雨竜郡雨竜町字フシコウリウ104,43.64395,141.889
1437,北竜町,ほくりゅうちょう,北竜町役場,078-2512,雨竜郡北竜町字和11-1,43.73147,141.8791
1438,沼田町,ぬまたちょう,沼田町役場,078-2202,雨竜郡沼田町南1条3-6-53,43.80674,141.9334
1452,鷹栖町,たかすちょう,鷹栖町役場,071-1292,上川郡鷹栖町南1条3丁目5番1号,43.84331,142.3544
1453,東神楽町,ひがしかぐらちょう,東神楽町役場,071-1592,上川郡東神楽町南1条西1丁目3-2,43.69628,142.4517
1454,当麻町,とうまちょう,当麻町役場,078-1393,上川郡当麻町3条東2丁目11-1,43.82812,142.5084
1455,比布町,ぴっぷちょう,比布町役場,078-0392,上川郡比布町北町1-2-1,43.87501,142.4777
1456,愛別町,あいべつちょう,愛別町役場,078-1492,上川郡愛別町字本町179,43.90656,142.5781
1457,上川町,かみかわちょう,上川町役場,078-1753,上川郡上川町南町180,43.8471,142.7705
1458,東川町,ひがしかわちょう,東川町役場,071-1492,上川郡東川町東町1-16-1,43.69892,142.5101
1459,美瑛町,びえいちょう,美瑛町役場,071-0292,上川郡美瑛町本町4-6-1,43.58832,142.4671
1460,上富良野町,かみふらのちょう,上富良野町役場,071-0596,空知郡上富良野町大町2-2-11,43.45558,142.4672
1461,中富良野町,なかふらのちょう,中富良野町役場,071-0795,空知郡中富良野町本町9-1,43.40579,142.4252
1462,南富良野町,みなみふらのちょう,南富良野町役場,079-2402,空知郡南富良野町字幾寅867,43.16409,142.5684
1463,占冠村,しむかっぷむら,占冠村役場,079-2201,勇払郡占冠村字中央,42.97988,142.3985
1464,和寒町,わっさむちょう,和寒町役場,098-0192,上川郡和寒町字西町120,44.02315,142.4134
1465,剣淵町,けんぶちちょう,剣淵町役場,098-0392,上川郡剣淵町仲町37-1,44.09577,142.3613
1468,下川町,しもかわちょう,下川町役場,098-1206,上川郡下川町幸町63,44.30258,142.6352
1469,美深町,びふかちょう,美深町役場,098-2252,中川郡美深町字西町18,44.48099,142.343
1470,音威子府村,おといねっぷむら,音威子府村役場,098-2501,中川郡音威子府村字音威子府444-1,44.72493,142.262
1471,中川町,なかがわちょう,中川町役場,098-2892,中川郡中川町字中川337,44.81133,142.0713
1472,幌加内町,ほろかないちょう,幌加内町役場,074-0492,雨竜郡幌加内町字幌加内4699,44.00981,142.1538
1481,増毛町,ましけちょう,増毛町役場,077-0292,増毛郡増毛町弁天町3-61,43.85603,141.5252
1482,小平町,おびらちょう,小平町役場,078-3392,留萌郡小平町字小平町216,44.01516,141.6628
1483,苫前町,とままえちょう,苫前町役場,078-3792,苫前郡苫前町字旭37-1,44.3061,141.653
1484,羽幌町,はぼろちょう,羽幌町役場,078-4198,苫前郡羽幌町南町1-1,44.3607,141.6975
1485,初山別村,しょさんべつむら,初山別村役場,078-4492,苫前郡初山別村字初山別96-1,44.53193,141.7665
1486,遠別町,えんべつちょう,遠別町役場,098-3543,天塩郡遠別町字本町3-37,44.72228,141.7922
1487,天塩町,てしおちょう,天塩町役場,098-3398,天塩郡天塩町新栄通8丁目,44.88831,141.7454
1511,猿払村,さるふつむら,猿払村役場,098-6232,宗谷郡猿払村鬼志別西町172-1,45.33058,142.1089
1512,浜頓別町,はまとんべつちょう,浜頓別町役場,098-5792,枝幸郡浜頓別町中央南1,45.12399,142.3596
1513,中頓別町,なかとんべつちょう,中頓別町役場,098-5595,枝幸郡中頓別町字中頓別172-6,44.96976,142.2866
1514,枝幸町,えさしちょう,枝幸町役場,098-5892,枝幸郡枝幸町本町916,44.93884,142.5813
1516,豊富町,とよとみちょう,豊富町役場,098-4110,天塩郡豊富町大通6丁目,45.10286,141.7775
1517,礼文町,れぶんちょう,礼文町役場,097-1201,礼文郡礼文町大字香深村字トンナイ558-5,45.30388,141.0475
1518,利尻町,りしりちょう,利尻町役場,097-0401,利尻郡利尻町沓形字緑町14-1,45.18698,141.1397
1519,利尻富士町,りしりふじちょう,利尻富士町役場,097-0101,利尻郡利尻富士町鴛泊字富士野6,45.24747,141.2147
1520,幌延町,ほろのべちょう,幌延町役場,098-3207,天塩郡幌延町宮園町1番地,45.01772,141.8494
1543,美幌町,びほろちょう,美幌町役場,092-8650,網走郡美幌町字東2条北2-25,43.82373,144.1072
1544,津別町,つべつちょう,津別町役場,092-0292,網走郡津別町字幸町41,43.70632,144.0248
1545,斜里町,しゃりちょう,斜里町役場,099-4192,斜里郡斜里町本町12,43.91143,144.6708
1546,清里町,きよさとちょう,清里町役場,099-4492,斜里郡清里町羽衣町13,43.83518,144.5945
1547,小清水町,こしみずちょう,小清水町役場,099-3698,斜里郡小清水町字小清水217-1,43.85672,144.4621
1549,訓子府町,くんねっぷちょう,訓子府町役場,099-1498,常呂郡訓子府町東町398,43.72554,143.7416
1550,置戸町,おけとちょう,置戸町役場,099-1100,常呂郡置戸町字置戸181,43.67631,143.5864
1552,佐呂間町,さろまちょう,佐呂間町役場,093-0502,常呂郡佐呂間町字永代町3-1,44.01781,143.7748
1555,遠軽町,えんがるちょう,遠軽町役場,099-0492,紋別郡遠軽町1条通北3-1-1,44.06171,143.528
1559,湧別町,ゆうべつちょう,湧別町役場,099-6592,紋別郡湧別町上湧別屯田市街地318,44.15148,143.573
1560,滝上町,たきのうえちょう,滝上町役場,099-5692,紋別郡滝上町字滝ノ上市街地4条通2-1,44.19219,143.0777
1561,興部町,おこっぺちょう,興部町役場,098-1692,紋別郡興部町字興部710,44.47011,143.1235
1562,西興部村,にしおこっぺむら,西興部村役場,098-1501,紋別郡西興部村字西興部100,44.32878,142.9445
1563,雄武町,おうむちょう,雄武町役場,098-1792,紋別郡雄武町本町,44.58247,142.9619
1564,大空町,おおぞらちょう,大空町役場,099-2392,網走郡大空町女満別西3条4丁目1-1,43.91186,144.1725
1571,豊浦町,とようらちょう,豊浦町役場,049-5492,虻田郡豊浦町字船見町10,42.58345,140.7119
1575,壮瞥町,そうべつちょう,壮瞥町役場,052-0101,有珠郡壮瞥町字滝之町287-7,42.55239,140.886
1578,白老町,しらおいちょう,白老町役場,059-0995,白老郡白老町大町1-1-1,42.55111,141.3558
1581,厚真町,あつまちょう,厚真町役場,059-1692,勇払郡厚真町京町120,42.72297,141.8782
1584,洞爺湖町,とうやこちょう,洞爺湖町役場,049-5692,虻田郡洞爺湖町栄町58,42.55146,140.7644
1585,安平町,あびらちょう,安平町役場,059-1595,勇払郡安平町早来大町95,42.76283,141.8181
1586,むかわ町,むかわちょう,むかわ町役場,054-8660,勇払郡むかわ町美幸2-88,42.57466,141.9269
1601,日高町,ひだかちょう,日高町役場,059-2192,沙流郡日高町門別本町210-1,42.48036,142.0747
1602,平取町,びらとりちょう,平取町役場,055-0192,沙流郡平取町本町28,42.58516,142.1288
1604,新冠町,にいかっぷちょう,新冠町役場,059-2492,新冠郡新冠町字北星町3-2,42.36242,142.3185
1607,浦河町,うらかわちょう,浦河町役場,057-8511,浦河郡浦河町築地1-3-1,42.16856,142.7684
1608,様似町,さまにちょう,様似町役場,058-8501,様似郡様似町大通1-21,42.1278,142.9339
1609,えりも町,えりもちょう,えりも町役場,058-0292,幌泉郡えりも町字本町206,42.01624,143.1488
1610,新ひだか町,しんひだかちょう,新ひだか町役場,056-8650,日高郡新ひだか町静内御幸町3丁目2-50,42.34128,142.3683
1631,音更町,おとふけちょう,音更町役場,080-0198,河東郡音更町元町2,42.99415,143.198
1632,士幌町,しほろちょう,士幌町役場,080-1200,河東郡士幌町字士幌225,43.16819,143.2411
1633,上士幌町,かみしほろちょう,上士幌町役場,080-1492,河東郡上士幌町字上士幌東3線238,43.23266,143.2962
1634,鹿追町,しかおいちょう,鹿追町役場,081-0292,河東郡鹿追町東町1-15-1,43.09916,142.9888
1635,新得町,しんとくちょう,新得町役場,081-8501,上川郡新得町3条南4-26,43.0798,142.8388
1636,清水町,しみずちょう,清水町役場,089-0192,上川郡清水町南4条2-2,43.01106,142.8848
1637,芽室町,めむろちょう,芽室町役場,082-8651,河西郡芽室町東2条2-14,42.91189,143.0508
1638,中札内村,なかさつないむら,中札内村役場,089-1392,河西郡中札内村大通南2-3,42.69719,143.1326
1639,更別村,さらべつむら,更別村役場,089-1595,河西郡更別村字更別南1線93,42.65,143.1881
1641,大樹町,たいきちょう,大樹町役場,089-2195,広尾郡大樹町東本通33,42.49752,143.2789
1642,広尾町,ひろおちょう,広尾町役場,089-2692,広尾郡広尾町西4条7-1,42.28599,143.3117
1643,幕別町,まくべつちょう,幕別町役場,089-0692,中川郡幕別町本町130-1,42.9082,143.3561
1644,池田町,いけだちょう,池田町役場,083-8650,中川郡池田町西1条7-11,42.92903,143.4485
1645,豊頃町,とよころちょう,豊頃町役場,089-5392,中川郡豊頃町茂岩本町125,42.80102,143.5059
1646,本別町,ほんべつちょう,本別町役場,089-3392,中川郡本別町北2-4-1,43.12446,143.6106
1647,足寄町,あしょろちょう,足寄町役場,089-3797,足寄郡足寄町北1条4-48-1,43.24458,143.552
1648,陸別町,りくべつちょう,陸別町役場,089-4311,足寄郡陸別町字陸別東1条3-1,43.4689,143.7473
1649,浦幌町,うらほろちょう,浦幌町役場,089-5692,十勝郡浦幌町字桜町15-6,42.80894,143.6586
1661,釧路町,くしろちょう,釧路町役場,088-0692,釧路郡釧路町別保1-1,42.99617,144.466
1662,厚岸町,あっけしちょう,厚岸町役場,088-1192,厚岸郡厚岸町真栄3丁目1番地,43.05195,144.8475
1663,浜中町,はまなかちょう,浜中町役場,088-1592,厚岸郡浜中町霧多布東4条1-35-1,43.0771,145.1294
1664,標茶町,しべちゃちょう,標茶町役場,088-2312,川上郡標茶町川上4-2,43.30336,144.6007
1665,弟子屈町,てしかがちょう,弟子屈町役場,088-3292,川上郡弟子屈町中央2-3-1,43.48539,144.4591
1667,鶴居村,つるいむら,鶴居村役場,085-1203,阿寒郡鶴居村鶴居西1-1,43.22978,144.3211
1668,白糠町,しらぬかちょう,白糠町役場,088-0392,白糠郡白糠町西1条南1-1-1,42.95613,144.0717
1691,別海町,べつかいちょう,別海町役場,086-0205,野付郡別海町別海常盤町280,43.39411,145.1174
1692,中標津町,なかしべつちょう,中標津町役場,086-1197,標津郡中標津町丸山2-22,43.55517,144.9714
1693,標津町,しべつちょう,標津町役場,086-1632,標津郡標津町北2条西1-1-3,43.66133,145.1313
1694,羅臼町,らうすちょう,羅臼町役場,086-1892,目梨郡羅臼町栄町100-83,44.0219,145.1895
2000,青森県,あおもりけん,青森県庁,030-8570,青森市長島1-1-1,40.82434,140.7401
2201,青森市,あおもりし,青森市役所,030-8555,青森市中央1-22-5,40.82212,140.7476
2202,弘前市,ひろさきし,弘前市役所,036-8551,弘前市大字上白銀町1-1,40.60297,140.464
2203,八戸市,はちのへし,八戸市役所,031-8686,八戸市内丸1-1-1,40.51189,141.4895
2204,黒石市,くろいしし,黒石市役所,036-0396,黒石市大字市ノ町11-1,40.64269,140.5946
2205,五所川原市,ごしょがわらし,五所川原市役所,037-8686,五所川原市字岩木町12,40.80794,140.4401
2206,十和田市,とわだし,十和田市役所,034-8615,十和田市西十二番町6-1,40.61271,141.2059
2207,三沢市,みさわし,三沢市役所,033-8666,三沢市桜町1-1-38,40.68326,141.3689
2208,むつ市,むつし,むつ市役所,035-8686,むつ市中央1丁目8-1,41.29273,141.1835
2209,つがる市,つがるし,つがる市役所,038-3192,つがる市木造若緑61-1,40.80878,140.3801
2210,平川市,ひらかわし,平川市役所,036-0104,平川市柏木町藤山25-6,40.58408,140.5665
2301,平内町,ひらないまち,平内町役場,039-3393,東津軽郡平内町大字小湊字小湊63,40.926,140.9562
2303,今別町,いまべつまち,今別町役場,030-1502,東津軽郡今別町大字今別字今別167,41.18207,140.4815
2304,蓬田村,よもぎたむら,蓬田村役場,030-1211,東津軽郡蓬田村大字蓬田字汐越1-3,40.97182,140.6559
2307,外ヶ浜町,そとがはままち,外ヶ浜町役場,030-1393,東津軽郡外ヶ浜町字蟹田高銅屋44-2,41.0434,140.6323
2321,鰺ヶ沢町,あじがさわまち,鰺ヶ沢町役場,038-2792,西津軽郡鰺ヶ沢町大字本町209-2,40.77988,140.2087
2323,深浦町,ふかうらまち,深浦町役場,038-2324,西津軽郡深浦町大字深浦字苗代沢84-2,40.64794,139.9277
2343,西目屋村,にしめやむら,西目屋村役場,036-1492,中津軽郡西目屋村大字田代字稲元144,40.57685,140.2962
2361,藤崎町,ふじさきまち,藤崎町役場,038-3803,南津軽郡藤崎町大字西豊田1-1,40.6561,140.5028
2362,大鰐町,おおわにまち,大鰐町役場,038-0292,南津軽郡大鰐町大字大鰐字羽黒館5-3,40.51826,140.5679
2367,田舎館村,いなかだてむら,田舎館村役場,038-1113,南津軽郡田舎館村大字田舎館字中辻123-1,40.63158,140.5501
2381,板柳町,いたやなぎまち,板柳町役場,038-3692,北津軽郡板柳町大字板柳字土井239-3,40.69601,140.4576
2384,鶴田町,つるたまち,鶴田町役場,038-3595,北津軽郡鶴田町大字鶴田字早瀬200-1,40.75878,140.4287
2387,中泊町,なかどまりまち,中泊町役場,037-0392,北津軽郡中泊町大字中里字紅葉坂209,40.96043,140.4341
2401,野辺地町,のへじまち,野辺地町役場,039-3131,上北郡野辺地町字野辺地123-1,40.86434,141.1287
2402,七戸町,しちのへまち,七戸町役場,039-2792,上北郡七戸町字森ノ上131-4,40.74466,141.158
2405,六戸町,ろくのへまち,六戸町役場,039-2392,上北郡六戸町大字犬落瀬字前谷地60,40.60965,141.3248
2406,横浜町,よこはままち,横浜町役場,039-4145,上北郡横浜町字寺下35,41.08321,141.2475
2408,東北町,とうほくまち,東北町役場,039-2492,上北郡東北町上北南4-32-484,40.72809,141.2578
2411,六ヶ所村,ろっかしょむら,六ヶ所村役場,039-3212,上北郡六ヶ所村大字尾駮字野附475,40.96739,141.3745
2412,おいらせ町,おいらせちょう,おいらせ町役場,039-2192,上北郡おいらせ町中下田135-2,40.5991,141.3978
2423,大間町,おおままち,大間町役場,039-4601,下北郡大間町大字大間字大間104,41.52677,140.9074
2424,東通村,ひがしどおりむら,東通村役場,039-4292,下北郡東通村大字砂子又字沢内5-34,41.27791,141.3295
2425,風間浦村,かざまうらむら,風間浦村役場,039-4502,下北郡風間浦村大字易国間字大川目28-5,41.48761,140.9956
2426,佐井村,さいむら,佐井村役場,039-4711,下北郡佐井村大字佐井字糠森20,41.42983,140.8592
2441,三戸町,さんのへまち,三戸町役場,039-0198,三戸郡三戸町大字在府小路町43,40.37829,141.2587
2442,五戸町,ごのへまち,五戸町役場,039-1513,三戸郡五戸町字古舘21-1,40.53105,141.3078
2443,田子町,たっこまち,田子町役場,039-0292,三戸郡田子町大字田子字天神堂平81,40.33996,141.152
2445,南部町,なんぶちょう,南部町役場,039-0892,三戸郡南部町大字苫米地字下宿23-1,40.46679,141.3818
2446,階上町,はしかみちょう,階上町役場,039-1201,三戸郡階上町大字道仏字天当平1-87,40.45246,141.6211
2450,新郷村,しんごうむら,新郷村役場,039-1801,三戸郡新郷村大字戸来字風呂前10,40.46578,141.1734
3000,岩手県,いわてけん,岩手県庁,020-8570,盛岡市内丸10-1,39.70365,141.1526
3201,盛岡市,もりおかし,盛岡市役所,020-8530,盛岡市内丸12-2,39.70198,141.1543
3202,宮古市,みやこし,宮古市役所,027-8501,宮古市新川町2-1,39.64145,141.9572
3203,大船渡市,おおふなとし,大船渡市役所,022-8501,大船渡市盛町字宇津野沢15,39.08207,141.7084
3205,花巻市,はなまきし,花巻市役所,025-8601,花巻市花城町9-30,39.38868,141.1168
3206,北上市,きたかみし,北上市役所,024-8501,北上市芳町1-1,39.28675,141.1132
3207,久慈市,くじし,久慈市役所,028-8030,久慈市川崎町1-1,40.19027,141.7753
3208,遠野市,とおのし,遠野市役所,028-0592,遠野市東舘町8-12,39.32765,141.5339
3209,一関市,いちのせきし,一関市役所,021-8501,一関市竹山町7-2,38.93457,141.1265
3210,陸前高田市,りくぜんたかたし,陸前高田市役所,029-2292,陸前高田市高田町字鳴石42-5,39.02771,141.6256
3211,釜石市,かまいしし,釜石市役所,026-8686,釜石市只越町3-9-13,39.27594,141.8856
3213,二戸市,にのへし,二戸市役所,028-6192,二戸市福岡字川又47,40.27109,141.3048
3214,八幡平市,はちまんたいし,八幡平市役所,028-7397,八幡平市野駄第21地割170,39.9565,141.0713
3215,奥州市,おうしゅうし,奥州市役所,023-8501,奥州市水沢区大手町1-1,39.14455,141.139
3216,滝沢市,たきざわし,滝沢市役所,020-0692,滝沢市中鵜飼55,39.73475,141.077
3301,雫石町,しずくいしちょう,雫石町役場,020-0595,岩手郡雫石町千刈田5-1,39.69614,140.9757
3302,葛巻町,くずまきまち,葛巻町役場,028-5495,岩手郡葛巻町葛巻第16地割1-1,40.03973,141.4364
3303,岩手町,いわてまち,岩手町役場,028-4395,岩手郡岩手町大字五日市第10地割44,39.97251,141.2126
3321,紫波町,しわちょう,紫波町役場,028-3392,紫波郡紫波町紫波中央駅前2-3-1,39.5546,141.1557
3322,矢巾町,やはばちょう,矢巾町役場,028-3692,紫波郡矢巾町大字南矢幅第13地割123番地,39.60588,141.1432
3366,西和賀町,にしわがまち,西和賀町役場,029-5512,和賀郡西和賀町川尻40地割40番地71,39.31804,140.7788
3381,金ケ崎町,かねがさきちょう,金ケ崎町役場,029-4592,胆沢郡金ケ崎町西根南町22-1,39.19565,141.1162
3402,平泉町,ひらいずみちょう,平泉町役場,029-4192,西磐井郡平泉町平泉字志羅山45-2,38.98678,141.114
3441,住田町,すみたちょう,住田町役場,029-2396,気仙郡住田町世田米字川向88-1,39.14221,141.5751
3461,大槌町,おおつちちょう,大槌町役場,028-1115,上閉伊郡大槌町上町1番3号,39.35866,141.9
3482,山田町,やまだまち,山田町役場,028-1392,下閉伊郡山田町八幡町3-20,39.46758,141.9489
3483,岩泉町,いわいずみちょう,岩泉町役場,027-0595,下閉伊郡岩泉町岩泉字惣畑59-5,39.84309,141.7967
3484,田野畑村,たのはたむら,田野畑村役場,028-8407,下閉伊郡田野畑村田野畑143-1,39.93031,141.8889
3485,普代村,ふだいむら,普代村役場,028-8392,下閉伊郡普代村第9地割字銅屋13-2,40.0053,141.8861
3501,軽米町,かるまいまち,軽米町役場,028-6302,九戸郡軽米町大字軽米10-85,40.32664,141.4606
3503,野田村,のだむら,野田村役場,028-8201,九戸郡野田村大字野田第20地割14,40.11001,141.8181
3506,九戸村,くのへむら,九戸村役場,028-6502,九戸郡九戸村大字伊保内10-11-6,40.21137,141.4189
3507,洋野町,ひろのちょう,洋野町役場,028-7995,九戸郡洋野町種市23-27,40.40858,141.7181
3524,一戸町,いちのへまち,一戸町役場,028-5311,二戸郡一戸町高善寺字大川鉢24-9,40.21304,141.2953
4000,宮城県,みやぎけん,宮城県庁,980-8570,仙台市青葉区本町3-8-1,38.2688,140.8718
4100,仙台市,せんだいし,仙台市役所,980-8671,仙台市青葉区国分町3-7-1,38.26797,140.8696
4101,仙台市青葉区,せんだいしあおばく,青葉区役所,980-8701,仙台市青葉区上杉1-5-1,38.26908,140.8705
4102,仙台市宮城野区,せんだいしみやぎのく,宮城野区役所,983-8601,仙台市宮城野区五輪2-12-35,38.26631,140.9102
4103,仙台市若林区,せんだいしわかばやしく,若林区役所,984-8601,仙台市若林区保春院前丁3-1,38.24409,140.9007
4104,仙台市太白区,せんだいしたいはくく,太白区役所,982-8601,仙台市太白区長町南3-1-15,38.22436,140.8771
4105,仙台市泉区,せんだいしいずみく,泉区役所,981-3189,仙台市泉区泉中央2-1-1,38.3263,140.8813
4202,石巻市,いしのまきし,石巻市役所,986-8501,石巻市穀町14-1,38.43424,141.3028
4203,塩竈市,しおがまし,塩竈市役所,985-8501,塩竈市旭町1-1,38.31436,141.0221
4205,気仙沼市,けせんぬまし,気仙沼市役所,988-8501,気仙沼市八日町1-1-1,38.9082,141.5701
4206,白石市,しろいしし,白石市役所,989-0292,白石市大手町1-1,38.00216,140.6197
4207,名取市,なとりし,名取市役所,981-1292,名取市増田字柳田80,38.17159,140.8918
4208,角田市,かくだし,角田市役所,981-1592,角田市角田字大坊41,37.97716,140.7819
4209,多賀城市,たがじょうし,多賀城市役所,985-8531,多賀城市中央2-1-1,38.29381,141.0043
4211,岩沼市,いわぬまし,岩沼市役所,989-2480,岩沼市桜1-6-20,38.10438,140.8699
4212,登米市,とめし,登米市役所,987-0511,登米市迫町佐沼字中江2-6-1,38.69182,141.1876
4213,栗原市,くりはらし,栗原市役所,987-2293,栗原市築館薬師1-7-1,38.73014,141.0213
4214,東松島市,ひがしまつしまし,東松島市役所,981-0503,東松島市矢本字上河戸36-1,38.4263,141.2104
4215,大崎市,おおさきし,大崎市役所,989-6188,大崎市古川七日町1-1,38.5771,140.9554
4216,富谷市,とみやし,富谷市役所,981-3392,富谷市富谷坂松田30,38.40014,140.8954
4301,蔵王町,ざおうまち,蔵王町役場,989-0892,刈田郡蔵王町大字円田字西浦北10,38.09798,140.6588
4302,七ケ宿町,しちかしゅくまち,七ケ宿町役場,989-0592,刈田郡七ケ宿町字関126,37.99299,140.4416
4321,大河原町,おおがわらまち,大河原町役場,989-1295,柴田郡大河原町字新南19,38.04938,140.7308
4322,村田町,むらたまち,村田町役場,989-1392,柴田郡村田町大字村田字迫6,38.11854,140.7224
4323,柴田町,しばたまち,柴田町役場,989-1692,柴田郡柴田町船岡中央2-3-45,38.05632,140.7658
4324,川崎町,かわさきまち,川崎町役場,989-1592,柴田郡川崎町大字前川字裏丁175-1,38.1777,140.6435
4341,丸森町,まるもりまち,丸森町役場,981-2192,伊具郡丸森町字鳥屋120,37.91134,140.7655
4361,亘理町,わたりちょう,亘理町役場,989-2393,亘理郡亘理町字下小路7-4,38.03771,140.8527
4362,山元町,やまもとちょう,山元町役場,989-2292,亘理郡山元町浅生原字作田山32,37.96245,140.8777
4401,松島町,まつしままち,松島町役場,981-0215,宮城郡松島町高城字帰命院下一19-1,38.38011,141.0672
4404,七ヶ浜町,しちがはままち,七ヶ浜町役場,985-8577,宮城郡七ヶ浜町東宮浜字丑谷辺5-1,38.30464,141.0593
4406,利府町,りふちょう,利府町役場,981-0112,宮城郡利府町利府字新並松4,38.33018,140.9754
4421,大和町,たいわちょう,大和町役場,981-3680,黒川郡大和町吉岡字西桧木1番地の1,38.43729,140.8863
4422,大郷町,おおさとちょう,大郷町役場,981-3592,黒川郡大郷町粕川字西長崎5-8,38.42435,141.0043
4424,大衡村,おおひらむら,大衡村役場,981-3692,黒川郡大衡村大衡字平林62,38.46739,140.8802
4444,色麻町,しかまちょう,色麻町役場,981-4122,加美郡色麻町四竃字北谷地41,38.54877,140.8499
4445,加美町,かみまち,加美町役場,981-4292,加美郡加美町字西田3-5,38.57183,140.8549
4501,涌谷町,わくやちょう,涌谷町役場,987-0192,遠田郡涌谷町字新町裏153-2,38.53961,141.1282
4505,美里町,みさとまち,美里町役場,987-8602,遠田郡美里町北浦字駒米13,38.54433,141.0568
4581,女川町,おながわちょう,女川町役場,986-2261,牡鹿郡女川町女川浜字大原316,38.44975,141.4431
4606,南三陸町,みなみさんりくちょう,南三陸町役場,986-0792,本吉郡南三陸町志津川字沼田56-2,38.67766,141.4465
5000,秋田県,あきたけん,秋田県庁,010-8570,秋田市山王4-1-1,39.71806,140.1033
5201,秋田市,あきたし,秋田市役所,010-8560,秋田市山王1-1-1,39.71972,140.1024
5202,能代市,のしろし,能代市役所,016-8501,能代市上町1-3,40.21217,140.0266
5203,横手市,よこてし,横手市役所,013-8601,横手市中央町8-2,39.31378,140.5667
5204,大館市,おおだてし,大館市役所,017-8555,大館市字中城20,40.27162,140.5646
5206,男鹿市,おがし,男鹿市役所,010-0595,男鹿市船川港船川字泉台66-1,39.88664,139.8477
5207,湯沢市,ゆざわし,湯沢市役所,012-8501,湯沢市佐竹町1-1,39.16397,140.4949
5209,鹿角市,かづのし,鹿角市役所,018-5292,鹿角市花輪字荒田4-1,40.2158,140.7884
5210,由利本荘市,ゆりほんじょうし,由利本荘市役所,015-8501,由利本荘市尾崎17,39.38588,140.0488
5211,潟上市,かたがみし,潟上市役所,010-0201,潟上市天王字棒沼台226-1,39.85729,140.013
5212,大仙市,だいせんし,大仙市役所,014-8601,大仙市大曲花園町1-1,39.4531,140.4755
5213,北秋田市,きたあきたし,北秋田市役所,018-3392,北秋田市花園町19-1,40.22606,140.3707
5214,にかほ市,にかほし,にかほ市役所,018-0192,にかほ市象潟町字浜ノ田1,39.20311,139.9077
5215,仙北市,せんぼくし,仙北市役所,014-1298,仙北市田沢湖生保内字宮ノ後30,39.70002,140.7315
5303,小坂町,こさかまち,小坂町役場,017-0292,鹿角郡小坂町小坂字上谷地41-1,40.33297,140.736
5327,上小阿仁村,かみこあにむら,上小阿仁村役場,018-4494,北秋田郡上小阿仁村小沢田字向川原118,40.0633,140.2957
5346,藤里町,ふじさとまち,藤里町役場,018-3201,山本郡藤里町藤琴字藤琴8,40.27828,140.2618
5348,三種町,みたねちょう,三種町役場,018-2401,山本郡三種町鵜川字岩谷子8,40.10162,140.0049
5349,八峰町,はっぽうちょう,八峰町役場,018-2502,山本郡八峰町峰浜目名潟字目長田118,40.31908,140.0386
5361,五城目町,ごじょうめまち,五城目町役場,018-1792,南秋田郡五城目町西磯ノ目1-1-1,39.94414,140.1116
5363,八郎潟町,はちろうがたまち,八郎潟町役場,018-1692,南秋田郡八郎潟町字大道80,39.94942,140.0732
5366,井川町,いかわまち,井川町役場,018-1596,南秋田郡井川町北川尻字海老沢樋ノ口78-1,39.91415,140.0816
5368,大潟村,おおがたむら,大潟村役場,010-0494,南秋田郡大潟村字中央1-1,40.01774,139.9599
5434,美郷町,みさとちょう,美郷町役場,019-1541,仙北郡美郷町土崎字上野乙170-10,39.46163,140.5821
5463,羽後町,うごまち,羽後町役場,012-1131,雄勝郡羽後町西馬音内字中野177,39.19813,140.4127
5464,東成瀬村,ひがしなるせむら,東成瀬村役場,019-0801,雄勝郡東成瀬村田子内字仙人下30-1,39.17897,140.6488
6000,山形県,やまがたけん,山形県庁,990-8570,山形市松波2-8-1,38.24046,140.3633
6201,山形市,やまがたし,山形市役所,990-8540,山形市旅篭町2-3-25,38.25543,140.3394
6202,米沢市,よねざわし,米沢市役所,992-8501,米沢市金池5-2-25,37.92215,140.1169
6203,鶴岡市,つるおかし,鶴岡市役所,997-8601,鶴岡市馬場町9-25,38.72733,139.8266
6204,酒田市,さかたし,酒田市役所,998-8540,酒田市本町2-2-45,38.91453,139.8364
6205,新庄市,しんじょうし,新庄市役所,996-8501,新庄市沖の町10-37,38.76484,140.3019
6206,寒河江市,さがえし,寒河江市役所,991-8601,寒河江市中央1-9-45,38.381,140.2761
6207,上山市,かみのやまし,上山市役所,999-3192,上山市河崎1-1-10,38.14963,140.2677
6208,村山市,むらやまし,村山市役所,995-8666,村山市中央1-3-6,38.48349,140.3805
6209,長井市,ながいし,長井市役所,993-8601,長井市ままの上5-1,38.10769,140.0405
6210,天童市,てんどうし,天童市役所,994-8510,天童市老野森1-1-1,38.36211,140.3783
6211,東根市,ひがしねし,東根市役所,999-3795,東根市中央1-1-1,38.43127,140.391
6212,尾花沢市,おばなざわし,尾花沢市役所,999-4292,尾花沢市若葉町1-1-3,38.6007,140.4058
6213,南陽市,なんようし,南陽市役所,999-2292,南陽市三間通436-1,38.05519,140.1483
6301,山辺町,やまのべまち,山辺町役場,990-0392,東村山郡山辺町緑ヶ丘5,38.28906,140.2625
6302,中山町,なかやままち,中山町役場,990-0492,東村山郡中山町長崎120,38.33322,140.283
6321,河北町,かほくちょう,河北町役場,999-3511,西村山郡河北町谷地戊81,38.42627,140.3144
6322,西川町,にしかわまち,西川町役場,990-0792,西村山郡西川町海味510,38.42654,140.1477
6323,朝日町,あさひまち,朝日町役場,990-1442,西村山郡朝日町宮宿1115,38.29906,140.1458
6324,大江町,おおえまち,大江町役場,990-1101,西村山郡大江町左沢882-1,38.38072,140.2066
6341,大石田町,おおいしだまち,大石田町役場,999-4112,北村山郡大石田町緑町1,38.59375,140.3727
6361,金山町,かねやままち,金山町役場,999-5402,最上郡金山町金山324-1,38.88344,140.3394
6362,最上町,もがみまち,最上町役場,999-6101,最上郡最上町向町644,38.75846,140.5194
6363,舟形町,ふながたまち,舟形町役場,999-4601,最上郡舟形町舟形263,38.69152,140.3199
6364,真室川町,まむろがわまち,真室川町役場,999-5312,最上郡真室川町大字新町127-5,38.85788,140.2524
6365,大蔵村,おおくらむら,大蔵村役場,996-0212,最上郡大蔵村大字清水2528,38.70401,140.2305
6366,鮭川村,さけがわむら,鮭川村役場,999-5292,最上郡鮭川村大字佐渡2003-7,38.79622,140.2216
6367,戸沢村,とざわむら,戸沢村役場,999-6401,最上郡戸沢村古口270,38.73762,140.1436
6381,高畠町,たかはたまち,高畠町役場,992-0392,東置賜郡高畠町大字高畠436,38.0027,140.1891
6382,川西町,かわにしまち,川西町役場,999-0193,東置賜郡川西町上小松1567,38.00436,140.0458
6401,小国町,おぐにまち,小国町役場,999-1363,西置賜郡小国町小国小坂町2-70,38.06138,139.7433
6402,白鷹町,しらたかまち,白鷹町役場,992-0892,西置賜郡白鷹町大字荒砥甲833,38.18296,140.0986
6403,飯豊町,いいでまち,飯豊町役場,999-0696,西置賜郡飯豊町大字椿2888,38.04575,139.9875
6426,三川町,みかわまち,三川町役場,997-1301,東田川郡三川町横山字西田85,38.79455,139.8497
6428,庄内町,しょうないまち,庄内町役場,999-7781,東田川郡庄内町余目字町132-1,38.84982,139.9047
6461,遊佐町,ゆざまち,遊佐町役場,999-8301,飽海郡遊佐町遊佐字舞鶴211,39.0148,139.9075
7000,福島県,ふくしまけん,福島県庁,960-8670,福島市杉妻町2-16,37.74996,140.4677
7201,福島市,ふくしまし,福島市役所,960-8601,福島市五老内町3-1,37.76079,140.4738
7202,会津若松市,あいづわかまつし,会津若松市役所,965-8601,会津若松市東栄町3-46,37.49469,139.9297
7203,郡山市,こおりやまし,郡山市役所,963-8601,郡山市朝日1-23-7,37.40055,140.3597
7204,いわき市,いわきし,いわき市役所,970-8686,いわき市平字梅本21,37.0506,140.8877
7205,白河市,しらかわし,白河市役所,961-8602,白河市八幡小路7-1,37.12633,140.2109
7207,須賀川市,すかがわし,須賀川市役所,962-8601,須賀川市八幡町135,37.28667,140.3728
7208,喜多方市,きたかたし,喜多方市役所,966-8601,喜多方市字御清水東7244-2,37.65106,139.8745
7209,相馬市,そうまし,相馬市役所,976-8601,相馬市中村字北町63-3,37.79735,140.9189
7210,二本松市,にほんまつし,二本松市役所,964-8601,二本松市金色403-1,37.5847,140.4314
7211,田村市,たむらし,田村市役所,963-4393,田村市船引町船引字畑添76-2,37.4407,140.5762
7212,南相馬市,みなみそうまし,南相馬市役所,975-8686,南相馬市原町区本町2-27,37.64221,140.9571
7213,伊達市,だてし,伊達市役所,960-0692,伊達市保原町字舟橋180,37.81902,140.5629
7214,本宮市,もとみやし,本宮市役所,969-1192,本宮市本宮字万世212,37.51331,140.3939
7301,桑折町,こおりまち,桑折町役場,969-1692,伊達郡桑折町字東大隅18,37.84939,140.5163
7303,国見町,くにみまち,国見町役場,969-1792,伊達郡国見町大字藤田字一丁田二1-7,37.87679,140.5492
7308,川俣町,かわまたまち,川俣町役場,960-1492,伊達郡川俣町字五百田30,37.66497,140.5983
7322,大玉村,おおたまむら,大玉村役場,969-1392,安達郡大玉村玉井字星内70,37.53442,140.3711
7342,鏡石町,かがみいしまち,鏡石町役場,969-0492,岩瀬郡鏡石町不時沼345,37.25279,140.3436
7344,天栄村,てんえいむら,天栄村役場,962-0592,岩瀬郡天栄村大字下松本字原畑78,37.25528,140.2472
7362,下郷町,しもごうまち,下郷町役場,969-5345,南会津郡下郷町大字塩生字大石1000,37.25222,139.8673
7364,檜枝岐村,ひのえまたむら,檜枝岐村役場,967-0525,南会津郡檜枝岐村字下ノ原880,37.02418,139.389
7367,只見町,ただみまち,只見町役場,968-0498,南会津郡只見町大字只見字雨堤1039,37.34858,139.3159
7368,南会津町,みなみあいづまち,南会津町役場,967-0004,南会津郡南会津町田島字後原甲3531-1,37.20028,139.7734
7402,北塩原村,きたしおばらむら,北塩原村役場,966-0485,耶麻郡北塩原村大字北山字姥ヶ作3151,37.65579,139.9378
7405,西会津町,にしあいづまち,西会津町役場,969-4495,耶麻郡西会津町野沢字下小屋上乙3261,37.58884,139.6475
7407,磐梯町,ばんだいまち,磐梯町役場,969-3392,耶麻郡磐梯町大字磐梯字中ノ橋1855,37.56191,139.9883
7408,猪苗代町,いなわしろまち,猪苗代町役場,969-3123,耶麻郡猪苗代町字城南100,37.55775,140.1047
7421,会津坂下町,あいづばんげまち,会津坂下町役場,969-6592,河沼郡会津坂下町字市中三番甲3662,37.56135,139.8217
7422,湯川村,ゆがわむら,湯川村役場,969-3593,河沼郡湯川村大字清水田字長瀞18,37.5654,139.8867
7423,柳津町,やないづまち,柳津町役場,969-7201,河沼郡柳津町大字柳津字下平乙234,37.52607,139.7195
7444,三島町,みしままち,三島町役場,969-7511,大沼郡三島町大字宮下字宮下350,37.47024,139.6445
7445,金山町,かねやままち,金山町役場,968-0011,大沼郡金山町大字川口字谷地393,37.45385,139.5248
7446,昭和村,しょうわむら,昭和村役場,968-0103,大沼郡昭和村大字下中津川字中島652,37.33581,139.6106
7447,会津美里町,あいづみさとまち,会津美里町役場,969-6292,大沼郡会津美里町字宮北3163,37.45997,139.8411
7461,西郷村,にしごうむら,西郷村役場,961-8501,西白河郡西郷村大字熊倉字折口原40,37.14182,140.1553
7464,泉崎村,いずみざきむら,泉崎村役場,969-0101,西白河郡泉崎村大字泉崎字八丸145,37.15374,140.3033
7465,中島村,なかじまむら,中島村役場,961-0192,西白河郡中島村大字滑津字中島西11-1,37.14863,140.3503
7466,矢吹町,やぶきまち,矢吹町役場,969-0296,西白河郡矢吹町一本木101,37.20112,140.3386
7481,棚倉町,たなぐらまち,棚倉町役場,963-6192,東白川郡棚倉町大字棚倉字中居野33,37.02976,140.3797
7482,矢祭町,やまつりまち,矢祭町役場,963-5192,東白川郡矢祭町大字東舘字舘本66,36.87144,140.4247
7483,塙町,はなわまち,塙町役場,963-5492,東白川郡塙町大字塙字大町3-21,36.95727,140.4097
7484,鮫川村,さめがわむら,鮫川村役場,963-8401,東白川郡鮫川村大字赤坂中野字新宿39-5,37.04254,140.5097
7501,石川町,いしかわまち,石川町役場,963-7893,石川郡石川町字長久保185-4,37.15706,140.4469
7502,玉川村,たまかわむら,玉川村役場,963-6312,石川郡玉川村大字小高字中畷9,37.21085,140.4089
7503,平田村,ひらたむら,平田村役場,963-8292,石川郡平田村大字永田字切田116,37.22179,140.5759
7504,浅川町,あさかわまち,浅川町役場,963-6292,石川郡浅川町大字浅川字背戸谷地112-15,37.08086,140.4128
7505,古殿町,ふるどのまち,古殿町役場,963-8304,石川郡古殿町大字松川字新桑原31,37.08948,140.5575
7521,三春町,みはるまち,三春町役場,963-7796,田村郡三春町字大町1-2,37.4411,140.4927
7522,小野町,おのまち,小野町役場,963-3492,田村郡小野町大字小野新町字舘廻92,37.28696,140.6264
7541,広野町,ひろのまち,広野町役場,979-0402,双葉郡広野町大字下北迫字苗代替35,37.21448,140.9947
7542,楢葉町,ならはまち,楢葉町役場,979-0696,双葉郡楢葉町大字北田字鐘突堂5-6,37.28263,140.9935
7543,富岡町,とみおかまち,富岡町役場,979-1192,双葉郡富岡町大字本岡字王塚622-1,37.34591,141.0089
7544,川内村,かわうちむら,川内村役場,979-1292,双葉郡川内村大字上川内字早渡11-24,37.33763,140.8094
7545,大熊町,おおくままち,大熊町役場,965-0873,会津若松市追手町2-41（会津若松市役所追手町第二庁舎内）,37.48977,139.9279
7546,双葉町,ふたばまち,双葉町役場,974-8212,いわき市東田町二丁目19-4,36.92186,140.8006
7547,浪江町,なみえまち,浪江町役場,979-1592,双葉郡浪江町大字幾世橋字六反田7-2,37.49458,141.0007
7548,葛尾村,かつらおむら,葛尾村役場,979-1602,双葉郡葛尾村大字落合字落合16,37.50354,140.7645
7561,新地町,しんちまち,新地町役場,979-2792,相馬郡新地町谷地小屋字樋掛田30,37.87584,140.9194
7564,飯舘村,いいたてむら,飯舘村役場,960-1892,相馬郡飯舘村伊丹沢字伊丹沢580-1,37.67914,140.7355
8000,茨城県,いばらぎけん,茨城県庁,310-8555,水戸市笠原町978-6,36.34145,140.4467
8201,水戸市,みとし,水戸市役所,310-8610,水戸市中央1-4-1,36.36573,140.4715
8202,日立市,ひたちし,日立市役所,317-8601,日立市助川町1-1-1,36.59918,140.6516
8203,土浦市,つちうらし,土浦市役所,300-8686,土浦市大和町9-1,36.07846,140.2019
8204,古河市,こがし,古河市役所,306-0291,古河市下大野2248,36.17883,139.7557
8205,石岡市,いしおかし,石岡市役所,315-8640,石岡市石岡1-1-1,36.19074,140.2873
8207,結城市,ゆうきし,結城市役所,307-8501,結城市大字結城1447,36.30516,139.8774
8208,龍ケ崎市,りゅうがさきし,龍ケ崎市役所,301-8611,龍ケ崎市3710,35.91152,140.1823
8210,下妻市,しもつまし,下妻市役所,304-8501,下妻市大字本城町2-22,36.18449,139.9674
8211,常総市,じょうそうし,常総市役所,303-8501,常総市水海道諏訪町3222-3,36.02356,139.9938
8212,常陸太田市,ひたちおおたし,常陸太田市役所,313-8611,常陸太田市金井町3690,36.53835,140.531
8214,高萩市,たかはぎし,高萩市役所,318-8511,高萩市春日町3-10-16,36.71916,140.7166
8215,北茨城市,きたいばらきし,北茨城市役所,319-1592,北茨城市磯原町磯原1630,36.80191,140.7512
8216,笠間市,かさまし,笠間市役所,309-1792,笠間市中央3-2-1,36.386,140.2376
8217,取手市,とりでし,取手市役所,302-8585,取手市寺田5139,35.91144,140.0504
8219,牛久市,うしくし,牛久市役所,300-1292,牛久市中央3-15-1,35.97935,140.1496
8220,つくば市,つくばし,つくば市役所,305-8555,つくば市研究学園1-1-1,36.08344,140.0765
8221,ひたちなか市,ひたちなかし,ひたちなか市役所,312-8501,ひたちなか市東石川2-10-1,36.3965,140.5345
8222,鹿嶋市,かしまし,鹿嶋市役所,314-8655,鹿嶋市大字平井1187-1,35.96585,140.645
8223,潮来市,いたこし,潮来市役所,311-2493,潮来市辻626,35.94714,140.5553
8224,守谷市,もりやし,守谷市役所,302-0198,守谷市大柏950-1,35.95135,139.9755
8225,常陸大宮市,ひたちおおみやし,常陸大宮市役所,319-2292,常陸大宮市中富町3135-6,36.54243,140.4109
8226,那珂市,なかし,那珂市役所,311-0192,那珂市福田1819-5,36.45738,140.4867
8227,筑西市,ちくせいし,筑西市役所,308-8616,筑西市丙360,36.30526,139.9794
8228,坂東市,ばんどうし,坂東市役所,306-0692,坂東市岩井4365,36.04833,139.8888
8229,稲敷市,いなしきし,稲敷市役所,300-0595,稲敷市犬塚1570-1,35.97242,140.3035
8230,かすみがうら市,かすみがうらし,かすみがうら市役所,315-8512,かすみがうら市上土田461,36.15183,140.2371
8231,桜川市,さくらがわし,桜川市役所,309-1293,桜川市羽田1023,36.32733,140.0905
8232,神栖市,かみすし,神栖市役所,314-0192,神栖市溝口4991-5,35.8899,140.6646
8233,行方市,なめがたし,行方市役所,311-3892,行方市麻生1561-9,35.99022,140.4891
8234,鉾田市,ほこたし,鉾田市役所,311-1592,鉾田市鉾田1444-1,36.1587,140.5165
8235,つくばみらい市,つくばみらいし,つくばみらい市役所,300-2395,つくばみらい市福田195,35.96296,140.0371
8236,小美玉市,おみたまし,小美玉市役所,319-0192,小美玉市堅倉835,36.23935,140.3526
8302,茨城町,いばらきまち,茨城町役場,311-3192,東茨城郡茨城町大字小堤1080,36.28687,140.4247
8309,大洗町,おおあらいまち,大洗町役場,311-1392,東茨城郡大洗町磯浜町6881-275,36.31237,140.5749
8310,城里町,しろさとまち,城里町役場,311-4391,東茨城郡城里町大字石塚1428-25,36.47921,140.3763
8341,東海村,とうかいむら,東海村役場,319-1192,那珂郡東海村東海3-7-1,36.47291,140.5662
8364,大子町,だいごまち,大子町役場,319-3526,久慈郡大子町大字大子866,36.76809,140.3553
8442,美浦村,みほむら,美浦村役場,300-0492,稲敷郡美浦村大字受領1515,36.0044,140.3018
8443,阿見町,あみまち,阿見町役場,300-0392,稲敷郡阿見町中央1-1-1,36.03081,140.215
8447,河内町,かわちまち,河内町役場,300-1392,稲敷郡河内町源清田1183,35.88475,140.2445
8521,八千代町,やちよまち,八千代町役場,300-3592,結城郡八千代町大字菅谷1170,36.18129,139.8913
8542,五霞町,ごかまち,五霞町役場,306-0392,猿島郡五霞町大字小福田1162-1,36.11449,139.7452
8546,境町,さかいまち,境町役場,306-0495,猿島郡境町391-1,36.10855,139.795
8564,利根町,とねまち,利根町役場,300-1696,北相馬郡利根町布川841-1,35.85775,140.1393
9000,栃木県,とちぎけん,栃木県庁,320-8501,宇都宮市塙田1-1-20,36.56569,139.8835
9201,宇都宮市,うつのみやし,宇都宮市役所,320-8540,宇都宮市旭1-1-5,36.55519,139.8827
9202,足利市,あしかがし,足利市役所,326-8601,足利市本城3-2145,36.34023,139.4498
9203,栃木市,とちぎし,栃木市役所,328-8686,栃木市万町9-25,36.38242,139.7342
9204,佐野市,さのし,佐野市役所,327-8501,佐野市高砂町1,36.31431,139.5785
9205,鹿沼市,かぬまし,鹿沼市役所,322-8601,鹿沼市今宮町1688-1,36.5671,139.745
9206,日光市,にっこうし,日光市役所,321-1292,日光市今市本町1,36.71991,139.6982
9208,小山市,おやまし,小山市役所,323-8686,小山市中央町1-1-1,36.31458,139.8002
9209,真岡市,もおかし,真岡市役所,321-4395,真岡市荒町5191,36.44012,140.013
9210,大田原市,おおたわらし,大田原市役所,324-8641,大田原市本町1-4-1,36.87077,140.0156
9211,矢板市,やいたし,矢板市役所,329-2192,矢板市本町5-4,36.80674,139.9242
9213,那須塩原市,なすしおばらし,那須塩原市役所,325-8501,那須塩原市共墾社108-2,36.9617,140.0461
9214,さくら市,さくらし,さくら市役所,329-1392,さくら市氏家2771,36.68526,139.9665
9215,那須烏山市,なすからすやまし,那須烏山市役所,321-0692,那須烏山市中央1-1-1,36.65685,140.1516
9216,下野市,しもつけし,下野市役所,329-0492,下野市笹原26,36.39516,139.8521
9301,上三川町,かみのかわまち,上三川町役場,329-0696,河内郡上三川町しらさぎ1-1,36.43929,139.9101
9342,益子町,ましこまち,益子町役場,321-4293,芳賀郡益子町大字益子2030,36.46734,140.0932
9343,茂木町,もてぎまち,茂木町役場,321-3598,芳賀郡茂木町大字茂木155,36.53217,140.1876
9344,市貝町,いちかいまち,市貝町役場,321-3493,芳賀郡市貝町大字市塙1280,36.54328,140.1021
9345,芳賀町,はがまち,芳賀町役場,321-3392,芳賀郡芳賀町祖母井1020,36.54817,140.0581
9361,壬生町,みぶまち,壬生町役場,321-0292,下都賀郡壬生町通町12-22,36.42709,139.8039
9364,野木町,のぎまち,野木町役場,329-0195,下都賀郡野木町大字丸林571,36.23317,139.7409
9384,塩谷町,しおやまち,塩谷町役場,329-2292,塩谷郡塩谷町大字玉生741,36.77758,139.8506
9386,高根沢町,たかねざわまち,高根沢町役場,329-1292,塩谷郡高根沢町大字石末2053,36.63102,139.9866
9407,那須町,なすまち,那須町役場,329-3292,那須郡那須町大字寺子丙3-13,37.01975,140.121
9411,那珂川町,なかがわまち,那珂川町役場,324-0692,那須郡那珂川町馬頭409,36.7382,140.1714
10000,群馬県,ぐんまけん,群馬県庁,371-8570,前橋市大手町1-1-1,36.39119,139.0609
10201,前橋市,まえばしし,前橋市役所,371-8601,前橋市大手町2-12-1,36.38928,139.0636
10202,高崎市,たかさきし,高崎市役所,370-8501,高崎市高松町35-1,36.32187,139.0036
10203,桐生市,きりゅうし,桐生市役所,376-8501,桐生市織姫町1-1,36.40517,139.3306
10204,伊勢崎市,いせさきし,伊勢崎市役所,372-8501,伊勢崎市今泉町2-410,36.31137,139.1967
10205,太田市,おおたし,太田市役所,373-8718,太田市浜町2-35,36.29162,139.3757
10206,沼田市,ぬまたし,沼田市役所,378-8501,沼田市西倉内町780,36.64594,139.0441
10207,館林市,たてばやしし,館林市役所,374-8501,館林市城町1-1,36.24488,139.5423
10208,渋川市,しぶかわし,渋川市役所,377-8501,渋川市石原80,36.48948,139.0004
10209,藤岡市,ふじおかし,藤岡市役所,375-8601,藤岡市中栗須327,36.25851,139.0746
10210,富岡市,とみおかし,富岡市役所,370-2392,富岡市富岡1460-1,36.25987,138.89
10211,安中市,あんなかし,安中市役所,379-0192,安中市安中1-23-13,36.32628,138.8872
10212,みどり市,みどりし,みどり市役所,379-2395,みどり市笠懸町鹿2952,36.39484,139.2811
10344,榛東村,しんとうむら,榛東村役場,370-3593,北群馬郡榛東村大字新井790番地1,36.43861,138.9671
10345,吉岡町,よしおかまち,吉岡町役場,370-3692,北群馬郡吉岡町大字下野田560,36.44735,139.0104
10366,上野村,うえのむら,上野村役場,370-1614,多野郡上野村大字川和11,36.08325,138.7773
10367,神流町,かんなまち,神流町役場,370-1592,多野郡神流町万場90-6,36.116,138.917
10382,下仁田町,しもにたまち,下仁田町役場,370-2601,甘楽郡下仁田町大字下仁田682,36.2124,138.7891
10383,南牧村,なんもくむら,南牧村役場,370-2806,甘楽郡南牧村大字大日向1098,36.15757,138.7113
10384,甘楽町,かんらまち,甘楽町役場,370-2292,甘楽郡甘楽町大字小幡161-1,36.24298,138.9218
10421,中之条町,なかのじょうまち,中之条町役場,377-0494,吾妻郡中之条町大字中之条町1091,36.58989,138.841
10424,長野原町,ながのはらまち,長野原町役場,377-1392,吾妻郡長野原町大字長野原66-3,36.55233,138.6376
10425,嬬恋村,つまごいむら,嬬恋村役場,377-1692,吾妻郡嬬恋村大字大前110,36.51667,138.5303
10426,草津町,くさつまち,草津町役場,377-1792,吾妻郡草津町大字草津28,36.62066,138.5961
10428,高山村,たかやまむら,高山村役場,377-0792,吾妻郡高山村大字中山2856-1,36.62075,138.9435
10429,東吾妻町,ひがしあがつままち,東吾妻町役場,377-0892,吾妻郡東吾妻町大字原町594-3,36.57133,138.8255
10443,片品村,かたしなむら,片品村役場,378-0498,利根郡片品村大字鎌田3967-3,36.77249,139.2252
10444,川場村,かわばむら,川場村役場,378-0101,利根郡川場村大字谷地2390-2,36.69466,139.1065
10448,昭和村,しょうわむら,昭和村役場,379-1298,利根郡昭和村大字糸井388,36.63958,139.0657
10449,みなかみ町,みなかみまち,みなかみ町役場,379-1393,利根郡みなかみ町後閑318,36.67899,138.999
10464,玉村町,たまむらまち,玉村町役場,370-1192,佐波郡玉村町大字下新田201,36.3044,139.1149
10521,板倉町,いたくらまち,板倉町役場,374-0192,邑楽郡板倉町大字板倉2067,36.22294,139.6103
10522,明和町,めいわまち,明和町役場,370-0795,邑楽郡明和町新里250-1,36.21133,139.5345
10523,千代田町,ちよだまち,千代田町役場,370-0598,邑楽郡千代田町大字赤岩1895-1,36.21775,139.4425
10524,大泉町,おおいずみまち,大泉町役場,370-0595,邑楽郡大泉町日の出55-1,36.24782,139.405
10525,邑楽町,おうらまち,邑楽町役場,370-0692,邑楽郡邑楽町大字中野2570番地1,36.2638,139.4676
11000,埼玉県,さいたまけん,埼玉県庁,330-9301,さいたま市浦和区高砂3-15-1,35.85691,139.6489
11100,さいたま市,さいたまし,さいたま市役所,330-9588,さいたま市浦和区常盤6-4-4,35.8616,139.6454
11101,さいたま市西区,さいたましにしく,西区役所,331-8587,さいたま市西区大字指扇3743,35.92529,139.5795
11102,さいたま市北区,さいたましきたく,北区役所,331-8586,さいたま市北区宮原町1丁目852番地1,35.92998,139.6208
11103,さいたま市大宮区,さいたましおおみやく,大宮区役所,330-8501,さいたま市大宮区大門町3-1,35.90646,139.6287
11104,さいたま市見沼区,さいたましみぬまく,見沼区役所,337-8586,さいたま市見沼区堀崎町12-36,35.93523,139.6545
11105,さいたま市中央区,さいたましちゅうおうく,中央区役所,338-8686,さいたま市中央区下落合5-7-10,35.88389,139.6261
11106,さいたま市桜区,さいたましさくらく,桜区役所,338-8586,さいたま市桜区道場4-3-1,35.85707,139.6092
11107,さいたま市浦和区,さいたましうらわく,浦和区役所,330-9586,さいたま市浦和区常盤6-4-4,35.8616,139.6454
11108,さいたま市南区,さいたましみなみく,南区役所,336-8586,さいたま市南区別所7-20-1,35.84526,139.6454
11109,さいたま市緑区,さいたましみどりく,緑区役所,336-8587,さいたま市緑区大字中尾975-1,35.87131,139.6839
11110,さいたま市岩槻区,さいたましいわつきく,岩槻区役所,339-8585,さいたま市岩槻区本町3-2-5,35.94991,139.6942
11201,川越市,かわごえし,川越市役所,350-8601,川越市元町1-3-1,35.92512,139.4858
11202,熊谷市,くまがやし,熊谷市役所,360-8601,熊谷市宮町2-47-1,36.14733,139.3886
11203,川口市,かわぐちし,川口市役所,332-8601,川口市青木2-1-1,35.80789,139.7241
11206,行田市,ぎょうだし,行田市役所,361-8601,行田市本丸2-5,36.13881,139.4558
11207,秩父市,ちちぶし,秩父市役所,368-8686,秩父市熊木町8-15,35.99168,139.0855
11208,所沢市,ところざわし,所沢市役所,359-8501,所沢市並木1-1-1,35.79955,139.4688
11209,飯能市,はんのうし,飯能市役所,357-8501,飯能市大字双柳1-1,35.85576,139.3278
11210,加須市,かぞし,加須市役所,347-8501,加須市三俣2-1-1,36.1314,139.6019
11211,本庄市,ほんじょうし,本庄市役所,367-8501,本庄市本庄3-5-3,36.24374,139.1904
11212,東松山市,ひがしまつやまし,東松山市役所,355-8601,東松山市松葉町1-1-58,36.04213,139.4
11214,春日部市,かすかべし,春日部市役所,344-8577,春日部市中央6-2,35.97523,139.7525
11215,狭山市,さやまし,狭山市役所,350-1380,狭山市入間川1-23-5,35.85299,139.4122
11216,羽生市,はにゅうし,羽生市役所,348-8601,羽生市東6-15,36.17267,139.5486
11217,鴻巣市,こうのすし,鴻巣市役所,365-8601,鴻巣市中央1-1,36.06591,139.5222
11218,深谷市,ふかやし,深谷市役所,366-8501,深谷市仲町11-1,36.19747,139.2814
11219,上尾市,あげおし,上尾市役所,362-8501,上尾市本町3-1-1,35.97744,139.5933
11221,草加市,そうかし,草加市役所,340-8550,草加市高砂1-1-1,35.82542,139.8054
11222,越谷市,こしがやし,越谷市役所,343-8501,越谷市越ヶ谷4-2-1,35.89107,139.7908
11223,蕨市,わらびし,蕨市役所,335-8501,蕨市中央5-14-15,35.82563,139.6795
11224,戸田市,とだし,戸田市役所,335-8588,戸田市上戸田1-18-1,35.81758,139.6778
11225,入間市,いるまし,入間市役所,358-8511,入間市豊岡1-16-1,35.83585,139.3911
11227,朝霞市,あさかし,朝霞市役所,351-8501,朝霞市本町1-1-1,35.79727,139.5937
11228,志木市,しきし,志木市役所,353-8501,志木市中宗岡1-1-1,35.8366,139.5803
11229,和光市,わこうし,和光市役所,351-0192,和光市広沢1-5,35.78142,139.6057
11230,新座市,にいざし,新座市役所,352-8623,新座市野火止1-1-1,35.79341,139.5653
11231,桶川市,おけがわし,桶川市役所,363-8501,桶川市大字上日出谷936-1,36.00578,139.5425
11232,久喜市,くきし,久喜市役所,346-8501,久喜市大字下早見85-3,36.06219,139.6669
11233,北本市,きたもとし,北本市役所,364-8633,北本市本町1-111,36.02719,139.5302
11234,八潮市,やしおし,八潮市役所,340-8588,八潮市中央1-2-1,35.82267,139.8391
11235,富士見市,ふじみし,富士見市役所,354-8511,富士見市大字鶴馬1800-1,35.85657,139.5493
11237,三郷市,みさとし,三郷市役所,341-8501,三郷市花和田648-1,35.83014,139.8724
11238,蓮田市,はすだし,蓮田市役所,349-0193,蓮田市大字黒浜2799-1,35.99428,139.6623
11239,坂戸市,さかどし,坂戸市役所,350-0292,坂戸市千代田1-1-1,35.95727,139.403
11240,幸手市,さってし,幸手市役所,340-0192,幸手市東4-6-8,36.07807,139.7259
11241,鶴ヶ島市,つるがしまし,鶴ヶ島市役所,350-2292,鶴ヶ島市大字三ツ木16-1,35.93453,139.3932
11242,日高市,ひだかし,日高市役所,350-1292,日高市大字南平沢1020,35.90778,139.3391
11243,吉川市,よしかわし,吉川市役所,342-8501,吉川市吉川2-1-1,35.89107,139.8414
11245,ふじみ野市,ふじみのし,ふじみ野市役所,356-8501,ふじみ野市福岡1-1-1,35.87921,139.5204
11246,白岡市,しらおかし,白岡市役所,349-0292,白岡市千駄野432,36.019,139.6769
11301,伊奈町,いなまち,伊奈町役場,362-8517,北足立郡伊奈町大字小室9493,36,139.624
11324,三芳町,みよしまち,三芳町役場,354-8555,入間郡三芳町大字藤久保1100-1,35.82824,139.5266
11326,毛呂山町,もろやままち,毛呂山町役場,350-0493,入間郡毛呂山町中央2-1,35.94164,139.3161
11327,越生町,おごせまち,越生町役場,350-0494,入間郡越生町大字越生900-2,35.96452,139.2942
11341,滑川町,なめがわまち,滑川町役場,355-8585,比企郡滑川町大字福田750-1,36.06598,139.3609
11342,嵐山町,らんざんまち,嵐山町役場,355-0211,比企郡嵐山町大字杉山1030-1,36.0566,139.3203
11343,小川町,おがわまち,小川町役場,355-0392,比企郡小川町大字大塚55,36.05665,139.2618
11346,川島町,かわじままち,川島町役場,350-0192,比企郡川島町大字下八ツ林870-1,35.99249,139.4844
11347,吉見町,よしみまち,吉見町役場,355-0192,比企郡吉見町大字下細谷411,36.03988,139.4538
11348,鳩山町,はとやままち,鳩山町役場,350-0392,比企郡鳩山町大字大豆戸184-16,35.98158,139.334
11349,ときがわ町,ときがわまち,ときがわ町役場,355-0395,比企郡ときがわ町大字玉川2490,36.00866,139.2968
11361,横瀬町,よこぜまち,横瀬町役場,368-0072,秩父郡横瀬町大字横瀬4545,35.98732,139.1002
11362,皆野町,みなのまち,皆野町役場,369-1492,秩父郡皆野町大字皆野1420-1,36.07081,139.0988
11363,長瀞町,ながとろまち,長瀞町役場,369-1392,秩父郡長瀞町大字本野上1035-1,36.11483,139.1099
11365,小鹿野町,おがのまち,小鹿野町役場,368-0192,秩父郡小鹿野町小鹿野89,36.0171,139.0086
11369,東秩父村,ひがしちちぶむら,東秩父村役場,355-0393,秩父郡東秩父村大字御堂634,36.05812,139.1947
11381,美里町,みさとまち,美里町役場,367-0194,児玉郡美里町大字木部323-1,36.17708,139.1813
11383,神川町,かみかわまち,神川町役場,367-0292,児玉郡神川町大字植竹909,36.21388,139.1018
11385,上里町,かみさとまち,上里町役場,369-0392,児玉郡上里町大字七本木5518,36.25182,139.1448
11408,寄居町,よりいまち,寄居町役場,369-1292,大里郡寄居町大字寄居1180-1,36.11825,139.193
11442,宮代町,みやしろまち,宮代町役場,345-8504,南埼玉郡宮代町笠原1-4-1,36.02272,139.7225
11464,杉戸町,すぎとまち,杉戸町役場,345-8502,北葛飾郡杉戸町清地2-9-29,36.02564,139.7367
11465,松伏町,まつぶしまち,松伏町役場,343-0192,北葛飾郡松伏町大字松伏2424,35.92576,139.8153
12000,千葉県,ちばけん,千葉県庁,260-8667,千葉市中央区市場町1-1,35.60459,140.1232
12100,千葉市,ちばし,千葉市役所,260-8722,千葉市中央区千葉港1-1,35.60722,140.1064
12101,千葉市中央区,ちばしちゅうおうく,中央区役所,260-8733,千葉市中央区中央3-10-8,35.60898,140.1247
12102,千葉市花見川区,ちばしはなみがわく,花見川区役所,262-8733,千葉市花見川区瑞穂1-1,35.66285,140.069
12103,千葉市稲毛区,ちばしいなげく,稲毛区役所,263-8733,千葉市稲毛区穴川4-12-1,35.63628,140.1072
12104,千葉市若葉区,ちばしわかばく,若葉区役所,264-8733,千葉市若葉区桜木北2-1-1,35.63411,140.1555
12105,千葉市緑区,ちばしみどりく,緑区役所,266-8733,千葉市緑区おゆみ野3-15-3,35.56033,140.1761
12106,千葉市美浜区,ちばしみはまく,美浜区役所,261-8733,千葉市美浜区真砂5-15-1,35.64039,140.0631
12202,銚子市,ちょうしし,銚子市役所,288-8601,銚子市若宮町1-1,35.73465,140.8267
12203,市川市,いちかわし,市川市役所,272-8501,市川市南八幡2-20-2,35.7136,139.9279
12204,船橋市,ふなばしし,船橋市役所,273-8501,船橋市湊町2-10-25,35.6946,139.9825
12205,館山市,たてやまし,館山市役所,294-8601,館山市北条1145-1,34.99661,139.8699
12206,木更津市,きさらづし,木更津市役所,292-8501,木更津市富士見1-2-1,35.38121,139.9249
12207,松戸市,まつどし,松戸市役所,271-8588,松戸市根本387-5,35.78767,139.9032
12208,野田市,のだし,野田市役所,278-8550,野田市鶴奉7-1,35.95504,139.8748
12210,茂原市,もばらし,茂原市役所,297-8511,茂原市道表1,35.42836,140.2879
12211,成田市,なりたし,成田市役所,286-8585,成田市花崎町760,35.77663,140.3183
12212,佐倉市,さくらし,佐倉市役所,285-8501,佐倉市海隣寺町97,35.72383,140.2239
12213,東金市,とうがねし,東金市役所,283-8511,東金市東岩崎1番地1,35.55996,140.3661
12215,旭市,あさひし,旭市役所,289-2595,旭市ニの1920,35.72039,140.6466
12216,習志野市,ならしのし,習志野市役所,275-8601,習志野市鷺沼2-1-1,35.68164,140.0273
12217,柏市,かしわし,柏市役所,277-8505,柏市柏5-10-1,35.86816,139.9764
12218,勝浦市,かつうらし,勝浦市役所,299-5292,勝浦市新官1343-1,35.15245,140.321
12219,市原市,いちはらし,市原市役所,290-8501,市原市国分寺台中央1-1-1,35.49796,140.1155
12220,流山市,ながれやまし,流山市役所,270-0192,流山市平和台1-1-1,35.85619,139.9025
12221,八千代市,やちよし,八千代市役所,276-8501,八千代市大和田新田312-5,35.72246,140.0998
12222,我孫子市,あびこし,我孫子市役所,270-1192,我孫子市我孫子1858,35.86414,140.0283
12223,鴨川市,かもがわし,鴨川市役所,296-8601,鴨川市横渚1450,35.11404,140.0989
12224,鎌ケ谷市,かまがやし,鎌ケ谷市役所,273-0195,鎌ケ谷市新鎌ケ谷2-6-1,35.77684,140.0007
12225,君津市,きみつし,君津市役所,299-1192,君津市久保2-13-1,35.33065,139.9025
12226,富津市,ふっつし,富津市役所,293-8506,富津市下飯野2443,35.30412,139.857
12227,浦安市,うらやすし,浦安市役所,279-8501,浦安市猫実1-1-1,35.65363,139.9016
12228,四街道市,よつかいどうし,四街道市役所,284-8555,四街道市鹿渡無番地,35.66994,140.1682
12229,袖ケ浦市,そでがうらし,袖ケ浦市役所,299-0292,袖ケ浦市坂戸市場1-1,35.42991,139.9546
12230,八街市,やちまたし,八街市役所,289-1192,八街市八街ほ35-29,35.66583,140.3182
12231,印西市,いんざいし,印西市役所,270-1396,印西市大森2364-2,35.83234,140.1458
12232,白井市,しろいし,白井市役所,270-1492,白井市復1123,35.79159,140.0564
12233,富里市,とみさとし,富里市役所,286-0292,富里市七栄652-1,35.72674,140.343
12234,南房総市,みなみぼうそうし,南房総市役所,299-2492,南房総市富浦町青木28,35.04319,139.8401
12235,匝瑳市,そうさし,匝瑳市役所,289-2198,匝瑳市八日市場ハ793番地2,35.70786,140.5643
12236,香取市,かとりし,香取市役所,287-8501,香取市佐原ロ2127,35.8977,140.4992
12237,山武市,さんむし,山武市役所,289-1392,山武市殿台296,35.60281,140.4135
12238,いすみ市,いすみし,いすみ市役所,298-8501,いすみ市大原7400-1,35.25399,140.3853
12239,大網白里市,おおあみしらさとし,大網白里市役所,299-3292,大網白里市大網115-2,35.52171,140.321
12322,酒々井町,しすいまち,酒々井町役場,285-8510,印旛郡酒々井町中央台4-11,35.72488,140.2696
12329,栄町,さかえまち,栄町役場,270-1592,印旛郡栄町安食台1-2,35.84087,140.244
12342,神崎町,こうざきまち,神崎町役場,289-0292,香取郡神崎町神崎本宿163,35.90156,140.4052
12347,多古町,たこまち,多古町役場,289-2292,香取郡多古町多古584,35.73555,140.4678
12349,東庄町,とうのしょうまち,東庄町役場,289-0692,香取郡東庄町笹川い4713-131,35.83715,140.6688
12403,九十九里町,くじゅうくりまち,九十九里町役場,283-0195,山武郡九十九里町片貝4099,35.53502,140.4404
12409,芝山町,しばやままち,芝山町役場,289-1692,山武郡芝山町小池992,35.69306,140.4143
12410,横芝光町,よこしばひかりまち,横芝光町役場,289-1793,山武郡横芝光町宮川11902,35.66556,140.5043
12421,一宮町,いちのみやまち,一宮町役場,299-4396,長生郡一宮町一宮2457,35.37276,140.3688
12422,睦沢町,むつざわまち,睦沢町役場,299-4492,長生郡睦沢町下之郷1650-1,35.3611,140.3191
12423,長生村,ちょうせいむら,長生村役場,299-4394,長生郡長生村本郷1-77,35.4122,140.3541
12424,白子町,しらこまち,白子町役場,299-4292,長生郡白子町関5074-2,35.45433,140.3744
12426,長柄町,ながらまち,長柄町役場,297-0298,長生郡長柄町桜谷712,35.43078,140.228
12427,長南町,ちょうなんまち,長南町役場,297-0192,長生郡長南町長南2110,35.38659,140.2371
12441,大多喜町,おおたきまち,大多喜町役場,298-0292,夷隅郡大多喜町大多喜93,35.28485,140.2455
12443,御宿町,おんじゅくまち,御宿町役場,299-5192,夷隅郡御宿町須賀1522,35.19228,140.3486
12463,鋸南町,きょなんまち,鋸南町役場,299-2192,安房郡鋸南町下佐久間3458,35.11101,139.8355
13000,東京都,とうきょうと,東京都庁,163-8001,新宿区西新宿2-8-1,35.68957,139.6917
13101,千代田区,ちよだく,千代田区役所,102-8688,千代田区九段南1-2-1,35.694,139.7536
13102,中央区,ちゅうおうく,中央区役所,104-8404,中央区築地1-1-1,35.67077,139.7721
13103,港区,みなとく,港区役所,105-8511,港区芝公園1-5-25,35.65807,139.7515
13104,新宿区,しんじゅくく,新宿区役所,160-8484,新宿区歌舞伎町1-4-1,35.69398,139.7035
13105,文京区,ぶんきょうく,文京区役所,112-8555,文京区春日1-16-21,35.70796,139.7523
13106,台東区,たいとうく,台東区役所,110-8615,台東区東上野4-5-6,35.71262,139.78
13107,墨田区,すみだく,墨田区役所,130-8640,墨田区吾妻橋1-23-20,35.71057,139.8017
13108,江東区,こうとうく,江東区役所,135-8383,江東区東陽4-11-28,35.67316,139.8172
13109,品川区,しながわく,品川区役所,140-8715,品川区広町2-1-36,35.60897,139.7302
13110,目黒区,めぐろく,目黒区役所,153-8573,目黒区上目黒2-19-15,35.64141,139.6983
13111,大田区,おおたく,大田区役所,144-8621,大田区蒲田5-13-14,35.56139,139.7161
13112,世田谷区,せたがやく,世田谷区役所,154-8504,世田谷区世田谷4-21-27,35.64621,139.6532
13113,渋谷区,しぶやく,渋谷区役所,150-8010,渋谷区渋谷1-18-21,35.66199,139.7037
13114,中野区,なかのく,中野区役所,164-8501,中野区中野4-8-1,35.70743,139.6639
13115,杉並区,すぎなみく,杉並区役所,166-8570,杉並区阿佐谷南1-15-1,35.69957,139.6365
13116,豊島区,としまく,豊島区役所,171-8422,豊島区南池袋2-45-1,35.72613,139.7166
13117,北区,きたく,北区役所,114-8508,北区王子本町1-15-22,35.75278,139.7337
13118,荒川区,あらかわく,荒川区役所,116-8501,荒川区荒川2-2-3,35.73618,139.7833
13119,板橋区,いたばしく,板橋区役所,173-8501,板橋区板橋2-66-1,35.75098,139.7093
13120,練馬区,ねりまく,練馬区役所,176-8501,練馬区豊玉北6-12-1,35.73565,139.6522
13121,足立区,あだちく,足立区役所,120-8510,足立区中央本町1-17-1,35.77492,139.8046
13122,葛飾区,かつしかく,葛飾区役所,124-8555,葛飾区立石5-13-1,35.74343,139.8472
13123,江戸川区,えどがわく,江戸川区役所,132-8501,江戸川区中央1-4-1,35.70665,139.8683
13201,八王子市,はちおうじし,八王子市役所,192-8501,八王子市元本郷町3-24-1,35.66651,139.3159
13202,立川市,たちかわし,立川市役所,190-8666,立川市泉町1156-9,35.71398,139.4078
13203,武蔵野市,むさしのし,武蔵野市役所,180-8777,武蔵野市緑町2-2-28,35.71787,139.5662
13204,三鷹市,みたかし,三鷹市役所,181-8555,三鷹市野崎1-1-1,35.68332,139.5595
13205,青梅市,おうめし,青梅市役所,198-8701,青梅市東青梅1-11-1,35.78819,139.275
13206,府中市,ふちゅうし,府中市役所,183-8703,府中市宮西町2-24,35.66895,139.4777
13207,昭島市,あきしまし,昭島市役所,196-8511,昭島市田中町1-17-1,35.70567,139.3535
13208,調布市,ちょうふし,調布市役所,182-8511,調布市小島町2-35-1,35.65065,139.5409
13209,町田市,まちだし,町田市役所,194-8520,町田市森野2-2-22,35.54664,139.4386
13210,小金井市,こがねいし,小金井市役所,184-8504,小金井市本町6-6-3,35.69953,139.5031
13211,小平市,こだいらし,小平市役所,187-8701,小平市小川町2-1333,35.7285,139.4775
13212,日野市,ひのし,日野市役所,191-0016,日野市神明1-12-1,35.6714,139.3949
13213,東村山市,ひがしむらやまし,東村山市役所,189-8501,東村山市本町1-2-3,35.75464,139.4685
13214,国分寺市,こくぶんじし,国分寺市役所,185-8501,国分寺市戸倉1-6-1,35.71095,139.4622
13215,国立市,くにたちし,国立市役所,186-8501,国立市富士見台2-47-1,35.68392,139.4415
13218,福生市,ふっさし,福生市役所,197-8501,福生市本町5,35.73869,139.3267
13219,狛江市,こまえし,狛江市役所,201-8585,狛江市和泉本町1-1-5,35.63479,139.5787
13220,東大和市,ひがしやまとし,東大和市役所,207-8585,東大和市中央3-930,35.74542,139.4265
13221,清瀬市,きよせし,清瀬市役所,204-8511,清瀬市中里5-842,35.78578,139.5265
13222,東久留米市,ひがしくるめし,東久留米市役所,203-8555,東久留米市本町3-3-1,35.75803,139.5298
13223,武蔵村山市,むさしむらやまし,武蔵村山市役所,208-8501,武蔵村山市本町1-1-1,35.75483,139.3874
13224,多摩市,たまし,多摩市役所,206-8666,多摩市関戸6-12-1,35.63698,139.4463
13225,稲城市,いなぎし,稲城市役所,206-8601,稲城市東長沼2111,35.63802,139.5046
13227,羽村市,はむらし,羽村市役所,205-8601,羽村市緑ヶ丘5-2-1,35.76716,139.3111
13228,あきる野市,あきるのし,あきる野市役所,197-0814,あきる野市二宮350,35.72936,139.2938
13229,西東京市,にしとうきょうし,西東京市役所,188-8666,西東京市南町5-6-13,35.72575,139.5385
13303,瑞穂町,みずほまち,瑞穂町役場,190-1292,西多摩郡瑞穂町大字箱根ヶ崎2335,35.77202,139.354
13305,日の出町,ひのでまち,日の出町役場,190-0192,西多摩郡日の出町平井2780,35.74216,139.2574
13307,檜原村,ひのはらむら,檜原村役場,190-0212,西多摩郡檜原村467-1,35.72683,139.1489
13308,奥多摩町,おくたままち,奥多摩町役場,198-0212,西多摩郡奥多摩町氷川215-6,35.80963,139.0963
13361,大島町,おおしままち,大島町役場,100-0101,大島町元町1-1-14,34.75004,139.3557
13362,利島村,としまむら,利島村役場,100-0301,利島村248,34.5293,139.2821
13363,新島村,にいじまむら,新島村役場,100-0402,新島村本村1-1-1,34.37705,139.2571
13364,神津島村,こうづしまむら,神津島村役場,100-0601,神津島村904,34.20552,139.1346
13381,三宅村,みやけむら,三宅村役場,100-1212,三宅島三宅村阿古497,34.076,139.4799
13382,御蔵島村,みくらじまむら,御蔵島村役場,100-1301,御蔵島村字入かねが沢,33.89731,139.5959
13401,八丈町,はちじょうまち,八丈町役場,100-1498,八丈島八丈町大賀郷2551-2,33.11267,139.7889
13402,青ヶ島村,あおがしまむら,青ヶ島村役場,100-1701,青ヶ島村無番地,32.46688,139.7634
13421,小笠原村,おがさわらむら,小笠原村役場,100-2101,小笠原村父島字西町,27.09453,142.1918
14000,神奈川県,かながわけん,神奈川県庁,231-8588,横浜市中区日本大通1,35.44771,139.6425
14100,横浜市,よこはまし,横浜市役所,231-0017,横浜市中区港町1-1,35.44416,139.638
14101,横浜市鶴見区,よこはましつるみく,鶴見区役所,230-0051,横浜市鶴見区鶴見中央3-20-1,35.50834,139.6826
14102,横浜市神奈川区,よこはましかながわく,神奈川区役所,221-0824,横浜市神奈川区広台太田町3-8,35.47701,139.6294
14103,横浜市西区,よこはましにしく,西区役所,220-0051,横浜市西区中央1-5-10,35.45357,139.6169
14104,横浜市中区,よこはましなかく,中区役所,231-0021,横浜市中区日本大通35,35.44443,139.6432
14105,横浜市南区,よこはましみなみく,南区役所,232-0024,横浜市南区浦舟町2-33,35.43442,139.6275
14106,横浜市保土ケ谷区,よこはましほどがやく,保土ケ谷区役所,240-0001,横浜市保土ケ谷区川辺町2-9,35.45999,139.596
14107,横浜市磯子区,よこはましいそごく,磯子区役所,235-0016,横浜市磯子区磯子3-5-1,35.40233,139.6188
14108,横浜市金沢区,よこはましかなざわく,金沢区役所,236-0021,横浜市金沢区泥亀2-9-1,35.33748,139.6245
14109,横浜市港北区,よこはましこうほくく,港北区役所,222-0032,横浜市港北区大豆戸町26-1,35.51898,139.633
14110,横浜市戸塚区,よこはましとつかく,戸塚区役所,244-0003,横浜市戸塚区戸塚町16-17,35.40001,139.5335
14111,横浜市港南区,よこはましこうなんく,港南区役所,233-0003,横浜市港南区港南4-2-10,35.4008,139.5925
14112,横浜市旭区,よこはましあさひく,旭区役所,241-0022,横浜市旭区鶴ヶ峰1-4-12,35.47473,139.5448
14113,横浜市緑区,よこはましみどりく,緑区役所,226-0013,横浜市緑区寺山町118,35.5124,139.5381
14114,横浜市瀬谷区,よこはましせやく,瀬谷区役所,246-0021,横浜市瀬谷区二ツ橋町190,35.46635,139.499
14115,横浜市栄区,よこはましさかえく,栄区役所,247-0005,横浜市栄区桂町303-19,35.36433,139.5541
14116,横浜市泉区,よこはましいずみく,泉区役所,245-0016,横浜市泉区和泉町4636-2,35.41785,139.4887
14117,横浜市青葉区,よこはましあおばく,青葉区役所,225-0024,横浜市青葉区市ヶ尾町31-4,35.55281,139.5372
14118,横浜市都筑区,よこはましつづきく,都筑区役所,224-0032,横浜市都筑区茅ヶ崎中央32-1,35.54478,139.5706
14130,川崎市,かわさきし,川崎市役所,210-8577,川崎市川崎区宮本町1,35.53081,139.703
14131,川崎市川崎区,かわさきしかわさきく,川崎区役所,210-8570,川崎市川崎区東田町8,35.52939,139.7033
14132,川崎市幸区,かわさきしさいわいく,幸区役所,212-8570,川崎市幸区戸手本町1-11-1,35.54434,139.6876
14133,川崎市中原区,かわさきしなかはらく,中原区役所,211-8570,川崎市中原区小杉町3-245,35.57622,139.6558
14134,川崎市高津区,かわさきしたかつく,高津区役所,213-8570,川崎市高津区下作延2-8-1,35.59941,139.608
14135,川崎市多摩区,かわさきしたまく,多摩区役所,214-8570,川崎市多摩区登戸1775-1,35.61963,139.562
14136,川崎市宮前区,かわさきしみやまえく,宮前区役所,216-8570,川崎市宮前区宮前平2-20-5,35.58919,139.5786
14137,川崎市麻生区,かわさきしあさおく,麻生区役所,215-8570,川崎市麻生区万福寺1-5-1,35.60377,139.5059
14150,相模原市,さがみはらし,相模原市役所,252-5277,相模原市中央区中央2-11-15,35.57141,139.3732
14151,相模原市緑区,さがみはらしみどりく,緑区役所,252-5177,相模原市緑区西橋本5-3-21,35.59564,139.3376
14152,相模原市中央区,さがみはらしちゅうおうく,中央区役所,252-5277,相模原市中央区中央2-11-15,35.57138,139.3732
14153,相模原市南区,さがみはらしみなみく,南区役所,252-0377,相模原市南区相模大野5-31-1,35.5303,139.4302
14201,横須賀市,よこすかし,横須賀市役所,238-8550,横須賀市小川町11,35.28148,139.6721
14203,平塚市,ひらつかし,平塚市役所,254-8686,平塚市浅間町9-1,35.33561,139.3496
14204,鎌倉市,かまくらし,鎌倉市役所,248-8686,鎌倉市御成町18-10,35.31923,139.5468
14205,藤沢市,ふじさわし,藤沢市役所,251-8601,藤沢市朝日町1-1,35.33914,139.4914
14206,小田原市,おだわらし,小田原市役所,250-8555,小田原市荻窪300,35.26467,139.1523
14207,茅ヶ崎市,ちがさきし,茅ヶ崎市役所,253-8686,茅ヶ崎市茅ヶ崎1-1-1,35.33383,139.4046
14208,逗子市,ずしし,逗子市役所,249-8686,逗子市逗子5-2-16,35.29559,139.5802
14210,三浦市,みうらし,三浦市役所,238-0298,三浦市城山町1-1,35.14416,139.6206
14211,秦野市,はだのし,秦野市役所,257-8501,秦野市桜町1-3-2,35.37477,139.2202
14212,厚木市,あつぎし,厚木市役所,243-8511,厚木市中町3-17-17,35.4431,139.3625
14213,大和市,やまとし,大和市役所,242-8601,大和市下鶴間1-1-1,35.48748,139.458
14214,伊勢原市,いせはらし,伊勢原市役所,259-1188,伊勢原市田中348,35.40288,139.315
14215,海老名市,えびなし,海老名市役所,243-0492,海老名市勝瀬175-1,35.44643,139.3908
14216,座間市,ざまし,座間市役所,252-8566,座間市緑ヶ丘1-1-1,35.48856,139.4076
14217,南足柄市,みなみあしがらし,南足柄市役所,250-0192,南足柄市関本440,35.32055,139.0999
14218,綾瀬市,あやせし,綾瀬市役所,252-1192,綾瀬市早川550,35.4371,139.4268
14301,葉山町,はやままち,葉山町役場,240-0192,三浦郡葉山町堀内2135,35.27201,139.5863
14321,寒川町,さむかわまち,寒川町役場,253-0196,高座郡寒川町宮山165,35.37296,139.3843
14341,大磯町,おおいそまち,大磯町役場,255-8555,中郡大磯町東小磯183,35.30692,139.3113
14342,二宮町,にのみやまち,二宮町役場,259-0196,中郡二宮町二宮961,35.29956,139.2553
14361,中井町,なかいまち,中井町役場,259-0197,足柄上郡中井町比奈窪56,35.33072,139.2189
14362,大井町,おおいまち,大井町役場,258-8501,足柄上郡大井町金子1995,35.32647,139.156
14363,松田町,まつだまち,松田町役場,258-8585,足柄上郡松田町松田惣領2037,35.34832,139.1395
14364,山北町,やまきたまち,山北町役場,258-0195,足柄上郡山北町山北1301-4,35.3606,139.0839
14366,開成町,かいせいまち,開成町役場,258-8502,足柄上郡開成町延沢773,35.33644,139.1232
14382,箱根町,はこねまち,箱根町役場,250-0398,足柄下郡箱根町湯本256,35.23239,139.1068
14383,真鶴町,まなづるまち,真鶴町役場,259-0202,足柄下郡真鶴町岩244-1,35.15835,139.1373
14384,湯河原町,ゆがわらまち,湯河原町役場,259-0392,足柄下郡湯河原町中央2-2-1,35.14787,139.1083
14401,愛川町,あいかわまち,愛川町役場,243-0392,愛甲郡愛川町角田251-1,35.52892,139.3216
14402,清川村,きよかわむら,清川村役場,243-0195,愛甲郡清川村煤ヶ谷2216,35.48264,139.2761
15000,新潟県,にいがたけん,新潟県庁,950-8570,新潟市中央区新光町4-1,37.90224,139.0235
15100,新潟市,にいがたし,新潟市役所,951-8550,新潟市中央区学校町通1番町602-1,37.9161,139.0364
15101,新潟市北区,にいがたしきたく,北区役所,950-3393,新潟市北区葛塚3197,37.91624,139.2186
15102,新潟市東区,にいがたしひがしく,東区役所,950-8709,新潟市東区下木戸1-4-1,37.92487,139.0926
15103,新潟市中央区,にいがたしちゅうおうく,中央区役所,951-8553,新潟市中央区学校町通1番町602-1,37.9161,139.0364
15104,新潟市江南区,にいがたしこうなんく,江南区役所,950-0195,新潟市江南区泉町3-4-5,37.86765,139.094
15105,新潟市秋葉区,にいがたしあきはく,秋葉区役所,956-8601,新潟市秋葉区程島2009,37.78851,139.1146
15106,新潟市南区,にいがたしみなみく,南区役所,950-1292,新潟市南区白根1235,37.76579,139.0191
15107,新潟市西区,にいがたしにしく,西区役所,950-2097,新潟市西区寺尾東3-14-41,37.8742,138.972
15108,新潟市西蒲区,にいがたしにしかんく,西蒲区役所,953-8666,新潟市西蒲区巻甲2690-1,37.76046,138.8893
15202,長岡市,ながおかし,長岡市役所,940-8501,長岡市大手通1-4-10,37.44645,138.8511
15204,三条市,さんじょうし,三条市役所,955-8686,三条市旭町2-3-1,37.63635,138.9616
15205,柏崎市,かしわざきし,柏崎市役所,945-8511,柏崎市中央町5-50,37.37193,138.5587
15206,新発田市,しばたし,新発田市役所,957-8686,新発田市中央町3-3-3,37.94792,139.3271
15208,小千谷市,おぢやし,小千谷市役所,947-8501,小千谷市城内2-7-5,37.31527,138.795
15209,加茂市,かもし,加茂市役所,959-1392,加茂市幸町2-3-5,37.66632,139.0402
15210,十日町市,とおかまちし,十日町市役所,948-8501,十日町市千歳町3-3,37.12749,138.7556
15211,見附市,みつけし,見附市役所,954-8686,見附市昭和町2-1-1,37.53142,138.9127
15212,村上市,むらかみし,村上市役所,958-8501,村上市三之町1-1,38.22405,139.48
15213,燕市,つばめし,燕市役所,959-0295,燕市吉田西太田1934,37.67325,138.8819
15216,糸魚川市,いといがわし,糸魚川市役所,941-8501,糸魚川市一の宮1-2-5,37.03898,137.8627
15217,妙高市,みょうこうし,妙高市役所,944-8686,妙高市栄町5-1,37.02602,138.2542
15218,五泉市,ごせんし,五泉市役所,959-1692,五泉市太田1094-1,37.74457,139.1825
15222,上越市,じょうえつし,上越市役所,943-8601,上越市木田1丁目1-3,37.14792,138.2361
15223,阿賀野市,あがのし,阿賀野市役所,959-2092,阿賀野市岡山町10-15,37.83436,139.2259
15224,佐渡市,さどし,佐渡市役所,952-1292,佐渡市千種232,38.01818,138.3683
15225,魚沼市,うおぬまし,魚沼市役所,946-8601,魚沼市小出島130-1,37.23012,138.9615
15226,南魚沼市,みなみうおぬまし,南魚沼市役所,949-6696,南魚沼市六日町180-1,37.06553,138.876
15227,胎内市,たいないし,胎内市役所,959-2693,胎内市新和町2-10,38.05973,139.4103
15307,聖籠町,せいろうまち,聖籠町役場,957-0192,北蒲原郡聖籠町大字諏訪山1635-4,37.97451,139.2745
15342,弥彦村,やひこむら,弥彦村役場,959-0392,西蒲原郡弥彦村大字矢作402,37.69103,138.8551
15361,田上町,たがみまち,田上町役場,959-1503,南蒲原郡田上町原ヶ崎新田3070,37.69869,139.0579
15385,阿賀町,あがまち,阿賀町役場,959-4495,東蒲原郡阿賀町津川580,37.67564,139.4587
15405,出雲崎町,いずもざきまち,出雲崎町役場,949-4392,三島郡出雲崎町大字川西140,37.53072,138.7094
15461,湯沢町,ゆざわまち,湯沢町役場,949-6192,南魚沼郡湯沢町大字神立300,36.93399,138.8175
15482,津南町,つなんまち,津南町役場,949-8292,中魚沼郡津南町大字下船渡戊585,37.01425,138.6526
15504,刈羽村,かりわむら,刈羽村役場,945-0397,刈羽郡刈羽村大字割町新田215-1,37.42212,138.6225
15581,関川村,せきかわむら,関川村役場,959-3292,岩船郡関川村大字下関912,38.0894,139.565
15586,粟島浦村,あわしまうらむら,粟島浦村役場,958-0061,岩船郡粟島浦村字日ノ見山1513-11,38.46824,139.2544
16000,富山県,とやまけん,富山県庁,930-8501,富山市新総曲輪1-7,36.69519,137.2113
16201,富山市,とやまし,富山市役所,930-8510,富山市新桜町7-38,36.6958,137.2136
16202,高岡市,たかおかし,高岡市役所,933-8601,高岡市広小路7-50,36.75415,137.026
16204,魚津市,うおづし,魚津市役所,937-8555,魚津市釈迦堂1-10-1,36.82738,137.409
16205,氷見市,ひみし,氷見市役所,935-8686,氷見市鞍川1060番地,36.85597,136.9729
16206,滑川市,なめりかわし,滑川市役所,936-8601,滑川市寺家町104,36.76444,137.3412
16207,黒部市,くろべし,黒部市役所,938-8555,黒部市三日市1301,36.87145,137.4481
16208,砺波市,となみし,砺波市役所,939-1398,砺波市栄町7-3,36.6475,136.9621
16209,小矢部市,おやべし,小矢部市役所,932-8611,小矢部市本町1-1,36.67544,136.8687
16210,南砺市,なんとし,南砺市役所,939-1596,南砺市苗島4880,36.58789,136.9193
16211,射水市,いみずし,射水市役所,939-0294,射水市新開発410-1,36.73046,137.0755
16321,舟橋村,ふなはしむら,舟橋村役場,930-0295,中新川郡舟橋村仏生寺55,36.70355,137.3074
16322,上市町,かみいちまち,上市町役場,930-0393,中新川郡上市町法音寺1,36.69839,137.3626
16323,立山町,たてやままち,立山町役場,930-0292,中新川郡立山町前沢2440,36.66334,137.3136
16342,入善町,にゅうぜんまち,入善町役場,939-0693,下新川郡入善町入膳3255,36.93356,137.5022
16343,朝日町,あさひまち,朝日町役場,939-0793,下新川郡朝日町道下1133,36.94631,137.56
17000,石川県,いしかわけん,石川県庁,920-8580,金沢市鞍月1-1,36.59465,136.6257
17201,金沢市,かなざわし,金沢市役所,920-8577,金沢市広坂1-1-1,36.56094,136.6568
17202,七尾市,ななおし,七尾市役所,926-8611,七尾市袖ヶ江町イ部25,37.04314,136.9673
17203,小松市,こまつし,小松市役所,923-8650,小松市小馬出町91,36.4086,136.4456
17204,輪島市,わじまし,輪島市役所,928-8525,輪島市二ツ屋町2字29,37.39054,136.8991
17205,珠洲市,すずし,珠洲市役所,927-1295,珠洲市上戸町北方1の6の2,37.43641,137.2603
17206,加賀市,かがし,加賀市役所,922-8622,加賀市大聖寺南町ニ41,36.3028,136.3149
17207,羽咋市,はくいし,羽咋市役所,925-8501,羽咋市旭町ア200,36.89368,136.779
17209,かほく市,かほくし,かほく市役所,929-1195,かほく市宇野気ニ81,36.71995,136.7066
17210,白山市,はくさんし,白山市役所,924-8688,白山市倉光2-1,36.51442,136.5655
17211,能美市,のみし,能美市役所,923-1297,能美市来丸町1110,36.4469,136.5542
17212,野々市市,ののいちし,野々市市役所,921-8510,野々市市三納1-1,36.5199,136.6094
17324,川北町,かわきたまち,川北町役場,923-1295,能美郡川北町壱ツ屋174,36.46884,136.542
17361,津幡町,つばたまち,津幡町役場,929-0393,河北郡津幡町加賀爪ニ3,36.66871,136.7283
17365,内灘町,うちなだまち,内灘町役場,920-0292,河北郡内灘町字大学1-2-1,36.65346,136.645
17384,志賀町,しかまち,志賀町役場,925-0198,羽咋郡志賀町末吉千古1-1,37.00628,136.7781
17386,宝達志水町,ほうだつしみずちょう,宝達志水町役場,929-1492,羽咋郡宝達志水町子浦そ18-1,36.86274,136.7976
17407,中能登町,なかのとまち,中能登町役場,929-1792,鹿島郡中能登町末坂9部46番地,36.98889,136.9015
17461,穴水町,あなみずまち,穴水町役場,927-8601,鳳珠郡穴水町字川島ラ174,37.23101,136.9124
17463,能登町,のとちょう,能登町役場,927-0492,鳳珠郡能登町字宇出津新1-197-1,37.30653,137.1501
18000,福井県,ふくいけん,福井県庁,910-8580,福井市大手3-17-1,36.06524,136.2218
18201,福井市,ふくいし,福井市役所,910-8511,福井市大手3-10-1,36.06419,136.2194
18202,敦賀市,つるがし,敦賀市役所,914-8501,敦賀市中央町2-1-1,35.64533,136.0555
18204,小浜市,おばまし,小浜市役所,917-8585,小浜市大手町6-3,35.49559,135.7467
18205,大野市,おおのし,大野市役所,912-8666,大野市天神町1-1,35.98051,136.4876
18206,勝山市,かつやまし,勝山市役所,911-8501,勝山市元町1-1-1,36.06086,136.5007
18207,鯖江市,さばえし,鯖江市役所,916-8666,鯖江市西山町13-1,35.95659,136.1845
18208,あわら市,あわらし,あわら市役所,919-0692,あわら市市姫3-1-1,36.21147,136.2291
18209,越前市,えちぜんし,越前市役所,915-8530,越前市府中1-13-7,35.9034,136.169
18210,坂井市,さかいし,坂井市役所,919-0592,坂井市坂井町下新庄1-1,36.16682,136.2317
18322,永平寺町,えいへいじちょう,永平寺町役場,910-1192,吉田郡永平寺町松岡春日1-4,36.09225,136.2988
18382,池田町,いけだちょう,池田町役場,910-2512,今立郡池田町稲荷35-4,35.89033,136.3442
18404,南越前町,みなみえちぜんちょう,南越前町役場,919-0292,南条郡南越前町東大道29-1,35.83508,136.1945
18423,越前町,えちぜんちょう,越前町役場,916-0192,丹生郡越前町西田中13-5-1,35.97417,136.1298
18442,美浜町,みはまちょう,美浜町役場,919-1192,三方郡美浜町郷市25-25,35.60061,135.9406
18481,高浜町,たかはまちょう,高浜町役場,919-2292,大飯郡高浜町宮崎86-23-2,35.4879,135.546
18483,おおい町,おおいちょう,おおい町役場,919-2111,大飯郡おおい町本郷136-1-1,35.48114,135.6179
18501,若狭町,わかさちょう,若狭町役場,919-1393,三方上中郡若狭町中央1-1,35.54895,135.9082
19000,山梨県,やまなしけん,山梨県庁,400-8501,甲府市丸の内1-6-1,35.66394,138.5684
19201,甲府市,こうふし,甲府市役所,400-8585,甲府市丸の内1-18-1,35.66203,138.5683
19202,富士吉田市,ふじよしだし,富士吉田市役所,403-8601,富士吉田市下吉田6-1-1,35.48741,138.808
19204,都留市,つるし,都留市役所,402-8501,都留市上谷1-1-1,35.55079,138.9058
19205,山梨市,やまなしし,山梨市役所,405-8501,山梨市小原西843,35.69334,138.6873
19206,大月市,おおつきし,大月市役所,401-8601,大月市大月2-6-20,35.61056,138.94
19207,韮崎市,にらさきし,韮崎市役所,407-8501,韮崎市水神1-3-1,35.70882,138.4463
19208,南アルプス市,みなみあるぷすし,南アルプス市役所,400-0395,南アルプス市小笠原376,35.60836,138.4651
19209,北杜市,ほくとし,北杜市役所,408-0188,北杜市須玉町大豆生田961-1,35.77607,138.4235
19210,甲斐市,かいし,甲斐市役所,400-0192,甲斐市篠原2610,35.66071,138.5158
19211,笛吹市,ふえふきし,笛吹市役所,406-8510,笛吹市石和町市部777,35.64719,138.6398
19212,上野原市,うえのはらし,上野原市役所,409-0192,上野原市上野原3832,35.63129,139.1094
19213,甲州市,こうしゅうし,甲州市役所,404-8501,甲州市塩山上於曽1085番地1,35.70429,138.7294
19214,中央市,ちゅうおうし,中央市役所,409-3892,中央市臼井阿原301-1,35.59964,138.5173
19346,市川三郷町,いちかわみさとちょう,市川三郷町役場,409-3601,西八代郡市川三郷町市川大門1790-3,35.56538,138.5022
19364,早川町,はやかわちょう,早川町役場,409-2732,南巨摩郡早川町高住758,35.41263,138.3632
19365,身延町,みのぶちょう,身延町役場,409-3392,南巨摩郡身延町切石350,35.46782,138.4426
19366,南部町,なんぶちょう,南部町役場,409-2192,南巨摩郡南部町福士28505-2,35.24228,138.4867
19368,富士川町,ふじかわちょう,富士川町役場,400-0592,南巨摩郡富士川町天神中条1134,35.5612,138.4613
19384,昭和町,しょうわちょう,昭和町役場,409-3880,中巨摩郡昭和町押越542-2,35.62797,138.5351
19422,道志村,どうしむら,道志村役場,402-0209,南都留郡道志村6181-1,35.52813,139.0335
19423,西桂町,にしかつらちょう,西桂町役場,403-0022,南都留郡西桂町小沼1501-1,35.52415,138.847
19424,忍野村,おしのむら,忍野村役場,401-0592,南都留郡忍野村忍草1514,35.46011,138.8478
19425,山中湖村,やまなかこむら,山中湖村役場,401-0595,南都留郡山中湖村山中237-1,35.41064,138.8609
19429,鳴沢村,なるさわむら,鳴沢村役場,401-0398,南都留郡鳴沢村1575,35.48138,138.7066
19430,富士河口湖町,ふじかわぐちこまち,富士河口湖町役場,401-0392,南都留郡富士河口湖町船津1700,35.50113,138.7651
19442,小菅村,こすげむら,小菅村役場,409-0211,北都留郡小菅村4698,35.76029,138.9403
19443,丹波山村,たばやまむら,丹波山村役場,409-0305,北都留郡丹波山村890,35.78974,138.9223
20000,長野県,ながのけん,長野県庁,380-8570,長野市大字南長野字幅下692-2,36.65131,138.181
20201,長野市,ながのし,長野市役所,380-8512,長野市大字鶴賀緑町1613,36.64853,138.1943
20202,松本市,まつもとし,松本市役所,390-8620,松本市丸の内3-7,36.23791,137.972
20203,上田市,うえだし,上田市役所,386-8601,上田市大手1-11-16,36.40195,138.2491
20204,岡谷市,おかやし,岡谷市役所,394-8510,岡谷市幸町8-1,36.06693,138.0494
20205,飯田市,いいだし,飯田市役所,395-8501,飯田市大久保町2534,35.51472,137.8218
20206,諏訪市,すわし,諏訪市役所,392-8511,諏訪市高島1-22-30,36.03916,138.114
20207,須坂市,すざかし,須坂市役所,382-8511,須坂市大字須坂1528-1,36.65118,138.3068
20208,小諸市,こもろし,小諸市役所,384-8501,小諸市相生町3-3-3,36.32685,138.426
20209,伊那市,いなし,伊那市役所,396-8617,伊那市下新田3050,35.82743,137.954
20210,駒ヶ根市,こまがねし,駒ヶ根市役所,399-4192,駒ヶ根市赤須町20-1,35.72883,137.9339
20211,中野市,なかのし,中野市役所,383-8614,中野市三好町1-3-19,36.74203,138.3695
20212,大町市,おおまちし,大町市役所,398-8601,大町市大町3887,36.50293,137.8509
20213,飯山市,いいやまし,飯山市役所,389-2292,飯山市大字飯山1110-1,36.85165,138.3655
20214,茅野市,ちのし,茅野市役所,391-8501,茅野市塚原2-6-1,35.9955,138.1588
20215,塩尻市,しおじりし,塩尻市役所,399-0786,塩尻市大門7番町3-3,36.11495,137.9536
20217,佐久市,さくし,佐久市役所,385-8501,佐久市中込3056,36.24878,138.477
20218,千曲市,ちくまし,千曲市役所,387-8511,千曲市大字杭瀬下84,36.53382,138.1199
20219,東御市,とうみし,東御市役所,389-0592,東御市県281-2,36.3594,138.3304
20220,安曇野市,あづみのし,安曇野市役所,399-8281,安曇野市豊科6000,36.30393,137.9058
20303,小海町,こうみまち,小海町役場,384-1192,南佐久郡小海町大字豊里57-1,36.09504,138.4836
20304,川上村,かわかみむら,川上村役場,384-1405,南佐久郡川上村大字大深山525,35.97542,138.5783
20305,南牧村,みなみまきむら,南牧村役場,384-1302,南佐久郡南牧村大字海ノ口1051,36.02089,138.4922
20306,南相木村,みなみあいきむら,南相木村役場,384-1211,南佐久郡南相木村3525-1,36.0361,138.5469
20307,北相木村,きたあいきむら,北相木村役場,384-1201,南佐久郡北相木村2744,36.05919,138.5512
20309,佐久穂町,さくほまち,佐久穂町役場,384-0697,南佐久郡佐久穂町大字高野町569,36.16098,138.4834
20321,軽井沢町,かるいざわまち,軽井沢町役場,389-0192,北佐久郡軽井沢町大字長倉2381-1,36.34838,138.597
20323,御代田町,みよたまち,御代田町役場,389-0292,北佐久郡御代田町大字御代田2464-2,36.32124,138.5088
20324,立科町,たてしなまち,立科町役場,384-2305,北佐久郡立科町大字芦田2532,36.27205,138.316
20349,青木村,あおきむら,青木村役場,386-1601,小県郡青木村大字田沢111,36.36998,138.1286
20350,長和町,ながわまち,長和町役場,386-0602,小県郡長和町長久保525-1,36.25675,138.2686
20361,下諏訪町,しもすわまち,下諏訪町役場,393-8501,諏訪郡下諏訪町4613-8,36.06945,138.0802
20362,富士見町,ふじみまち,富士見町役場,399-0292,諏訪郡富士見町落合10777,35.91459,138.2408
20363,原村,はらむら,原村役場,391-0192,諏訪郡原村6549-1,35.96435,138.2174
20382,辰野町,たつのまち,辰野町役場,399-0493,上伊那郡辰野町中央1,35.98241,137.9876
20383,箕輪町,みのわまち,箕輪町役場,399-4695,上伊那郡箕輪町大字中箕輪10298,35.915,137.982
20384,飯島町,いいじままち,飯島町役場,399-3797,上伊那郡飯島町飯島2537,35.67661,137.9204
20385,南箕輪村,みなみみのわむら,南箕輪村役場,399-4592,上伊那郡南箕輪村4825-1,35.8729,137.975
20386,中川村,なかがわむら,中川村役場,399-3892,上伊那郡中川村大草4045-1,35.63454,137.946
20388,宮田村,みやだむら,宮田村役場,399-4392,上伊那郡宮田村98,35.76891,137.9443
20402,松川町,まつかわまち,松川町役場,399-3303,下伊那郡松川町元大島3823,35.59724,137.9097
20403,高森町,たかもりまち,高森町役場,399-3193,下伊那郡高森町下市田2183-1,35.55149,137.8785
20404,阿南町,あなんちょう,阿南町役場,399-1511,下伊那郡阿南町東條58-1,35.32363,137.8162
20407,阿智村,あちむら,阿智村役場,395-0303,下伊那郡阿智村駒場483,35.44384,137.7474
20409,平谷村,ひらやむら,平谷村役場,395-0601,下伊那郡平谷村354,35.32335,137.6302
20410,根羽村,ねばむら,根羽村役場,395-0701,下伊那郡根羽村1762,35.2531,137.5812
20411,下條村,しもじょうむら,下條村役場,399-2101,下伊那郡下條村睦沢8801-1,35.39734,137.786
20412,売木村,うるぎむら,売木村役場,399-1689,下伊那郡売木村968-1,35.27116,137.7111
20413,天龍村,てんりゅうむら,天龍村役場,399-1201,下伊那郡天龍村平岡878,35.27636,137.8543
20414,泰阜村,やすおかむら,泰阜村役場,399-1895,下伊那郡泰阜村3236-1,35.37731,137.8458
20415,喬木村,たかぎむら,喬木村役場,395-1107,下伊那郡喬木村6664,35.51383,137.8739
20416,豊丘村,とよおかむら,豊丘村役場,399-3295,下伊那郡豊丘村大字神稲3120,35.55144,137.8958
20417,大鹿村,おおしかむら,大鹿村役場,399-3502,下伊那郡大鹿村大字大河原354,35.57805,138.0346
20422,上松町,あげまつまち,上松町役場,399-5603,木曽郡上松町駅前通り2-13,35.78401,137.6941
20423,南木曽町,なぎそまち,南木曽町役場,399-5301,木曽郡南木曽町大字読書3668-1,35.60364,137.6089
20425,木祖村,きそむら,木祖村役場,399-6201,木曽郡木祖村薮原1191-1,35.93636,137.7832
20429,王滝村,おうたきむら,王滝村役場,397-0201,木曽郡王滝村3623,35.80934,137.5511
20430,大桑村,おおくわむら,大桑村役場,399-5503,木曽郡大桑村大字長野2778,35.68286,137.665
20432,木曽町,きそまち,木曽町役場,397-8588,木曽郡木曽町福島2326-6,35.84206,137.6913
20446,麻績村,おみむら,麻績村役場,399-7701,東筑摩郡麻績村麻3837,36.45616,138.0452
20448,生坂村,いくさかむら,生坂村役場,399-7201,東筑摩郡生坂村5493-2,36.42524,137.9276
20450,山形村,やまがたむら,山形村役場,390-1392,東筑摩郡山形村2030-1,36.16806,137.8789
20451,朝日村,あさひむら,朝日村役場,390-1188,東筑摩郡朝日村大字小野沢296-5,36.12359,137.8662
20452,筑北村,ちくほくむら,筑北村役場,399-7501,東筑摩郡筑北村西条4195,36.40276,138.0118
20481,池田町,いけだまち,池田町役場,399-8696,北安曇郡池田町大字池田3203-6,36.42127,137.8746
20482,松川村,まつかわむら,松川村役場,399-8501,北安曇郡松川村76-5,36.42411,137.8546
20485,白馬村,はくばむら,白馬村役場,399-9393,北安曇郡白馬村大字北城7025,36.69827,137.8621
20486,小谷村,おたりむら,小谷村役場,399-9494,北安曇郡小谷村大字中小谷丙131,36.77906,137.9083
20521,坂城町,さかきまち,坂城町役場,389-0692,埴科郡坂城町大字坂城10050,36.46183,138.1801
20541,小布施町,おぶせまち,小布施町役場,381-0297,上高井郡小布施町大字小布施1491-2,36.69773,138.3122
20543,高山村,たかやまむら,高山村役場,382-8510,上高井郡高山村大字高井4972,36.67978,138.3632
20561,山ノ内町,やまのうちまち,山ノ内町役場,381-0498,下高井郡山ノ内町大字平穏3352-1,36.74461,138.4126
20562,木島平村,きじまだいらむら,木島平村役場,389-2392,下高井郡木島平村大字往郷973-1,36.85849,138.4067
20563,野沢温泉村,のざわおんせんむら,野沢温泉村役場,389-2592,下高井郡野沢温泉村大字豊郷9817,36.92281,138.4406
20583,信濃町,しなのまち,信濃町役場,389-1392,上水内郡信濃町大字柏原428-2,36.80632,138.207
20588,小川村,おがわむら,小川村役場,381-3302,上水内郡小川村大字高府8800-8,36.617,137.9745
20590,飯綱町,いいづなまち,飯綱町役場,389-1293,上水内郡飯綱町大字牟礼2795-1,36.75494,138.2356
20602,栄村,さかえむら,栄村役場,389-2792,下水内郡栄村大字北信3433,36.9875,138.5774
21000,岐阜県,ぎふけん,岐阜県庁,500-8570,岐阜市藪田南2-1-1,35.3912,136.7222
21201,岐阜市,ぎふし,岐阜市役所,500-8701,岐阜市今沢町18,35.42336,136.7608
21202,大垣市,おおがきし,大垣市役所,503-8601,大垣市丸の内2-29,35.35937,136.6128
21203,高山市,たかやまし,高山市役所,506-8555,高山市花岡町2-18,36.14593,137.2523
21204,多治見市,たじみし,多治見市役所,507-8703,多治見市日ノ出町2-15,35.33274,137.1321
21205,関市,せきし,関市役所,501-3894,関市若草通3-1,35.49577,136.9179
21206,中津川市,なかつがわし,中津川市役所,508-8501,中津川市かやの木町2-1,35.48755,137.5006
21207,美濃市,みのし,美濃市役所,501-3792,美濃市1350,35.54474,136.9075
21208,瑞浪市,みずなみし,瑞浪市役所,509-6195,瑞浪市上平町1-1,35.3618,137.2545
21209,羽島市,はしまし,羽島市役所,501-6292,羽島市竹鼻町55,35.31996,136.7033
21210,恵那市,えなし,恵那市役所,509-7292,恵那市長島町正家1-1-1,35.44926,137.4129
21211,美濃加茂市,みのかもし,美濃加茂市役所,505-8606,美濃加茂市太田町3431-1,35.4407,137.0164
21212,土岐市,ときし,土岐市役所,509-5192,土岐市土岐津町土岐口2101,35.35249,137.1833
21213,各務原市,かかみがはらし,各務原市役所,504-8555,各務原市那加桜町1-69,35.39881,136.8485
21214,可児市,かにし,可児市役所,509-0292,可児市広見1-1,35.42595,137.061
21215,山県市,やまがたし,山県市役所,501-2192,山県市高木1000-1,35.50605,136.7813
21216,瑞穂市,みずほし,瑞穂市役所,501-0293,瑞穂市別府1288,35.39184,136.6909
21217,飛騨市,ひだし,飛騨市役所,509-4292,飛騨市古川町本町2-22,36.23819,137.1861
21218,本巣市,もとすし,本巣市役所,501-1292,本巣市文殊324,35.48305,136.6788
21219,郡上市,ぐじょうし,郡上市役所,501-4297,郡上市八幡町島谷228,35.74861,136.9644
21220,下呂市,げろし,下呂市役所,509-2295,下呂市森960,35.80589,137.2442
21221,海津市,かいづし,海津市役所,503-0695,海津市海津町高須515,35.22058,136.6366
21302,岐南町,ぎなんちょう,岐南町役場,501-6197,羽島郡岐南町八剣7-107,35.38962,136.7828
21303,笠松町,かさまつちょう,笠松町役場,501-6181,羽島郡笠松町司町1,35.3672,136.7632
21341,養老町,ようろうちょう,養老町役場,503-1392,養老郡養老町高田798,35.30829,136.5614
21361,垂井町,たるいちょう,垂井町役場,503-2193,不破郡垂井町1532-1,35.37023,136.527
21362,関ケ原町,せきがはらちょう,関ケ原町役場,503-1592,不破郡関ケ原町大字関ケ原894-58,35.36153,136.4696
21381,神戸町,ごうどちょう,神戸町役場,503-2392,安八郡神戸町大字神戸1111,35.41747,136.6086
21382,輪之内町,わのうちちょう,輪之内町役場,503-0292,安八郡輪之内町四郷2530-1,35.28504,136.6375
21383,安八町,あんぱちちょう,安八町役場,503-0198,安八郡安八町氷取161,35.3354,136.6654
21401,揖斐川町,いびがわちょう,揖斐川町役場,501-0692,揖斐郡揖斐川町三輪133,35.48691,136.568
21403,大野町,おおのちょう,大野町役場,501-0592,揖斐郡大野町大字大野80,35.47066,136.6276
21404,池田町,いけだちょう,池田町役場,503-2492,揖斐郡池田町六之井1468-1,35.44225,136.573
21421,北方町,きたがたちょう,北方町役場,501-0492,本巣郡北方町長谷川1-1,35.43568,136.6844
21501,坂祝町,さかほぎちょう,坂祝町役場,505-8501,加茂郡坂祝町取組46-18,35.42673,136.9853
21502,富加町,とみかちょう,富加町役場,501-3392,加茂郡富加町滝田1511,35.48478,136.9796
21503,川辺町,かわべちょう,川辺町役場,509-0393,加茂郡川辺町中川辺1518-4,35.48653,137.0706
21504,七宗町,ひちそうちょう,七宗町役場,509-0492,加茂郡七宗町上麻生2442-3,35.54375,137.1199
21505,八百津町,やおつちょう,八百津町役場,505-0392,加茂郡八百津町八百津3903-2,35.47601,137.1417
21506,白川町,しらかわちょう,白川町役場,509-1192,加茂郡白川町河岐715,35.58211,137.1884
21507,東白川村,ひがししらかわむら,東白川村役場,509-1392,加茂郡東白川村神土548,35.64252,137.3238
21521,御嵩町,みたけちょう,御嵩町役場,505-0192,可児郡御嵩町御嵩1239-1,35.4344,137.1307
21604,白川村,しらかわむら,白川村役場,501-5692,大野郡白川村鳩谷517,36.27093,136.8986
22000,静岡県,しずおかけん,静岡県庁,420-8601,静岡市葵区追手町9-6,34.97691,138.383
22100,静岡市,しずおかし,静岡市役所,420-8602,静岡市葵区追手町5-1,34.97505,138.3837
22101,静岡市葵区,しずおかしあおいく,葵区役所,420-8602,静岡市葵区追手町5-1,34.97505,138.3837
22102,静岡市駿河区,しずおかしするがく,駿河区役所,422-8550,静岡市駿河区南八幡町10-40,34.96085,138.4043
22103,静岡市清水区,しずおかししみずく,清水区役所,424-8701,静岡市清水区旭町6-8,35.01565,138.4897
22130,浜松市,はままつし,浜松市役所,430-8652,浜松市中区元城町103-2,34.71084,137.7268
22131,浜松市中区,はままつしなかく,中区役所,430-8652,浜松市中区元城町103-2,34.71084,137.7268
22132,浜松市東区,はままつしひがしく,東区役所,435-8686,浜松市東区流通元町20-3,34.74133,137.7918
22133,浜松市西区,はままつしにしく,西区役所,431-0193,浜松市西区雄踏1-31-1,34.69271,137.6453
22134,浜松市南区,はままつしみなみく,南区役所,430-0898,浜松市南区江之島町600-1,34.66733,137.7523
22135,浜松市北区,はままつしきたく,北区役所,431-1395,浜松市北区細江町気賀305,34.80619,137.651
22136,浜松市浜北区,はままつしはまきたく,浜北区役所,434-8550,浜松市浜北区貴布祢3000,34.79163,137.7833
22137,浜松市天竜区,はままつしてんりゅうく,天竜区役所,431-3392,浜松市天竜区二俣町二俣481,34.87264,137.8163
22203,沼津市,ぬまづし,沼津市役所,410-8601,沼津市御幸町16-1,35.09562,138.8635
22205,熱海市,あたみし,熱海市役所,413-8550,熱海市中央町1-1,35.09607,139.0717
22206,三島市,みしまし,三島市役所,411-8666,三島市北田町4-47,35.11848,138.9186
22207,富士宮市,ふじのみやし,富士宮市役所,418-8601,富士宮市弓沢町150,35.22216,138.6213
22208,伊東市,いとうし,伊東市役所,414-8555,伊東市大原二丁目1-1,34.96576,139.1019
22209,島田市,しまだし,島田市役所,427-8501,島田市中央町1-1,34.83631,138.176
22210,富士市,ふじし,富士市役所,417-8601,富士市永田町1-100,35.16136,138.6764
22211,磐田市,いわたし,磐田市役所,438-8650,磐田市国府台3-1,34.7179,137.8515
22212,焼津市,やいづし,焼津市役所,425-8502,焼津市本町2-16-32,34.86706,138.3232
22213,掛川市,かけがわし,掛川市役所,436-8650,掛川市長谷一丁目1番地の1,34.76868,137.9985
22214,藤枝市,ふじえだし,藤枝市役所,426-8722,藤枝市岡出山1-11-1,34.86744,138.2578
22215,御殿場市,ごてんばし,御殿場市役所,412-8601,御殿場市萩原483,35.30871,138.9349
22216,袋井市,ふくろいし,袋井市役所,437-8666,袋井市新屋1-1-1,34.75023,137.9248
22219,下田市,しもだし,下田市役所,415-8501,下田市東本郷1-5-18,34.6795,138.9454
22220,裾野市,すそのし,裾野市役所,410-1192,裾野市佐野1059,35.17398,138.9067
22221,湖西市,こさいし,湖西市役所,431-0492,湖西市吉美3268,34.71855,137.5317
22222,伊豆市,いずし,伊豆市役所,410-2413,伊豆市小立野38-2,34.97656,138.9468
22223,御前崎市,おまえざきし,御前崎市役所,437-1692,御前崎市池新田5585,34.63805,138.1281
22224,菊川市,きくがわし,菊川市役所,439-8650,菊川市堀之内61,34.75765,138.0842
22225,伊豆の国市,いずのくにし,伊豆の国市役所,410-2292,伊豆の国市長岡340-1,35.02777,138.929
22226,牧之原市,まきのはらし,牧之原市役所,421-0495,牧之原市静波447-1,34.73996,138.2247
22301,東伊豆町,ひがしいずちょう,東伊豆町役場,413-0411,賀茂郡東伊豆町稲取3354,34.77277,139.0412
22302,河津町,かわづちょう,河津町役場,413-0595,賀茂郡河津町田中212-2,34.75707,138.9875
22304,南伊豆町,みなみいずちょう,南伊豆町役場,415-0392,賀茂郡南伊豆町下賀茂315-1,34.65109,138.8585
22305,松崎町,まつざきちょう,松崎町役場,410-3696,賀茂郡松崎町宮内301-1,34.75293,138.7787
22306,西伊豆町,にしいずちょう,西伊豆町役場,410-3514,賀茂郡西伊豆町仁科401-1,34.77168,138.7753
22325,函南町,かんなみちょう,函南町役場,419-0192,田方郡函南町平井717-13,35.08906,138.9532
22341,清水町,しみずちょう,清水町役場,411-8650,駿東郡清水町堂庭210-1,35.0991,138.9029
22342,長泉町,ながいずみちょう,長泉町役場,411-8668,駿東郡長泉町中土狩828,35.13779,138.8971
22344,小山町,おやまちょう,小山町役場,410-1395,駿東郡小山町藤曲57-2,35.36009,138.9873
22424,吉田町,よしだちょう,吉田町役場,421-0395,榛原郡吉田町住吉87,34.7709,138.252
22429,川根本町,かわねほんちょう,川根本町役場,428-0313,榛原郡川根本町上長尾627,35.04692,138.0817
22461,森町,もりまち,森町役場,437-0293,周智郡森町森2101-1,34.83558,137.9272
23000,愛知県,あいちけん,愛知県庁,460-8501,名古屋市中区三の丸3-1-2,35.1802,136.9067
23100,名古屋市,なごやし,名古屋市役所,460-8508,名古屋市中区三の丸3-1-1,35.18175,136.9065
23101,名古屋市千種区,なごやしちくさく,千種区役所,464-8644,名古屋市千種区覚王山通8-37,35.16645,136.9464
23102,名古屋市東区,なごやしひがしく,東区役所,461-8640,名古屋市東区筒井1-7-74,35.17931,136.9261
23103,名古屋市北区,なごやしきたく,北区役所,462-8511,名古屋市北区清水4-17-1,35.19414,136.9117
23104,名古屋市西区,なごやしにしく,西区役所,451-8508,名古屋市西区花の木二丁目18-1,35.18931,136.8901
23105,名古屋市中村区,なごやしなかむらく,中村区役所,453-8501,名古屋市中村区竹橋町36-31,35.1687,136.873
23106,名古屋市中区,なごやしなかく,中区役所,460-8447,名古屋市中区栄4-1-8,35.16867,136.9103
23107,名古屋市昭和区,なごやししょうわく,昭和区役所,466-8585,名古屋市昭和区阿由知通3-19,35.1502,136.934
23108,名古屋市瑞穂区,なごやしみずほく,瑞穂区役所,467-8531,名古屋市瑞穂区瑞穂通3-32,35.13165,136.9349
23109,名古屋市熱田区,なごやしあつたく,熱田区役所,456-8501,名古屋市熱田区神宮3-1-15,35.12854,136.9102
23110,名古屋市中川区,なごやしなかがわく,中川区役所,454-8501,名古屋市中川区高畑1-223,35.14159,136.8551
23111,名古屋市港区,なごやしみなとく,港区役所,455-8520,名古屋市港区港明1-12-20,35.10776,136.8856
23112,名古屋市南区,なごやしみなみく,南区役所,457-8508,名古屋市南区前浜通3-10,35.09501,136.9313
23113,名古屋市守山区,なごやしもりやまく,守山区役所,463-8510,名古屋市守山区小幡1-3-1,35.20328,136.9765
23114,名古屋市緑区,なごやしみどりく,緑区役所,458-8585,名古屋市緑区青山2-15,35.0708,136.9523
23115,名古屋市名東区,なごやしめいとうく,名東区役所,465-8508,名古屋市名東区上社2-50,35.1759,137.0101
23116,名古屋市天白区,なごやしてんぱくく,天白区役所,468-8510,名古屋市天白区島田2-201,35.12232,136.9758
23201,豊橋市,とよはしし,豊橋市役所,440-8501,豊橋市今橋町1,34.76921,137.3915
23202,岡崎市,おかざきし,岡崎市役所,444-8601,岡崎市十王町2-9,34.95485,137.173
23203,一宮市,いちのみやし,一宮市役所,491-8501,一宮市本町2-5-6,35.30413,136.8025
23204,瀬戸市,せとし,瀬戸市役所,489-8701,瀬戸市追分町64-1,35.22345,137.0841
23205,半田市,はんだし,半田市役所,475-8666,半田市東洋町2-1,34.8924,136.9378
23206,春日井市,かすがいし,春日井市役所,486-8686,春日井市鳥居松町5-44,35.2475,136.9722
23207,豊川市,とよかわし,豊川市役所,442-8601,豊川市諏訪1-1,34.82681,137.3759
23208,津島市,つしまし,津島市役所,496-8686,津島市立込町2-21,35.17711,136.7413
23209,碧南市,へきなんし,碧南市役所,447-8601,碧南市松本町28,34.88485,136.9937
23210,刈谷市,かりやし,刈谷市役所,448-8501,刈谷市東陽町1-1,34.98895,137.0022
23211,豊田市,とよたし,豊田市役所,471-8501,豊田市西町3-60,35.08339,137.1564
23212,安城市,あんじょうし,安城市役所,446-8501,安城市桜町18-23,34.95784,137.0796
23213,西尾市,にしおし,西尾市役所,445-8501,西尾市寄住町下田22,34.86249,137.0625
23214,蒲郡市,がまごおりし,蒲郡市役所,443-8601,蒲郡市旭町17-1,34.82639,137.2197
23215,犬山市,いぬやまし,犬山市役所,484-8501,犬山市大字犬山字東畑36,35.37862,136.9441
23216,常滑市,とこなめし,常滑市役所,479-8610,常滑市新開町4-1,34.88657,136.8324
23217,江南市,こうなんし,江南市役所,483-8701,江南市赤童子町大堀90,35.33213,136.8709
23219,小牧市,こまきし,小牧市役所,485-8650,小牧市堀の内3-1,35.29032,136.9109
23220,稲沢市,いなざわし,稲沢市役所,492-8269,稲沢市稲府町1,35.24805,136.7803
23221,新城市,しんしろし,新城市役所,441-1392,新城市字東入船6-1,34.89925,137.4985
23222,東海市,とうかいし,東海市役所,476-8601,東海市中央町1-1,35.023,136.9024
23223,大府市,おおぶし,大府市役所,474-8701,大府市中央町5-70,35.01225,136.9632
23224,知多市,ちたし,知多市役所,478-8601,知多市緑町1,34.99664,136.8646
23225,知立市,ちりゅうし,知立市役所,472-8666,知立市広見3-1,35.00128,137.0506
23226,尾張旭市,おわりあさひし,尾張旭市役所,488-8666,尾張旭市東大道町原田2600-1,35.2165,137.0353
23227,高浜市,たかはまし,高浜市役所,444-1398,高浜市青木町4-1-2,34.92759,136.9876
23228,岩倉市,いわくらし,岩倉市役所,482-8686,岩倉市栄町1-66,35.27994,136.8714
23229,豊明市,とよあけし,豊明市役所,470-1195,豊明市新田町子持松1-1,35.05377,137.0128
23230,日進市,にっしんし,日進市役所,470-0192,日進市蟹甲町池下268,35.13199,137.0394
23231,田原市,たはらし,田原市役所,441-3492,田原市田原町南番場30-1,34.66901,137.2635
23232,愛西市,あいさいし,愛西市役所,496-8555,愛西市稲葉町米野308,35.15301,136.7285
23233,清須市,きよすし,清須市役所,452-8569,清須市須ケ口1238,35.19983,136.8529
23234,北名古屋市,きたなごやし,北名古屋市役所,481-8531,北名古屋市西之保清水田15,35.24558,136.866
23235,弥富市,やとみし,弥富市役所,498-8501,弥富市前ケ須町南本田335,35.11,136.7247
23236,みよし市,みよしし,みよし市役所,470-0295,みよし市三好町小坂50,35.08977,137.0745
23237,あま市,あまし,あま市役所,490-1292,あま市木田戌亥18-1,35.20053,136.7836
23238,長久手市,ながくてし,長久手市役所,480-1196,長久手市岩作城の内60番地1,35.18409,137.0486
23302,東郷町,とうごうちょう,東郷町役場,470-0198,愛知郡東郷町大字春木字羽根穴1,35.0968,137.0526
23342,豊山町,とよやまちょう,豊山町役場,480-0292,西春日井郡豊山町大字豊場字新栄260,35.2508,136.9121
23361,大口町,おおぐちちょう,大口町役場,480-0144,丹羽郡大口町下小口七丁目155,35.33243,136.9078
23362,扶桑町,ふそうちょう,扶桑町役場,480-0102,丹羽郡扶桑町大字高雄字天道330,35.35924,136.9131
23424,大治町,おおはるちょう,大治町役場,490-1192,海部郡大治町大字馬島字大門西1-1,35.17542,136.8207
23425,蟹江町,かにえちょう,蟹江町役場,497-8601,海部郡蟹江町学戸3-1,35.1324,136.7869
23427,飛島村,とびしまむら,飛島村役場,490-1436,海部郡飛島村竹之郷3-1,35.0788,136.7913
23441,阿久比町,あぐいちょう,阿久比町役場,470-2292,知多郡阿久比町大字卯坂字殿越50,34.93259,136.9156
23442,東浦町,ひがしうらちょう,東浦町役場,470-2192,知多郡東浦町大字緒川字政所20,34.97711,136.9657
23445,南知多町,みなみちたちょう,南知多町役場,470-3495,知多郡南知多町大字豊浜字貝ヶ坪18,34.7152,136.9298
23446,美浜町,みはまちょう,美浜町役場,470-2492,知多郡美浜町大字河和字北田面106,34.77894,136.9082
23447,武豊町,たけとよちょう,武豊町役場,470-2392,知多郡武豊町字長尾山2,34.85126,136.9149
23501,幸田町,こうたちょう,幸田町役場,444-0192,額田郡幸田町大字菱池字元林1-1,34.86458,137.1657
23561,設楽町,したらちょう,設楽町役場,441-2301,北設楽郡設楽町田口字辻前14,35.09724,137.5714
23562,東栄町,とうえいちょう,東栄町役場,449-0292,北設楽郡東栄町大字本郷字上前畑25,35.07693,137.6978
23563,豊根村,とよねむら,豊根村役場,449-0403,北設楽郡豊根村下黒川字蕨平2,35.14645,137.7197
24000,三重県,みえけん,三重県庁,514-8570,津市広明町13,34.73027,136.5086
24201,津市,つし,津市役所,514-8611,津市西丸之内23-1,34.71858,136.5055
24202,四日市市,よっかいちし,四日市市役所,510-8601,四日市市諏訪町1-5,34.96505,136.6244
24203,伊勢市,いせし,伊勢市役所,516-8601,伊勢市岩渕1-7-29,34.48744,136.7093
24204,松阪市,まつさかし,松阪市役所,515-8515,松阪市殿町1340-1,34.57801,136.5275
24205,桑名市,くわなし,桑名市役所,511-8601,桑名市中央町2-37,35.06215,136.6838
24207,鈴鹿市,すずかし,鈴鹿市役所,513-8701,鈴鹿市神戸1-18-18,34.88208,136.5841
24208,名張市,なばりし,名張市役所,518-0492,名張市鴻之台1番町1番地,34.62755,136.1083
24209,尾鷲市,おわせし,尾鷲市役所,519-3696,尾鷲市中央町10-43,34.07081,136.191
24210,亀山市,かめやまし,亀山市役所,519-0195,亀山市本丸町577,34.85575,136.4516
24211,鳥羽市,とばし,鳥羽市役所,517-0011,鳥羽市鳥羽三丁目1番1号,34.48128,136.8435
24212,熊野市,くまのし,熊野市役所,519-4392,熊野市井戸町796,33.88855,136.1002
24214,いなべ市,いなべし,いなべ市役所,511-0293,いなべ市員弁町笠田新田111,35.1157,136.5615
24215,志摩市,しまし,志摩市役所,517-0592,志摩市阿児町鵜方3098-22,34.32814,136.8297
24216,伊賀市,いがし,伊賀市役所,518-8501,伊賀市上野丸之内116,34.76859,136.1299
24303,木曽岬町,きそさきちょう,木曽岬町役場,498-8503,桑名郡木曽岬町大字西対海地251,35.07582,136.7311
24324,東員町,とういんちょう,東員町役場,511-0295,員弁郡東員町大字山田1600,35.07418,136.5836
24341,菰野町,こものちょう,菰野町役場,510-1292,三重郡菰野町大字潤田1250,35.02016,136.5077
24343,朝日町,あさひちょう,朝日町役場,510-8522,三重郡朝日町大字小向893,35.03413,136.6644
24344,川越町,かわごえちょう,川越町役場,510-8588,三重郡川越町大字豊田一色280,35.02679,136.6709
24441,多気町,たきちょう,多気町役場,519-2181,多気郡多気町相可1600,34.49608,136.5462
24442,明和町,めいわちょう,明和町役場,515-0332,多気郡明和町大字馬之上945,34.54771,136.6235
24443,大台町,おおだいちょう,大台町役場,519-2404,多気郡大台町佐原750,34.39345,136.4086
24461,玉城町,たまきちょう,玉城町役場,519-0495,度会郡玉城町田丸114-2,34.49013,136.6309
24470,度会町,わたらいちょう,度会町役場,516-2195,度会郡度会町棚橋1215-1,34.43959,136.6214
24471,大紀町,たいきちょう,大紀町役場,519-2703,度会郡大紀町滝原1610-1,34.35803,136.4159
24472,南伊勢町,みなみいせちょう,南伊勢町役場,516-0194,度会郡南伊勢町五ヶ所浦3057,34.3519,136.704
24543,紀北町,きほくちょう,紀北町役場,519-3292,北牟婁郡紀北町紀伊長島区東長島769-1,34.10922,136.2314
24561,御浜町,みはまちょう,御浜町役場,519-5292,南牟婁郡御浜町大字阿田和6120-1,33.81431,136.0488
24562,紀宝町,きほうちょう,紀宝町役場,519-5701,南牟婁郡紀宝町鵜殿324,33.73384,136.0096
25000,滋賀県,しがけん,滋賀県庁,520-8577,大津市京町4-1-1,35.00439,135.8683
25201,大津市,おおつし,大津市役所,520-8575,大津市御陵町3-1,35.01775,135.8547
25202,彦根市,ひこねし,彦根市役所,522-8501,彦根市元町4-2,35.27434,136.2598
25203,長浜市,ながはまし,長浜市役所,526-8501,長浜市八幡東町632,35.3806,136.2782
25204,近江八幡市,おうみはちまんし,近江八幡市役所,523-8501,近江八幡市桜宮町236,35.12833,136.0981
25206,草津市,くさつし,草津市役所,525-8588,草津市草津3-13-30,35.01295,135.9599
25207,守山市,もりやまし,守山市役所,524-8585,守山市吉身2-5-22,35.05886,135.9944
25208,栗東市,りっとうし,栗東市役所,520-3088,栗東市安養寺1-13-33,35.02156,135.9981
25209,甲賀市,こうかし,甲賀市役所,528-8502,甲賀市水口町水口6053,34.96607,136.1672
25210,野洲市,やすし,野洲市役所,520-2395,野洲市小篠原2100-1,35.06742,136.0259
25211,湖南市,こなんし,湖南市役所,520-3288,湖南市中央1-1,35.00409,136.0849
25212,高島市,たかしまし,高島市役所,520-1592,高島市新旭町北畑565,35.353,136.0364
25213,東近江市,ひがしおうみし,東近江市役所,527-8527,東近江市八日市緑町10-5,35.11269,136.2078
25214,米原市,まいばらし,米原市役所,521-8501,米原市下多良3-3,35.31534,136.284
25383,日野町,ひのちょう,日野町役場,529-1698,蒲生郡日野町河原1-1,35.01803,136.2462
25384,竜王町,りゅうおうちょう,竜王町役場,520-2592,蒲生郡竜王町大字小口3,35.06073,136.1245
25425,愛荘町,あいしょうちょう,愛荘町役場,529-1380,愛知郡愛荘町愛知川72,35.1688,136.2123
25441,豊郷町,とよさとちょう,豊郷町役場,529-1169,犬上郡豊郷町石畑375,35.20041,136.2299
25442,甲良町,こうらちょう,甲良町役場,522-0244,犬上郡甲良町大字在士353-1,35.20424,136.2614
25443,多賀町,たがちょう,多賀町役場,522-0341,犬上郡多賀町大字多賀324,35.22199,136.2923
26000,京都府,きょうとふ,京都府庁,602-8570,京都市上京区下立売通新町西入薮ノ内町,35.02128,135.7556
26100,京都市,きょうとし,京都市役所,604-8571,京都市中京区寺町通御池上る上本能寺前町488,35.01164,135.7682
26101,京都市北区,きょうとしきたく,北区役所,603-8511,京都市北区紫野東御所田町33-1,35.04097,135.7542
26102,京都市上京区,きょうとしかみぎょうく,上京区役所,602-8511,京都市上京区今出川通室町西入堀出シ町285,35.02959,135.7566
26103,京都市左京区,きょうとしさきょうく,左京区役所,606-8511,京都市左京区松ケ崎堂ノ上町7-2,35.04857,135.7785
26104,京都市中京区,きょうとしなかぎょうく,中京区役所,604-8588,京都市中京区西堀川通御池下る西三坊堀川町521,35.01003,135.7514
26105,京都市東山区,きょうとしひがしやまく,東山区役所,605-8511,京都市東山区清水5-130-6,34.99698,135.7764
26106,京都市下京区,きょうとししもぎょうく,下京区役所,600-8588,京都市下京区西洞院通塩小路上る東塩小路町608-8,34.98759,135.7555
26107,京都市南区,きょうとしみなみく,南区役所,601-8511,京都市南区西九条南田町1-3,34.97662,135.7465
26108,京都市右京区,きょうとしうきょうく,右京区役所,616-8511,京都市右京区太秦下刑部町12,35.01019,135.7161
26109,京都市伏見区,きょうとしふしみく,伏見区役所,612-8511,京都市伏見区鷹匠町39-2,34.93603,135.7614
26110,京都市山科区,きょうとしやましなく,山科区役所,607-8511,京都市山科区椥辻池尻町14-2,34.97237,135.8137
26111,京都市西京区,きょうとしにしきょうく,西京区役所,615-8522,京都市西京区上桂森下町25-1,34.985,135.6933
26201,福知山市,ふくちやまし,福知山市役所,620-8501,福知山市字内記13-1,35.29666,135.1264
26202,舞鶴市,まいづるし,舞鶴市役所,625-8555,舞鶴市字北吸1044,35.47472,135.3861
26203,綾部市,あやべし,綾部市役所,623-8501,綾部市若竹町8-1,35.29897,135.2587
26204,宇治市,うじし,宇治市役所,611-8501,宇治市宇治琵琶33,34.88443,135.7998
26205,宮津市,みやづし,宮津市役所,626-8501,宮津市字柳繩手345-1,35.53544,135.1955
26206,亀岡市,かめおかし,亀岡市役所,621-8501,亀岡市安町野々神8,35.01347,135.5737
26207,城陽市,じょうようし,城陽市役所,610-0195,城陽市寺田東ノ口16・17,34.85305,135.7799
26208,向日市,むこうし,向日市役所,617-8665,向日市寺戸町中野20,34.94867,135.6983
26209,長岡京市,ながおかきょうし,長岡京市役所,617-8501,長岡京市開田1-1-1,34.9267,135.6954
26210,八幡市,やわたし,八幡市役所,614-8501,八幡市八幡園内75,34.87554,135.7076
26211,京田辺市,きょうたなべし,京田辺市役所,610-0393,京田辺市田辺80,34.81447,135.7677
26212,京丹後市,きょうたんごし,京丹後市役所,627-8567,京丹後市峰山町杉谷889,35.62418,135.061
26213,南丹市,なんたんし,南丹市役所,622-8651,南丹市園部町小桜町47,35.10742,135.47
26214,木津川市,きづがわし,木津川市役所,619-0286,木津川市木津南垣外110-9,34.73684,135.8208
26303,大山崎町,おおやまざきちょう,大山崎町役場,618-8501,乙訓郡大山崎町字円明寺小字夏目3,34.90279,135.6885
26322,久御山町,くみやまちょう,久御山町役場,613-8585,久世郡久御山町島田ミスノ38,34.88135,135.7329
26343,井手町,いでちょう,井手町役場,610-0302,綴喜郡井手町大字井手小字南玉水67,34.79861,135.8032
26344,宇治田原町,うじたわらちょう,宇治田原町役場,610-0289,綴喜郡宇治田原町大字荒木小字西出10,34.85269,135.8568
26364,笠置町,かさぎちょう,笠置町役場,619-1303,相楽郡笠置町大字笠置小字西通90-1,34.76042,135.9395
26365,和束町,わづかちょう,和束町役場,619-1295,相楽郡和束町大字釜塚小字生水14-2,34.79569,135.905
26366,精華町,せいかちょう,精華町役場,619-0285,相楽郡精華町南稲八妻北尻70,34.76081,135.7859
26367,南山城村,みなみやましろむら,南山城村役場,619-1411,相楽郡南山城村北大河原小字久保14-1,34.77273,135.9938
26407,京丹波町,きょうたんばちょう,京丹波町役場,622-0292,船井郡京丹波町蒲生八ッ谷62-6,35.16435,135.4232
26463,伊根町,いねちょう,伊根町役場,626-0493,与謝郡伊根町字日出651,35.67489,135.2726
26465,与謝野町,よさのちょう,与謝野町役場,629-2292,与謝郡与謝野町字岩滝1798-1,35.56529,135.1529
27000,大阪府,おおさかふ,大阪府庁,540-8570,大阪市中央区大手前2-1-22,34.68639,135.52
27100,大阪市,おおさかし,大阪市役所,530-8201,大阪市北区中之島1-3-20,34.69384,135.5021
27102,大阪市都島区,おおさかしみやこじまく,都島区役所,534-8501,大阪市都島区中野町2-16-20,34.70134,135.5281
27103,大阪市福島区,おおさかしふくしまく,福島区役所,553-8501,大阪市福島区大開1-8-1,34.69145,135.4726
27104,大阪市此花区,おおさかしこのはなく,此花区役所,554-8501,大阪市此花区春日出北1-8-4,34.68303,135.4522
27106,大阪市西区,おおさかしにしく,西区役所,550-8501,大阪市西区新町4-5-14,34.67628,135.486
27107,大阪市港区,おおさかしみなとく,港区役所,552-8510,大阪市港区市岡1-15-25,34.66384,135.4607
27108,大阪市大正区,おおさかしたいしょうく,大正区役所,551-8501,大阪市大正区千島2-7-95,34.65023,135.4727
27109,大阪市天王寺区,おおさかしてんのうじく,天王寺区役所,543-8501,大阪市天王寺区真法院町20-33,34.65781,135.5195
27111,大阪市浪速区,おおさかしなにわく,浪速区役所,556-8501,大阪市浪速区敷津東1-4-20,34.65946,135.4993
27113,大阪市西淀川区,おおさかしにしよどがわく,西淀川区役所,555-8501,大阪市西淀川区御幣島1丁目2-10,34.71133,135.4561
27114,大阪市東淀川区,おおさかしひがしよどがわく,東淀川区役所,533-8501,大阪市東淀川区豊新2-1-4,34.74122,135.5294
27115,大阪市東成区,おおさかしひがしなりく,東成区役所,537-8501,大阪市東成区大今里西2-8-4,34.67004,135.5412
27116,大阪市生野区,おおさかしいくのく,生野区役所,544-8501,大阪市生野区勝山南3-1-19,34.65354,135.5346
27117,大阪市旭区,おおさかしあさひく,旭区役所,535-8501,大阪市旭区大宮1-1-17,34.72131,135.5443
27118,大阪市城東区,おおさかしじょうとうく,城東区役所,536-8510,大阪市城東区中央3-5-45,34.7032,135.5448
27119,大阪市阿倍野区,おおさかしあべのく,阿倍野区役所,545-8501,大阪市阿倍野区文の里1-1-40,34.63871,135.5186
27120,大阪市住吉区,おおさかしすみよしく,住吉区役所,558-8501,大阪市住吉区南住吉3-15-55,34.60367,135.5006
27121,大阪市東住吉区,おおさかしひがしすみよしく,東住吉区役所,546-8501,大阪市東住吉区東田辺1-13-4,34.62201,135.5268
27122,大阪市西成区,おおさかしにしなりく,西成区役所,557-8501,大阪市西成区岸里1-5-20,34.6349,135.4943
27123,大阪市淀川区,おおさかしよどがわく,淀川区役所,532-8501,大阪市淀川区十三東2-3-3,34.72102,135.4867
27124,大阪市鶴見区,おおさかしつるみく,鶴見区役所,538-8510,大阪市鶴見区横堤5-4-19,34.70439,135.5742
27125,大阪市住之江区,おおさかしすみのえく,住之江区役所,559-8601,大阪市住之江区御崎3-1-17,34.60951,135.4828
27126,大阪市平野区,おおさかしひらのく,平野区役所,547-8580,大阪市平野区背戸口3-8-19,34.62123,135.5463
27127,大阪市北区,おおさかしきたく,北区役所,530-8401,大阪市北区扇町2-1-27,34.70548,135.5101
27128,大阪市中央区,おおさかしちゅうおうく,中央区役所,541-8518,大阪市中央区久太郎町1-2-27,34.68117,135.5098
27140,堺市,さかいし,堺市役所,590-0078,堺市堺区南瓦町3-1,34.57368,135.4829
27141,堺市堺区,さかいしさかいく,堺区役所,590-0078,堺市堺区南瓦町3-1,34.57368,135.4829
27142,堺市中区,さかいしなかく,中区役所,599-8236,堺市中区深井沢町2470-7,34.52823,135.4989
27143,堺市東区,さかいしひがしく,東区役所,599-8112,堺市東区日置荘原寺町195-1,34.53838,135.5364
27144,堺市西区,さかいしにしく,西区役所,593-8324,堺市西区鳳東町6丁600,34.5347,135.4639
27145,堺市南区,さかいしみなみく,南区役所,590-0141,堺市南区桃山台1丁1-1,34.48652,135.4905
27146,堺市北区,さかいしきたく,北区役所,591-8021,堺市北区新金岡町5丁1-4,34.56551,135.5171
27147,堺市美原区,さかいしみはらく,美原区役所,587-8585,堺市美原区黒山167-1,34.53872,135.5607
27202,岸和田市,きしわだし,岸和田市役所,596-8510,岸和田市岸城町7-1,34.46036,135.3711
27203,豊中市,とよなかし,豊中市役所,561-8501,豊中市中桜塚3-1-1,34.78124,135.4699
27204,池田市,いけだし,池田市役所,563-8666,池田市城南1-1-1,34.8216,135.4285
27205,吹田市,すいたし,吹田市役所,564-8550,吹田市泉町1-3-40,34.75941,135.5168
27206,泉大津市,いずみおおつし,泉大津市役所,595-8686,泉大津市東雲町9-12,34.50433,135.4103
27207,高槻市,たかつきし,高槻市役所,569-0067,高槻市桃園町2-1,34.84602,135.6173
27208,貝塚市,かいづかし,貝塚市役所,597-8585,貝塚市畠中1-17-1,34.43764,135.3585
27209,守口市,もりぐちし,守口市役所,570-8666,守口市京阪本通2-5-5,34.73581,135.5617
27210,枚方市,ひらかたし,枚方市役所,573-8666,枚方市大垣内町2-1-20,34.81449,135.6508
27211,茨木市,いばらきし,茨木市役所,567-8505,茨木市駅前3-8-13,34.81635,135.5685
27212,八尾市,やおし,八尾市役所,581-0003,八尾市本町1-1-1,34.62685,135.6009
27213,泉佐野市,いずみさのし,泉佐野市役所,598-8550,泉佐野市市場東1-295-3,34.40678,135.3274
27214,富田林市,とんだばやしし,富田林市役所,584-8511,富田林市常盤町1-1,34.49919,135.5972
27215,寝屋川市,ねやがわし,寝屋川市役所,572-8555,寝屋川市本町1-1,34.76614,135.6281
27216,河内長野市,かわちながのし,河内長野市役所,586-8501,河内長野市原町1-1-1,34.45819,135.5639
27217,松原市,まつばらし,松原市役所,580-8501,松原市阿保1-1-1,34.57791,135.5517
27218,大東市,だいとうし,大東市役所,574-8555,大東市谷川1-1-1,34.712,135.6234
27219,和泉市,いずみし,和泉市役所,594-8501,和泉市府中町2-7-5,34.48355,135.4236
27220,箕面市,みのおし,箕面市役所,562-0003,箕面市西小路4-6-1,34.82696,135.4705
27221,柏原市,かしわらし,柏原市役所,582-8555,柏原市安堂町1-55,34.57927,135.6287
27222,羽曳野市,はびきのし,羽曳野市役所,583-8585,羽曳野市誉田4-1-1,34.55788,135.6062
27223,門真市,かどまし,門真市役所,571-8585,門真市中町1-1,34.73933,135.5876
27224,摂津市,せっつし,摂津市役所,566-8555,摂津市三島1-1-1,34.77708,135.5621
27225,高石市,たかいしし,高石市役所,592-8585,高石市加茂4-1-1,34.52066,135.4423
27226,藤井寺市,ふじいでらし,藤井寺市役所,583-8583,藤井寺市岡1-1-1,34.57457,135.5974
27227,東大阪市,ひがしおおさかし,東大阪市役所,577-8521,東大阪市荒本北1-1-1,34.67947,135.6009
27228,泉南市,せんなんし,泉南市役所,590-0592,泉南市樽井1-1-1,34.3659,135.2735
27229,四條畷市,しじょうなわてし,四條畷市役所,575-8501,四條畷市中野本町1-1,34.74011,135.6395
27230,交野市,かたのし,交野市役所,576-8501,交野市私部1-1-1,34.78797,135.68
27231,大阪狭山市,おおさかさやまし,大阪狭山市役所,589-8501,大阪狭山市狭山1-2384-1,34.50361,135.5556
27232,阪南市,はんなんし,阪南市役所,599-0292,阪南市尾崎町35-1,34.35954,135.2396
27301,島本町,しまもとちょう,島本町役場,618-8570,三島郡島本町桜井2-1-1,34.88393,135.6628
27321,豊能町,とよのちょう,豊能町役場,563-0292,豊能郡豊能町余野414-1,34.91898,135.494
27322,能勢町,のせちょう,能勢町役場,563-0392,豊能郡能勢町宿野28,34.97245,135.4142
27341,忠岡町,ただおかちょう,忠岡町役場,595-0805,泉北郡忠岡町忠岡東1-34-1,34.48691,135.4012
27361,熊取町,くまとりちょう,熊取町役場,590-0495,泉南郡熊取町野田1-1-1,34.40126,135.356
27362,田尻町,たじりちょう,田尻町役場,598-8588,泉南郡田尻町大字嘉祥寺375-1,34.39373,135.2912
27366,岬町,みさきちょう,岬町役場,599-0392,泉南郡岬町深日2000-1,34.31687,135.1423
27381,太子町,たいしちょう,太子町役場,583-8580,南河内郡太子町大字山田88,34.51858,135.648
27382,河南町,かなんちょう,河南町役場,585-8585,南河内郡河南町大字白木1359-6,34.49161,135.6297
27383,千早赤阪村,ちはやあかさかむら,千早赤阪村役場,585-8501,南河内郡千早赤阪村大字水分180,34.46453,135.6226
28000,兵庫県,ひょうごけん,兵庫県庁,650-8567,神戸市中央区下山手通5-10-1,34.6913,135.183
28100,神戸市,こうべし,神戸市役所,650-8570,神戸市中央区加納町6-5-1,34.69011,135.1955
28101,神戸市東灘区,こうべしひがしなだく,東灘区役所,658-8570,神戸市東灘区住吉東町5-2-1,34.72014,135.2656
28102,神戸市灘区,こうべしなだく,灘区役所,657-8570,神戸市灘区桜口町4-2-1,34.71236,135.2394
28105,神戸市兵庫区,こうべしひょうごく,兵庫区役所,652-8570,神戸市兵庫区荒田町1-21-1,34.68053,135.1653
28106,神戸市長田区,こうべしながたく,長田区役所,653-8570,神戸市長田区北町3-4-3,34.66542,135.1509
28107,神戸市須磨区,こうべしすまく,須磨区役所,654-8570,神戸市須磨区大黒町4-1-1,34.65859,135.1337
28108,神戸市垂水区,こうべしたるみく,垂水区役所,655-8570,神戸市垂水区日向1-5-1,34.63064,135.057
28109,神戸市北区,こうべしきたく,北区役所,651-1114,神戸市北区鈴蘭台西町1-25-1,34.72722,135.1444
28110,神戸市中央区,こうべしちゅうおうく,中央区役所,651-8570,神戸市中央区雲井通5-1-1,34.69508,135.1978
28111,神戸市西区,こうべしにしく,西区役所,651-2195,神戸市西区玉津町小山180-3,34.68316,134.9816
28201,姫路市,ひめじし,姫路市役所,670-8501,姫路市安田4-1,34.81537,134.6855
28202,尼崎市,あまがさきし,尼崎市役所,660-8501,尼崎市東七松町1-23-1,34.73336,135.4064
28203,明石市,あかしし,明石市役所,673-8686,明石市中崎1-5-1,34.64309,134.9975
28204,西宮市,にしのみやし,西宮市役所,662-8567,西宮市六湛寺町10-3,34.73783,135.3419
28205,洲本市,すもとし,洲本市役所,656-8686,洲本市本町3-4-10,34.34253,134.8956
28206,芦屋市,あしやし,芦屋市役所,659-8501,芦屋市精道町7-6,34.72691,135.3043
28207,伊丹市,いたみし,伊丹市役所,664-8503,伊丹市千僧1-1,34.78424,135.4008
28208,相生市,あいおいし,相生市役所,678-8585,相生市旭1-1-3,34.80362,134.4681
28209,豊岡市,とよおかし,豊岡市役所,668-8666,豊岡市中央町2-4,35.54449,134.8201
28210,加古川市,かこがわし,加古川市役所,675-8501,加古川市加古川町北在家2000,34.75676,134.8412
28212,赤穂市,あこうし,赤穂市役所,678-0292,赤穂市加里屋81,34.7549,134.3903
28213,西脇市,にしわきし,西脇市役所,677-8511,西脇市郷瀬町605,34.99336,134.9693
28214,宝塚市,たからづかし,宝塚市役所,665-8665,宝塚市東洋町1-1,34.79996,135.3604
28215,三木市,みきし,三木市役所,673-0492,三木市上の丸町10番30号,34.79671,134.9901
28216,高砂市,たかさごし,高砂市役所,676-8501,高砂市荒井町千鳥1-1-1,34.7659,134.7905
28217,川西市,かわにしし,川西市役所,666-8501,川西市中央町12-1,34.83004,135.4171
28218,小野市,おのし,小野市役所,675-1380,小野市王子町806-1,34.85317,134.9315
28219,三田市,さんだし,三田市役所,669-1595,三田市三輪2-1-1,34.88954,135.2254
28220,加西市,かさいし,加西市役所,675-2395,加西市北条町横尾1000,34.92786,134.8419
28221,篠山市,ささやまし,篠山市役所,669-2397,篠山市北新町41,35.07574,135.2192
28222,養父市,やぶし,養父市役所,667-8651,養父市八鹿町八鹿1675,35.40464,134.7675
28223,丹波市,たんばし,丹波市役所,669-3692,丹波市氷上町成松字甲賀1,35.17714,135.0359
28224,南あわじ市,みなみあわじし,南あわじ市役所,656-0492,南あわじ市市善光寺22番地1,34.29442,134.7799
28225,朝来市,あさごし,朝来市役所,669-5292,朝来市和田山町東谷213-1,35.33968,134.8531
28226,淡路市,あわじし,淡路市役所,656-2292,淡路市生穂新島8,34.43982,134.9142
28227,宍粟市,しそうし,宍粟市役所,671-2593,宍粟市山崎町中広瀬133番地6,35.00442,134.5495
28228,加東市,かとうし,加東市役所,673-1493,加東市社50,34.91736,134.9735
28229,たつの市,たつのし,たつの市役所,679-4192,たつの市龍野町富永1005-1,34.85792,134.5454
28301,猪名川町,いながわちょう,猪名川町役場,666-0292,川辺郡猪名川町上野字北畑11-1,34.89498,135.3761
28365,多可町,たかちょう,多可町役場,679-1192,多可郡多可町中区中村町123,35.05013,134.9233
28381,稲美町,いなみちょう,稲美町役場,675-1115,加古郡稲美町国岡1-1,34.74868,134.9136
28382,播磨町,はりまちょう,播磨町役場,675-0182,加古郡播磨町東本荘1-5-30,34.71522,134.8681
28442,市川町,いちかわちょう,市川町役場,679-2392,神崎郡市川町西川辺165-3,34.98943,134.7632
28443,福崎町,ふくさきちょう,福崎町役場,679-2280,神崎郡福崎町南田原3116-1,34.95024,134.7602
28446,神河町,かみかわちょう,神河町役場,679-3116,神崎郡神河町寺前64,35.06426,134.7394
28464,太子町,たいしちょう,太子町役場,671-1592,揖保郡太子町鵤280-1,34.83328,134.5722
28481,上郡町,かみごおりちょう,上郡町役場,678-1292,赤穂郡上郡町大持278,34.87358,134.356
28501,佐用町,さようちょう,佐用町役場,679-5380,佐用郡佐用町佐用2611-1,35.00429,134.3559
28585,香美町,かみちょう,香美町役場,669-6592,美方郡香美町香住区香住870-1,35.63219,134.6292
28586,新温泉町,しんおんせんちょう,新温泉町役場,669-6792,美方郡新温泉町浜坂2673-1,35.62344,134.4493
29000,奈良県,ならけん,奈良県庁,630-8501,奈良市登大路町30,34.68523,135.8329
29201,奈良市,ならし,奈良市役所,630-8580,奈良市二条大路南一丁目1-1,34.68506,135.8048
29202,大和高田市,やまとたかだし,大和高田市役所,635-8511,大和高田市大字大中100-1,34.51489,135.7365
29203,大和郡山市,やまとこおりやまし,大和郡山市役所,639-1198,大和郡山市北郡山町248-4,34.64935,135.7828
29204,天理市,てんりし,天理市役所,632-8555,天理市川原城町605,34.5966,135.8372
29205,橿原市,かしはらし,橿原市役所,634-8586,橿原市八木町1-1-18,34.50928,135.7926
29206,桜井市,さくらいし,桜井市役所,633-8585,桜井市大字粟殿432-1,34.51869,135.8432
29207,五條市,ごじょうし,五條市役所,637-8501,五條市本町1-1-1,34.35204,135.6937
29208,御所市,ごせし,御所市役所,639-2298,御所市1-3,34.46337,135.7402
29209,生駒市,いこまし,生駒市役所,630-0288,生駒市東新町8-38,34.69192,135.7004
29210,香芝市,かしばし,香芝市役所,639-0292,香芝市本町1397,34.54124,135.699
29211,葛城市,かつらぎし,葛城市役所,639-2195,葛城市柿本166,34.4892,135.7265
29212,宇陀市,うだし,宇陀市役所,633-0292,宇陀市榛原区下井足17-3,34.52806,135.9527
29322,山添村,やまぞえむら,山添村役場,630-2344,山辺郡山添村大字大西151,34.68132,136.0439
29342,平群町,へぐりちょう,平群町役場,636-8585,生駒郡平群町吉新1-1-1,34.62915,135.7006
29343,三郷町,さんごうちょう,三郷町役場,636-8535,生駒郡三郷町勢野西1-1-1,34.60013,135.6956
29344,斑鳩町,いかるがちょう,斑鳩町役場,636-0198,生駒郡斑鳩町法隆寺西3-7-12,34.60888,135.7306
29345,安堵町,あんどちょう,安堵町役場,639-1095,生駒郡安堵町大字東安堵958,34.60657,135.7567
29361,川西町,かわにしちょう,川西町役場,636-0202,磯城郡川西町大字結崎28-1,34.58432,135.7741
29362,三宅町,みやけちょう,三宅町役場,636-0213,磯城郡三宅町大字伴堂689,34.57369,135.7731
29363,田原本町,たわらもとちょう,田原本町役場,636-0392,磯城郡田原本町890-1,34.55666,135.795
29385,曽爾村,そにむら,曽爾村役場,633-1212,宇陀郡曽爾村大字今井495-1,34.51065,136.1246
29386,御杖村,みつえむら,御杖村役場,633-1302,宇陀郡御杖村大字菅野368,34.48793,136.166
29401,高取町,たかとりちょう,高取町役場,635-0154,高市郡高取町大字観覚寺990-1,34.44951,135.7931
29402,明日香村,あすかむら,明日香村役場,634-0111,高市郡明日香村大字岡55,34.47123,135.8206
29424,上牧町,かんまきちょう,上牧町役場,639-0293,北葛城郡上牧町大字上牧3350,34.56269,135.7166
29425,王寺町,おうじちょう,王寺町役場,636-8511,北葛城郡王寺町王寺2-1-23,34.59466,135.7068
29426,広陵町,こうりょうちょう,広陵町役場,635-8515,北葛城郡広陵町大字南郷583-1,34.54277,135.7509
29427,河合町,かわいちょう,河合町役場,636-8501,北葛城郡河合町池部1-1-1,34.57844,135.7365
29441,吉野町,よしのちょう,吉野町役場,639-3192,吉野郡吉野町大字上市80-1,34.39604,135.8576
29442,大淀町,おおよどちょう,大淀町役場,638-8501,吉野郡大淀町大字桧垣本2090,34.39065,135.7898
29443,下市町,しもいちちょう,下市町役場,638-8510,吉野郡下市町大字下市1960,34.36107,135.792
29444,黒滝村,くろたきむら,黒滝村役場,638-0292,吉野郡黒滝村大字寺戸77,34.30919,135.8522
29446,天川村,てんかわむら,天川村役場,638-0392,吉野郡天川村大字沢谷60,34.24189,135.8553
29447,野迫川村,のせがわむら,野迫川村役場,648-0392,吉野郡野迫川村大字北股84,34.16623,135.633
29449,十津川村,とつかわむら,十津川村役場,637-1333,吉野郡十津川村大字小原225-1,33.9885,135.7925
29450,下北山村,しもきたやまむら,下北山村役場,639-3803,吉野郡下北山村大字寺垣内983,34.00509,135.9552
29451,上北山村,かみきたやまむら,上北山村役場,639-3701,吉野郡上北山村大字河合330,34.1343,136.0002
29452,川上村,かわかみむら,川上村役場,639-3594,吉野郡川上村大字迫1335-7,34.33825,135.9543
29453,東吉野村,ひがしよしのむら,東吉野村役場,633-2492,吉野郡東吉野村大字小川99,34.40349,135.9682
30000,和歌山県,わかやまけん,和歌山県庁,640-8585,和歌山市小松原通1-1,34.22599,135.1675
30201,和歌山市,わかやまし,和歌山市役所,640-8511,和歌山市七番丁23,34.23041,135.1708
30202,海南市,かいなんし,海南市役所,642-8501,海南市日方1525-6,34.15556,135.2091
30203,橋本市,はしもとし,橋本市役所,648-8585,橋本市東家1-1-1,34.31466,135.6052
30204,有田市,ありだし,有田市役所,649-0392,有田市箕島50,34.08301,135.1278
30205,御坊市,ごぼうし,御坊市役所,644-8686,御坊市薗350,33.8914,135.1524
30206,田辺市,たなべし,田辺市役所,646-8545,田辺市新屋敷町1,33.728,135.3777
30207,新宮市,しんぐうし,新宮市役所,647-8555,新宮市春日1-1,33.72412,135.9925
30208,紀の川市,きのかわし,紀の川市役所,649-6492,紀の川市西大井338,34.26966,135.3626
30209,岩出市,いわでし,岩出市役所,649-6292,岩出市西野209,34.2563,135.3112
30304,紀美野町,きみのちょう,紀美野町役場,640-1192,海草郡紀美野町動木287,34.16703,135.3081
30341,かつらぎ町,かつらぎちょう,かつらぎ町役場,649-7192,伊都郡かつらぎ町大字丁ノ町2160,34.2963,135.5041
30343,九度山町,くどやまちょう,九度山町役場,648-0198,伊都郡九度山町大字九度山1190,34.28724,135.5622
30344,高野町,こうやちょう,高野町役場,648-0281,伊都郡高野町大字高野山636,34.21617,135.5866
30361,湯浅町,ゆあさちょう,湯浅町役場,643-0002,有田郡湯浅町大字青木668-1,34.0294,135.1904
30362,広川町,ひろがわちょう,広川町役場,643-0071,有田郡広川町大字広1500,34.02999,135.1731
30366,有田川町,ありだがわちょう,有田川町役場,643-0021,有田郡有田川町下津野2018-4,34.05746,135.2162
30381,美浜町,みはまちょう,美浜町役場,644-0044,日高郡美浜町大字和田1138-278,33.89365,135.1333
30382,日高町,ひだかちょう,日高町役場,649-1213,日高郡日高町大字高家626,33.92564,135.1409
30383,由良町,ゆらちょう,由良町役場,649-1111,日高郡由良町大字里1220-1,33.95931,135.1184
30390,印南町,いなみちょう,印南町役場,649-1534,日高郡印南町大字印南2570,33.81962,135.2226
30391,みなべ町,みなべちょう,みなべ町役場,645-0002,日高郡みなべ町芝742,33.77241,135.3215
30392,日高川町,ひだかがわちょう,日高川町役場,649-1324,日高郡日高川町大字土生160,33.91167,135.186
30401,白浜町,しらはまちょう,白浜町役場,649-2211,西牟婁郡白浜町1600,33.67818,135.3482
30404,上富田町,かみとんだちょう,上富田町役場,649-2192,西牟婁郡上富田町朝来763,33.69623,135.4289
30406,すさみ町,すさみちょう,すさみ町役場,649-2621,西牟婁郡すさみ町周参見4089,33.55019,135.4967
30421,那智勝浦町,なちかつうらちょう,那智勝浦町役場,649-5392,東牟婁郡那智勝浦町大字築地7-1-1,33.62608,135.9409
30422,太地町,たいじちょう,太地町役場,649-5171,東牟婁郡太地町大字太地3767-1,33.59405,135.9439
30424,古座川町,こざがわちょう,古座川町役場,649-4104,東牟婁郡古座川町大字高池673-2,33.53192,135.8148
30427,北山村,きたやまむら,北山村役場,647-1603,東牟婁郡北山村大字大沼42,33.93207,135.9694
30428,串本町,くしもとちょう,串本町役場,649-3592,東牟婁郡串本町串本1800,33.47254,135.7814
31000,鳥取県,とっとりけん,鳥取県庁,680-8570,鳥取市東町1-220,35.5037,134.2382
31201,鳥取市,とっとりし,鳥取市役所,680-8571,鳥取市尚徳町116,35.50104,134.2352
31202,米子市,よなごし,米子市役所,683-8686,米子市加茂町1-1,35.42809,133.331
31203,倉吉市,くらよしし,倉吉市役所,682-8611,倉吉市葵町722,35.43004,133.8256
31204,境港市,さかいみなとし,境港市役所,684-8501,境港市上道町3000,35.53963,133.2316
31302,岩美町,いわみちょう,岩美町役場,681-8501,岩美郡岩美町大字浦富675-1,35.57581,134.332
31325,若桜町,わかさちょう,若桜町役場,680-0792,八頭郡若桜町大字若桜801-5,35.33973,134.4014
31328,智頭町,ちづちょう,智頭町役場,689-1402,八頭郡智頭町大字智頭2072-1,35.26512,134.2266
31329,八頭町,やずちょう,八頭町役場,680-0493,八頭郡八頭町郡家493,35.40905,134.2508
31364,三朝町,みささちょう,三朝町役場,682-0195,東伯郡三朝町大字大瀬999-2,35.40851,133.8625
31370,湯梨浜町,ゆりはまちょう,湯梨浜町役場,682-0723,東伯郡湯梨浜町大字久留19-1,35.48989,133.8648
31371,琴浦町,ことうらちょう,琴浦町役場,689-2392,東伯郡琴浦町徳万591-2,35.49533,133.6928
31372,北栄町,ほくえいちょう,北栄町役場,689-2292,東伯郡北栄町由良宿423-1,35.49003,133.7585
31384,日吉津村,ひえづそん,日吉津村役場,689-3553,西伯郡日吉津村大字日吉津872-15,35.44028,133.3805
31386,大山町,だいせんちょう,大山町役場,689-3211,西伯郡大山町御来屋328,35.51069,133.4959
31389,南部町,なんぶちょう,南部町役場,683-0351,西伯郡南部町法勝寺377-1,35.34034,133.3267
31390,伯耆町,ほうきちょう,伯耆町役場,689-4133,西伯郡伯耆町吉長37-3,35.38526,133.4074
31401,日南町,にちなんちょう,日南町役場,689-5292,日野郡日南町霞800,35.16372,133.3058
31402,日野町,ひのちょう,日野町役場,689-4503,日野郡日野町根雨101,35.24083,133.4428
31403,江府町,こうふちょう,江府町役場,689-4401,日野郡江府町大字江尾475,35.28316,133.4886
32000,島根県,しまねけん,島根県庁,690-8501,松江市殿町1,35.47221,133.0505
32201,松江市,まつえし,松江市役所,690-8540,松江市末次町86,35.4681,133.0485
32202,浜田市,はまだし,浜田市役所,697-8501,浜田市殿町1,34.89924,132.0799
32203,出雲市,いずもし,出雲市役所,693-8530,出雲市今市町70,35.36704,132.7547
32204,益田市,ますだし,益田市役所,698-8650,益田市常盤町1-1,34.67498,131.8427
32205,大田市,おおだし,大田市役所,694-0064,大田市大田町大田ロ1111,35.19221,132.4996
32206,安来市,やすぎし,安来市役所,692-8686,安来市安来町878-2,35.43161,133.2508
32207,江津市,ごうつし,江津市役所,695-8501,江津市江津町1525,35.0114,132.221
32209,雲南市,うんなんし,雲南市役所,699-1392,雲南市木次町里方521-1,35.30774,132.9003
32343,奥出雲町,おくいずもちょう,奥出雲町役場,699-1592,仁多郡奥出雲町三成358-1,35.19747,133.0025
32386,飯南町,いいなんちょう,飯南町役場,690-3513,飯石郡飯南町下赤名880,35.00004,132.7139
32441,川本町,かわもとまち,川本町役場,696-8501,邑智郡川本町大字川本271-3,34.99524,132.4958
32448,美郷町,みさとちょう,美郷町役場,699-4692,邑智郡美郷町粕渕168,35.0767,132.5912
32449,邑南町,おおなんちょう,邑南町役場,696-0192,邑智郡邑南町矢上6000,34.89397,132.4378
32501,津和野町,つわのちょう,津和野町役場,699-5292,鹿足郡津和野町日原54-25,34.54367,131.8384
32505,吉賀町,よしかちょう,吉賀町役場,699-5513,鹿足郡吉賀町六日市750,34.35354,131.9351
32525,海士町,あまちょう,海士町役場,684-0403,隠岐郡海士町大字海士1490,36.09654,133.0969
32526,西ノ島町,にしのしまちょう,西ノ島町役場,684-0211,隠岐郡西ノ島町大字浦郷534,36.0932,132.9943
32527,知夫村,ちぶむら,知夫村役場,684-0102,隠岐郡知夫村1065,36.01418,133.0398
32528,隠岐の島町,おきのしまちょう,隠岐の島町役場,685-8585,隠岐郡隠岐の島町城北町1,36.20914,133.3219
33000,岡山県,おかやまけん,岡山県庁,700-8570,岡山市北区内山下2-4-6,34.66176,133.9349
33100,岡山市,おかやまし,岡山市役所,700-8544,岡山市北区大供1-1-1,34.65509,133.9198
33101,岡山市北区,おかやましきたく,北区役所,700-8544,岡山市北区大供1-1-1,34.65509,133.9198
33102,岡山市中区,おかやましなかく,中区役所,703-8544,岡山市中区浜3-7-15,34.67084,133.9431
33103,岡山市東区,おかやましひがしく,東区役所,704-8555,岡山市東区西大寺南1-2-4,34.65136,134.0295
33104,岡山市南区,おかやましみなみく,南区役所,702-8544,岡山市南区浦安南町495-5,34.59977,133.9196
33202,倉敷市,くらしきし,倉敷市役所,710-8565,倉敷市西中新田640,34.58504,133.772
33203,津山市,つやまし,津山市役所,708-8501,津山市山北520,35.06933,134.0044
33204,玉野市,たまのし,玉野市役所,706-8510,玉野市宇野1-27-1,34.49195,133.9459
33205,笠岡市,かさおかし,笠岡市役所,714-8601,笠岡市中央町1-1,34.50708,133.5073
33207,井原市,いばらし,井原市役所,715-8601,井原市井原町311-1,34.59771,133.4638
33208,総社市,そうじゃし,総社市役所,719-1192,総社市中央1-1-1,34.67284,133.7465
33209,高梁市,たかはしし,高梁市役所,716-8501,高梁市松原通2043,34.79138,133.6167
33210,新見市,にいみし,新見市役所,718-8501,新見市新見310-3,34.97714,133.4703
33211,備前市,びぜんし,備前市役所,705-8602,備前市東片上126,34.74509,134.1881
33212,瀬戸内市,せとうちし,瀬戸内市役所,701-4292,瀬戸内市邑久町尾張300-1,34.66485,134.0928
33213,赤磐市,あかいわし,赤磐市役所,709-0898,赤磐市下市344,34.75534,134.0189
33214,真庭市,まにわし,真庭市役所,719-3292,真庭市久世2927-2,35.07562,133.7527
33215,美作市,みまさかし,美作市役所,707-8501,美作市栄町38-2,35.00848,134.1487
33216,浅口市,あさくちし,浅口市役所,719-0295,浅口市鴨方町六条院中3050,34.52788,133.5849
33346,和気町,わけちょう,和気町役場,709-0495,和気郡和気町尺所555,34.80289,134.1576
33423,早島町,はやしまちょう,早島町役場,701-0303,都窪郡早島町大字前潟360-1,34.60065,133.8283
33445,里庄町,さとしょうちょう,里庄町役場,719-0398,浅口郡里庄町大字里見1107-2,34.51372,133.5569
33461,矢掛町,やかげちょう,矢掛町役場,714-1297,小田郡矢掛町矢掛3018,34.62762,133.5871
33586,新庄村,しんじょうそん,新庄村役場,717-0201,真庭郡新庄村2008-1,35.17945,133.5679
33606,鏡野町,かがみのちょう,鏡野町役場,708-0392,苫田郡鏡野町竹田660,35.09183,133.9331
33622,勝央町,しょうおうちょう,勝央町役場,709-4316,勝田郡勝央町勝間田201,35.04186,134.1161
33623,奈義町,なぎちょう,奈義町役場,708-1392,勝田郡奈義町豊沢306-1,35.12305,134.1776
33643,西粟倉村,にしあわくらそん,西粟倉村役場,707-0503,英田郡西粟倉村大字影石2,35.17133,134.3364
33663,久米南町,くめなんちょう,久米南町役場,709-3614,久米郡久米南町下弓削502-1,34.92923,133.9608
33666,美咲町,みさきちょう,美咲町役場,709-3717,久米郡美咲町原田1735,34.99789,133.9582
33681,吉備中央町,きびちゅうおうちょう,吉備中央町役場,716-1192,加賀郡吉備中央町豊野1-2,34.8624,133.6938
34000,広島県,ひろしまけん,広島県庁,730-8511,広島市中区基町10-52,34.39627,132.4594
34100,広島市,ひろしまし,広島市役所,730-8586,広島市中区国泰寺町1-6-34,34.38522,132.4554
34101,広島市中区,ひろしましなかく,中区役所,730-8587,広島市中区国泰寺町1-4-21,34.38619,132.4552
34102,広島市東区,ひろしましひがしく,東区役所,732-8510,広島市東区東蟹屋町9-38,34.3953,132.4826
34103,広島市南区,ひろしましみなみく,南区役所,734-8522,広島市南区皆実町1-5-44,34.37988,132.4691
34104,広島市西区,ひろしましにしく,西区役所,733-8530,広島市西区福島町2-2-1,34.39391,132.4345
34105,広島市安佐南区,ひろしましあさみなみく,安佐南区役所,731-0193,広島市安佐南区古市1-33-14,34.45193,132.4716
34106,広島市安佐北区,ひろしましあさきたく,安佐北区役所,731-0292,広島市安佐北区可部4-13-13,34.51826,132.5077
34107,広島市安芸区,ひろしましあきく,安芸区役所,736-8501,広島市安芸区船越南3-4-36,34.37175,132.5256
34108,広島市佐伯区,ひろしましさえきく,佐伯区役所,731-5195,広島市佐伯区海老園2-5-28,34.36455,132.3609
34202,呉市,くれし,呉市役所,737-8501,呉市中央4-1-6,34.24904,132.5659
34203,竹原市,たけはらし,竹原市役所,725-8666,竹原市中央5-1-35,34.34176,132.907
34204,三原市,みはらし,三原市役所,723-8601,三原市港町3-5-1,34.39742,133.0787
34205,尾道市,おのみちし,尾道市役所,722-8501,尾道市久保1-15-1,34.40889,133.205
34207,福山市,ふくやまし,福山市役所,720-8501,福山市東桜町3-5,34.48586,133.3624
34208,府中市,ふちゅうし,府中市役所,726-8601,府中市府川町315,34.56835,133.2364
34209,三次市,みよしし,三次市役所,728-8501,三次市十日市中2-8-1,34.8057,132.8517
34210,庄原市,しょうばらし,庄原市役所,727-8501,庄原市中本町1-10-1,34.85781,133.0166
34211,大竹市,おおたけし,大竹市役所,739-0692,大竹市小方1-11-1,34.23792,132.2223
34212,東広島市,ひがしひろしまし,東広島市役所,739-8601,東広島市西条栄町8-29,34.4268,132.7436
34213,廿日市市,はつかいちし,廿日市市役所,738-8501,廿日市市下平良1-11-1,34.34861,132.3315
34214,安芸高田市,あきたかたし,安芸高田市役所,731-0592,安芸高田市吉田町吉田791,34.6663,132.704
34215,江田島市,えたじまし,江田島市役所,737-2297,江田島市大柿町大原505,34.17496,132.4622
34302,府中町,ふちゅうちょう,府中町役場,735-8686,安芸郡府中町大通3-5-1,34.39247,132.5043
34304,海田町,かいたちょう,海田町役場,736-8601,安芸郡海田町上市14-18,34.37216,132.5362
34307,熊野町,くまのちょう,熊野町役場,731-4292,安芸郡熊野町中溝1-1-1,34.33592,132.5844
34309,坂町,さかちょう,坂町役場,731-4393,安芸郡坂町平成ヶ浜1-1-1,34.34145,132.5138
34368,安芸太田町,あきおおたちょう,安芸太田町役場,731-3810,山県郡安芸太田町戸河内784-1,34.57675,132.227
34369,北広島町,きたひろしまちょう,北広島町役場,731-1595,山県郡北広島町有田1234,34.67449,132.5382
34431,大崎上島町,おおさきかみじまちょう,大崎上島町役場,725-0231,豊田郡大崎上島町東野6625-1,34.26957,132.9152
34462,世羅町,せらちょう,世羅町役場,722-1192,世羅郡世羅町西上原123-1,34.58682,133.0565
34545,神石高原町,じんせきこうげんちょう,神石高原町役場,720-1522,神石郡神石高原町小畠2025,34.70369,133.2478
35000,山口県,やまぐちけん,山口県庁,753-8501,山口市滝町1-1,34.18586,131.4714
35201,下関市,しものせきし,下関市役所,750-8521,下関市南部町1-1,33.95784,130.9413
35202,宇部市,うべし,宇部市役所,755-8601,宇部市常盤町1-7-1,33.95152,131.2467
35203,山口市,やまぐちし,山口市役所,753-8650,山口市亀山町2-1,34.17833,131.4739
35204,萩市,はぎし,萩市役所,758-8555,萩市江向510,34.40811,131.3992
35206,防府市,ほうふし,防府市役所,747-8501,防府市寿町7-1,34.05182,131.5628
35207,下松市,くだまつし,下松市役所,744-8585,下松市大手町3-3-3,34.015,131.8703
35208,岩国市,いわくにし,岩国市役所,740-8585,岩国市今津町1-14-51,34.1669,132.2198
35210,光市,ひかりし,光市役所,743-8501,光市中央6-1-1,33.96178,131.9422
35211,長門市,ながとし,長門市役所,759-4192,長門市東深川1339-2,34.37097,131.1823
35212,柳井市,やないし,柳井市役所,742-8714,柳井市南町1-10-2,33.96379,132.1017
35213,美祢市,みねし,美祢市役所,759-2292,美祢市大嶺町東分326-1,34.16663,131.2057
35215,周南市,しゅうなんし,周南市役所,745-8655,周南市岐山通1-1,34.0553,131.8062
35216,山陽小野田市,さんようおのだし,山陽小野田市役所,756-8601,山陽小野田市日の出1-1-1,34.00318,131.1818
35305,周防大島町,すおうおおしまちょう,周防大島町役場,742-2192,大島郡周防大島町大字小松126-2,33.92843,132.1957
35321,和木町,わきちょう,和木町役場,740-8501,玖珂郡和木町和木1-1-1,34.20223,132.2202
35341,上関町,かみのせきちょう,上関町役場,742-1402,熊毛郡上関町大字長島503,33.83088,132.1107
35343,田布施町,たぶせちょう,田布施町役場,742-1592,熊毛郡田布施町大字下田布施3440-1,33.95465,132.0414
35344,平生町,ひらおちょう,平生町役場,742-1195,熊毛郡平生町大字平生町210-1,33.93796,132.0733
35502,阿武町,あぶちょう,阿武町役場,759-3622,阿武郡阿武町大字奈古2636,34.50408,131.4708
36000,徳島県,とくしまけん,徳島県庁,770-8570,徳島市万代町1-1,34.06573,134.5595
36201,徳島市,とくしまし,徳島市役所,770-8571,徳島市幸町2-5,34.07017,134.5547
36202,鳴門市,なるとし,鳴門市役所,772-8501,鳴門市撫養町南浜字東浜170,34.17208,134.6093
36203,小松島市,こまつしまし,小松島市役所,773-8501,小松島市横須町1-1,34.00471,134.5906
36204,阿南市,あなんし,阿南市役所,774-8501,阿南市富岡町トノ町12-3,33.92175,134.6596
36205,吉野川市,よしのがわし,吉野川市役所,776-8611,吉野川市鴨島町鴨島115-1,34.06637,134.3586
36206,阿波市,あわし,阿波市役所,771-1695,阿波市市場町切幡字古田201-1,34.10218,134.2973
36207,美馬市,みまし,美馬市役所,777-8577,美馬市穴吹町穴吹字九反地5,34.05334,134.1699
36208,三好市,みよしし,三好市役所,778-8501,三好市池田町シンマチ1500-2,34.02586,133.8073
36301,勝浦町,かつうらちょう,勝浦町役場,771-4395,勝浦郡勝浦町大字久国字久保田3,33.93144,134.5114
36302,上勝町,かみかつちょう,上勝町役場,771-4501,勝浦郡上勝町大字福原字下横峯3-1,33.88895,134.4019
36321,佐那河内村,さなごうちそん,佐那河内村役場,771-4195,名東郡佐那河内村下字中辺71-1,33.99315,134.4533
36341,石井町,いしいちょう,石井町役場,779-3295,名西郡石井町高川原字高川原121-1,34.07473,134.4406
36342,神山町,かみやまちょう,神山町役場,771-3395,名西郡神山町神領字本野間100,33.96724,134.3505
36368,那賀町,なかちょう,那賀町役場,771-5295,那賀郡那賀町和食郷字南川104-1,33.85746,134.4965
36383,牟岐町,むぎちょう,牟岐町役場,775-8570,海部郡牟岐町大字中村字本村7-4,33.6682,134.4207
36387,美波町,みなみちょう,美波町役場,779-2395,海部郡美波町奥河内字本村18-1,33.73458,134.5355
36388,海陽町,かいようちょう,海陽町役場,775-0295,海部郡海陽町大里字上中須128,33.60207,134.352
36401,松茂町,まつしげちょう,松茂町役場,771-0295,板野郡松茂町広島字東裏30,34.13392,134.5802
36402,北島町,きたじまちょう,北島町役場,771-0285,板野郡北島町中村字上地23-1,34.12553,134.5469
36403,藍住町,あいずみちょう,藍住町役場,771-1292,板野郡藍住町奥野字矢上前52-1,34.12647,134.4956
36404,板野町,いたのちょう,板野町役場,779-0192,板野郡板野町吹田字町南22-2,34.14425,134.4626
36405,上板町,かみいたちょう,上板町役場,771-1392,板野郡上板町七條字経塚42,34.12141,134.405
36468,つるぎ町,つるぎちょう,つるぎ町役場,779-4195,美馬郡つるぎ町貞光字東浦1-3,34.03728,134.064
36489,東みよし町,ひがしみよしちょう,東みよし町役場,779-4795,三好郡東みよし町加茂3360,34.03714,133.9367
37000,香川県,かがわけん,香川県庁,760-8570,高松市番町4-1-10,34.34016,134.0434
37201,高松市,たかまつし,高松市役所,760-8571,高松市番町1-8-15,34.3428,134.0467
37202,丸亀市,まるがめし,丸亀市役所,763-8501,丸亀市大手町2-3-1,34.28939,133.7976
37203,坂出市,さかいでし,坂出市役所,762-8601,坂出市室町2-3-5,34.31641,133.8605
37204,善通寺市,ぜんつうじし,善通寺市役所,765-8503,善通寺市文京町2-1-1,34.22845,133.7871
37205,観音寺市,かんおんじし,観音寺市役所,768-8601,観音寺市坂本町一丁目1-1,34.12743,133.6613
37206,さぬき市,さぬきし,さぬき市役所,769-2195,さぬき市志度5385-8,34.32528,134.1721
37207,東かがわ市,ひがしかがわし,東かがわ市役所,769-2792,東かがわ市湊1847-1,34.24373,134.3588
37208,三豊市,みとよし,三豊市役所,767-8585,三豊市高瀬町下勝間2373-1,34.14682,133.6949
37322,土庄町,とのしょうちょう,土庄町役場,761-4192,小豆郡土庄町甲559-2,34.48598,134.1857
37324,小豆島町,しょうどしまちょう,小豆島町役場,761-4388,小豆郡小豆島町池田2100-4,34.48192,134.2336
37341,三木町,みきちょう,三木町役場,761-0692,木田郡三木町大字氷上310,34.26836,134.1345
37364,直島町,なおしまちょう,直島町役場,761-3110,香川郡直島町1122-1,34.46001,133.9956
37386,宇多津町,うたづちょう,宇多津町役場,769-0292,綾歌郡宇多津町1881,34.3105,133.8254
37387,綾川町,あやがわちょう,綾川町役場,761-2392,綾歌郡綾川町滝宮299,34.2495,133.9231
37403,琴平町,ことひらちょう,琴平町役場,766-8502,仲多度郡琴平町榎井817-10,34.19148,133.8233
37404,多度津町,たどつちょう,多度津町役場,764-8501,仲多度郡多度津町栄町1-1-91,34.27244,133.7537
37406,まんのう町,まんのうちょう,まんのう町役場,766-0022,仲多度郡まんのう町吉野下430,34.19234,133.8414
38000,愛媛県,えひめけん,愛媛県庁,790-8570,松山市一番町4-4-2,33.84165,132.7661
38201,松山市,まつやまし,松山市役所,790-8571,松山市二番町4-7-2,33.8392,132.7656
38202,今治市,いまばりし,今治市役所,794-8511,今治市別宮町1-4-1,34.06604,132.9977
38203,宇和島市,うわじまし,宇和島市役所,798-8601,宇和島市曙町1,33.22321,132.5605
38204,八幡浜市,やわたはまし,八幡浜市役所,796-8501,八幡浜市北浜1-1-1,33.4629,132.4233
38205,新居浜市,にいはまし,新居浜市役所,792-8585,新居浜市一宮町1-5-1,33.96028,133.2833
38206,西条市,さいじょうし,西条市役所,793-8601,西条市明屋敷164,33.91956,133.1812
38207,大洲市,おおずし,大洲市役所,795-8601,大洲市大洲690-1,33.50629,132.5447
38210,伊予市,いよし,伊予市役所,799-3193,伊予市米湊820,33.75746,132.7038
38213,四国中央市,しこくちゅうおうし,四国中央市役所,799-0497,四国中央市三島宮川4-6-55,33.98076,133.5493
38214,西予市,せいよし,西予市役所,797-8501,西予市宇和町卯之町3-434-1,33.363,132.511
38215,東温市,とうおんし,東温市役所,791-0292,東温市見奈良530-1,33.7911,132.8719
38356,上島町,かみじまちょう,上島町役場,794-2592,越智郡上島町弓削下弓削210,34.25752,133.2044
38386,久万高原町,くまこうげんちょう,久万高原町役場,791-1201,上浮穴郡久万高原町久万212,33.65564,132.9017
38401,松前町,まさきちょう,松前町役場,791-3192,伊予郡松前町大字筒井631,33.78751,132.7115
38402,砥部町,とべちょう,砥部町役場,791-2195,伊予郡砥部町宮内1392,33.74927,132.7922
38422,内子町,うちこちょう,内子町役場,795-0392,喜多郡内子町平岡甲168,33.5329,132.6581
38442,伊方町,いかたちょう,伊方町役場,796-0301,西宇和郡伊方町湊浦1993-1,33.4882,132.3541
38484,松野町,まつのちょう,松野町役場,798-2192,北宇和郡松野町大字松丸343,33.22719,132.7109
38488,鬼北町,きほくちょう,鬼北町役場,798-1395,北宇和郡鬼北町大字近永800-1,33.2558,132.6841
38506,愛南町,あいなんちょう,愛南町役場,798-4196,南宇和郡愛南町城辺甲2420,32.96244,132.5837
39000,高知県,こうちけん,高知県庁,780-8570,高知市丸ノ内1-2-20,33.55975,133.5311
39201,高知市,こうちし,高知市役所,780-8571,高知市本町5-1-45,33.55878,133.5313
39202,室戸市,むろとし,室戸市役所,781-7185,室戸市浮津25-1,33.28993,134.152
39203,安芸市,あきし,安芸市役所,784-8501,安芸市矢ノ丸1-4-40,33.50238,133.9072
39204,南国市,なんこくし,南国市役所,783-8501,南国市大そね甲2301,33.57553,133.6415
39205,土佐市,とさし,土佐市役所,781-1192,土佐市高岡町甲2017-1,33.49598,133.4254
39206,須崎市,すさきし,須崎市役所,785-8601,須崎市山手町1-7,33.40068,133.283
39208,宿毛市,すくもし,宿毛市役所,788-8686,宿毛市桜町2-1,32.93889,132.7262
39209,土佐清水市,とさしみずし,土佐清水市役所,787-0392,土佐清水市天神町11-2,32.7815,132.955
39210,四万十市,しまんとし,四万十市役所,787-8501,四万十市中村大橋通4-10,32.99164,132.9339
39211,香南市,こうなんし,香南市役所,781-5292,香南市野市町西野2706,33.56412,133.7005
39212,香美市,かみし,香美市役所,782-8501,香美市土佐山田町宝町1-2-1,33.60383,133.6862
39301,東洋町,とうようちょう,東洋町役場,781-7414,安芸郡東洋町大字生見758-3,33.52796,134.2801
39302,奈半利町,なはりちょう,奈半利町役場,781-6402,安芸郡奈半利町乙1659-1,33.42361,134.021
39303,田野町,たのちょう,田野町役場,781-6410,安芸郡田野町1828-5,33.42767,134.0082
39304,安田町,やすだちょう,安田町役場,781-6421,安芸郡安田町大字安田1850,33.43845,133.9812
39305,北川村,きたがわむら,北川村役場,781-6441,安芸郡北川村野友甲1530,33.44786,134.0421
39306,馬路村,うまじむら,馬路村役場,781-6201,安芸郡馬路村馬路443,33.55549,134.0485
39307,芸西村,げいせいむら,芸西村役場,781-5792,安芸郡芸西村和食甲1262,33.52693,133.8091
39341,本山町,もとやまちょう,本山町役場,781-3692,長岡郡本山町本山504,33.75698,133.5915
39344,大豊町,おおとよちょう,大豊町役場,789-0392,長岡郡大豊町高須231,33.76426,133.6643
39363,土佐町,とさちょう,土佐町役場,781-3492,土佐郡土佐町土居194,33.7374,133.5325
39364,大川村,おおかわむら,大川村役場,781-3703,土佐郡大川村小松27-1,33.7837,133.4666
39386,いの町,いのちょう,いの町役場,781-2192,吾川郡いの町1700-1,33.54867,133.4278
39387,仁淀川町,によどがわちょう,仁淀川町役場,781-1592,吾川郡仁淀川町大崎124,33.57533,133.1682
39401,中土佐町,なかとさちょう,中土佐町役場,789-1301,高岡郡中土佐町久礼6602-2,33.32741,133.2282
39402,佐川町,さかわちょう,佐川町役場,789-1292,高岡郡佐川町甲1650-2,33.50084,133.2867
39403,越知町,おちちょう,越知町役場,781-1301,高岡郡越知町越知甲1970,33.53289,133.2521
39405,梼原町,ゆすはらちょう,梼原町役場,785-0695,高岡郡梼原町梼原1444-1,33.392,132.9273
39410,日高村,ひだかむら,日高村役場,781-2194,高岡郡日高村本郷61-1,33.53472,133.3734
39411,津野町,つのちょう,津野町役場,785-0201,高岡郡津野町永野471-1,33.44657,133.1994
39412,四万十町,しまんとちょう,四万十町役場,786-8501,高岡郡四万十町琴平町16-17,33.21166,133.1371
39424,大月町,おおつきちょう,大月町役場,788-0302,幡多郡大月町弘見2230,32.84148,132.707
39427,三原村,みはらむら,三原村役場,787-0892,幡多郡三原村来栖野346,32.90609,132.8473
39428,黒潮町,くろしおちょう,黒潮町役場,789-1992,幡多郡黒潮町入野2019-1,33.02486,133.0109
40000,福岡県,ふくおかけん,福岡県庁,812-8577,福岡市博多区東公園7-7,33.60626,130.4181
40100,北九州市,きたきゅうしゅうし,北九州市役所,803-8501,北九州市小倉北区城内1-1,33.88341,130.8752
40101,北九州市門司区,きたきゅうしゅうしもじく,門司区役所,801-8510,北九州市門司区清滝1-1-1,33.94121,130.9597
40103,北九州市若松区,きたきゅうしゅうしわかまつく,若松区役所,808-8510,北九州市若松区浜町1-1-1,33.90549,130.8112
40105,北九州市戸畑区,きたきゅうしゅうしとばたく,戸畑区役所,804-8510,北九州市戸畑区千防1-1-1,33.89465,130.8294
40106,北九州市小倉北区,きたきゅうしゅうしこくらきたく,小倉北区役所,803-8510,北九州市小倉北区大手町1-1,33.88074,130.8737
40107,北九州市小倉南区,きたきゅうしゅうしこくらみなみく,小倉南区役所,802-8510,北九州市小倉南区若園5-1-2,33.84641,130.8847
40108,北九州市八幡東区,きたきゅうしゅうしやはたひがしく,八幡東区役所,805-8510,北九州市八幡東区中央1-1-1,33.86355,130.8119
40109,北九州市八幡西区,きたきゅうしゅうしやはたにしく,八幡西区役所,806-8510,北九州市八幡西区黒崎3-15-3,33.86638,130.7643
40130,福岡市,ふくおかし,福岡市役所,810-8620,福岡市中央区天神1-8-1,33.5901,130.4018
40131,福岡市東区,ふくおかしひがしく,東区役所,812-8653,福岡市東区箱崎2-54-1,33.61776,130.4174
40132,福岡市博多区,ふくおかしはかたく,博多区役所,812-8512,福岡市博多区博多駅前2-9-3,33.5914,130.4149
40133,福岡市中央区,ふくおかしちゅうおうく,中央区役所,810-8622,福岡市中央区大名2-5-31,33.58921,130.393
40134,福岡市南区,ふくおかしみなみく,南区役所,815-8501,福岡市南区塩原3-25-1,33.56154,130.4266
40135,福岡市西区,ふくおかしにしく,西区役所,819-8501,福岡市西区内浜1-4-1,33.58285,130.3231
40136,福岡市城南区,ふくおかしじょうなんく,城南区役所,814-0192,福岡市城南区鳥飼6-1-1,33.57571,130.3699
40137,福岡市早良区,ふくおかしさわらく,早良区役所,814-8501,福岡市早良区百道2-1-1,33.58182,130.3484
40202,大牟田市,おおむたし,大牟田市役所,836-8666,大牟田市有明町2-3,33.03035,130.446
40203,久留米市,くるめし,久留米市役所,830-8520,久留米市城南町15-3,33.31929,130.5084
40204,直方市,のおがたし,直方市役所,822-8501,直方市殿町7-1,33.74395,130.7296
40205,飯塚市,いいづかし,飯塚市役所,820-8501,飯塚市新立岩5-5,33.6459,130.6914
40206,田川市,たがわし,田川市役所,825-8501,田川市中央町1-1,33.63882,130.8061
40207,柳川市,やながわし,柳川市役所,832-8601,柳川市本町87-1,33.16311,130.406
40210,八女市,やめし,八女市役所,834-8585,八女市本町647,33.21183,130.5579
40211,筑後市,ちくごし,筑後市役所,833-8601,筑後市大字山ノ井898,33.21225,130.5021
40212,大川市,おおかわし,大川市役所,831-8601,大川市大字酒見256-1,33.20655,130.3839
40213,行橋市,ゆくはしし,行橋市役所,824-8601,行橋市中央1-1-1,33.7287,130.983
40214,豊前市,ぶぜんし,豊前市役所,828-8501,豊前市大字吉木955,33.61152,131.1303
40215,中間市,なかまし,中間市役所,809-8501,中間市中間1-1-1,33.8166,130.7091
40216,小郡市,おごおりし,小郡市役所,838-0198,小郡市小郡255-1,33.39651,130.5556
40217,筑紫野市,ちくしのし,筑紫野市役所,818-8686,筑紫野市二日市西1-1-1,33.49639,130.5156
40218,春日市,かすがし,春日市役所,816-8501,春日市原町3-1-5,33.53266,130.4703
40219,大野城市,おおのじょうし,大野城市役所,816-8510,大野城市曙町2-2-1,33.5363,130.4788
40220,宗像市,むなかたし,宗像市役所,811-3492,宗像市東郷1-1-1,33.80555,130.5405
40221,太宰府市,だざいふし,太宰府市役所,818-0198,太宰府市観世音寺1-1-1,33.51285,130.5239
40223,古賀市,こがし,古賀市役所,811-3192,古賀市駅東1-1-1,33.72875,130.4701
40224,福津市,ふくつし,福津市役所,811-3293,福津市中央1-1-1,33.7668,130.4911
40225,うきは市,うきはし,うきは市役所,839-1393,うきは市吉井町新治316,33.34746,130.7549
40226,宮若市,みやわかし,宮若市役所,823-0011,宮若市宮田29-1,33.72353,130.6667
40227,嘉麻市,かまし,嘉麻市役所,820-0502,嘉麻市上臼井446-1,33.56322,130.7115
40228,朝倉市,あさくらし,朝倉市役所,838-8601,朝倉市菩提寺412-2,33.42345,130.6655
40229,みやま市,みやまし,みやま市役所,835-8601,みやま市瀬高町小川5,33.15245,130.4748
40230,糸島市,いとしまし,糸島市役所,819-1192,糸島市前原西一丁目1番1号,33.55737,130.1956
40305,那珂川町,なかがわまち,那珂川町役場,811-1292,筑紫郡那珂川町西隈1-1-1,33.49949,130.4223
40341,宇美町,うみまち,宇美町役場,811-2192,糟屋郡宇美町宇美5-1-1,33.56777,130.5112
40342,篠栗町,ささぐりまち,篠栗町役場,811-2492,糟屋郡篠栗町大字篠栗4855-5,33.62384,130.5262
40343,志免町,しめまち,志免町役場,811-2292,糟屋郡志免町志免中央1-1-1,33.59144,130.4798
40344,須恵町,すえまち,須恵町役場,811-2193,糟屋郡須恵町大字須恵771,33.58721,130.5072
40345,新宮町,しんぐうまち,新宮町役場,811-0192,糟屋郡新宮町緑ヶ浜1-1-1,33.71514,130.4466
40348,久山町,ひさやままち,久山町役場,811-2592,糟屋郡久山町大字久原3632,33.6467,130.5
40349,粕屋町,かすやまち,粕屋町役場,811-2392,糟屋郡粕屋町駕与丁一丁目1-1,33.61084,130.4807
40381,芦屋町,あしやまち,芦屋町役場,807-0198,遠賀郡芦屋町幸町2-20,33.89373,130.6639
40382,水巻町,みずまきまち,水巻町役場,807-8501,遠賀郡水巻町頃末北1-1-1,33.85474,130.6949
40383,岡垣町,おかがきまち,岡垣町役場,811-4233,遠賀郡岡垣町野間1-1-1,33.85353,130.6116
40384,遠賀町,おんがちょう,遠賀町役場,811-4392,遠賀郡遠賀町大字今古賀513,33.84805,130.6682
40401,小竹町,こたけまち,小竹町役場,820-1192,鞍手郡小竹町大字勝野3349,33.69245,130.7128
40402,鞍手町,くらてまち,鞍手町役場,807-1392,鞍手郡鞍手町大字中山3705,33.79205,130.6747
40421,桂川町,けいせんまち,桂川町役場,820-0696,嘉穂郡桂川町大字土居424-1,33.57885,130.6781
40447,筑前町,ちくぜんまち,筑前町役場,838-0298,朝倉郡筑前町篠隈373,33.45706,130.5952
40448,東峰村,とうほうむら,東峰村役場,838-1792,朝倉郡東峰村大字宝珠山6425,33.39732,130.8699
40503,大刀洗町,たちあらいまち,大刀洗町役場,830-1298,三井郡大刀洗町大字冨多819,33.3724,130.6224
40522,大木町,おおきまち,大木町役場,830-0416,三潴郡大木町大字八町牟田255-1,33.21041,130.4398
40544,広川町,ひろかわまち,広川町役場,834-0115,八女郡広川町大字新代1804-1,33.24144,130.5514
40601,香春町,かわらまち,香春町役場,822-1492,田川郡香春町大字高野994,33.66796,130.8473
40602,添田町,そえだまち,添田町役場,824-0691,田川郡添田町大字添田2151,33.57175,130.8541
40604,糸田町,いとだまち,糸田町役場,822-1392,田川郡糸田町1975-1,33.65281,130.7791
40605,川崎町,かわさきまち,川崎町役場,827-8501,田川郡川崎町大字田原789-2,33.59999,130.8154
40608,大任町,おおとうまち,大任町役場,824-0512,田川郡大任町大字大行事3067,33.61233,130.8521
40609,赤村,あかむら,赤村役場,824-0432,田川郡赤村大字内田1188,33.61666,130.8708
40610,福智町,ふくちまち,福智町役場,822-1292,田川郡福智町金田937-2,33.68185,130.776
40621,苅田町,かんだまち,苅田町役場,800-0392,京都郡苅田町富久町1-19-1,33.77603,130.9805
40625,みやこ町,みやこまち,みやこ町役場,824-0892,京都郡みやこ町勝山上田960,33.69921,130.9204
40642,吉富町,よしとみまち,吉富町役場,871-8585,築上郡吉富町大字広津226-1,33.60272,131.176
40646,上毛町,こうげまち,上毛町役場,871-0992,築上郡上毛町大字垂水1321-1,33.57833,131.1644
40647,築上町,ちくじょうまち,築上町役場,829-0392,築上郡築上町大字椎田891-2,33.65613,131.0561
41000,佐賀県,さがけん,佐賀県庁,840-8570,佐賀市城内1-1-59,33.24932,130.2988
41201,佐賀市,さがし,佐賀市役所,840-8501,佐賀市栄町1-1,33.26338,130.3008
41202,唐津市,からつし,唐津市役所,847-8511,唐津市西城内1-1,33.45002,129.9685
41203,鳥栖市,とすし,鳥栖市役所,841-8511,鳥栖市宿町1118,33.37779,130.506
41204,多久市,たくし,多久市役所,846-8501,多久市北多久町大字小侍7-1,33.28854,130.1101
41205,伊万里市,いまりし,伊万里市役所,848-8501,伊万里市立花町1355-1,33.26476,129.8808
41206,武雄市,たけおし,武雄市役所,843-8639,武雄市武雄町大字昭和1-1,33.19374,130.0191
41207,鹿島市,かしまし,鹿島市役所,849-1312,鹿島市大字納富分2643-1,33.10408,130.0986
41208,小城市,おぎし,小城市役所,845-8511,小城市三日月町長神田2312-2,33.27367,130.2169
41209,嬉野市,うれしのし,嬉野市役所,849-1492,嬉野市塩田町大字馬場下甲1769,33.12833,130.0597
41210,神埼市,かんざきし,神埼市役所,842-8601,神埼市神埼町神埼410,33.31074,130.373
41327,吉野ヶ里町,よしのがりちょう,吉野ヶ里町役場,842-8501,神埼郡吉野ヶ里町吉田321-2,33.32118,130.3989
41341,基山町,きやまちょう,基山町役場,841-0204,三養基郡基山町大字宮浦666,33.42703,130.5231
41345,上峰町,かみみねちょう,上峰町役場,849-0123,三養基郡上峰町大字坊所383-1,33.31954,130.4262
41346,みやき町,みやきちょう,みやき町役場,849-0113,三養基郡みやき町大字東尾737-5,33.32485,130.4543
41387,玄海町,げんかいちょう,玄海町役場,847-1421,東松浦郡玄海町大字諸浦348,33.47224,129.8748
41401,有田町,ありたちょう,有田町役場,849-4192,西松浦郡有田町立部乙2202,33.21136,129.8489
41423,大町町,おおまちちょう,大町町役場,849-2101,杵島郡大町町大字大町5017,33.21388,130.116
41424,江北町,こうほくまち,江北町役場,849-0592,杵島郡江北町大字山口1651-1,33.22046,130.1573
41425,白石町,しろいしちょう,白石町役場,849-1192,杵島郡白石町大字福田1247-1,33.18108,130.1435
41441,太良町,たらちょう,太良町役場,849-1698,藤津郡太良町大字多良1番地6,33.01951,130.1792
42000,長崎県,ながさきけん,長崎県庁,850-8570,長崎市江戸町2-13,32.74484,129.8735
42201,長崎市,ながさきし,長崎市役所,850-8685,長崎市桜町2-22,32.75025,129.8778
42202,佐世保市,させぼし,佐世保市役所,857-8585,佐世保市八幡町1-10,33.17987,129.7154
42203,島原市,しまばらし,島原市役所,855-8555,島原市上の町537,32.78806,130.3705
42204,諫早市,いさはやし,諫早市役所,854-8601,諫早市東小路町7-1,32.84419,130.0536
42205,大村市,おおむらし,大村市役所,856-8686,大村市玖島1-25,32.90002,129.9583
42207,平戸市,ひらどし,平戸市役所,859-5192,平戸市岩の上町1508-3,33.36805,129.5538
42208,松浦市,まつうらし,松浦市役所,859-4598,松浦市志佐町里免365,33.34119,129.7092
42209,対馬市,つしまし,対馬市役所,817-8510,対馬市厳原町国分1441,34.20273,129.2873
42210,壱岐市,いきし,壱岐市役所,811-5192,壱岐市郷ノ浦町本村触562,33.7499,129.6913
42211,五島市,ごとうし,五島市役所,853-8501,五島市福江町1-1,32.69557,128.8409
42212,西海市,さいかいし,西海市役所,857-2392,西海市大瀬戸町瀬戸樫浦郷2222,32.93315,129.6431
42213,雲仙市,うんぜんし,雲仙市役所,859-1107,雲仙市吾妻町牛口名714,32.83511,130.1875
42214,南島原市,みなみしまばらし,南島原市役所,859-2211,南島原市西有家町里坊96-2,32.65974,130.2977
42307,長与町,ながよちょう,長与町役場,851-2185,西彼杵郡長与町嬉里郷659-1,32.82519,129.8751
42308,時津町,とぎつちょう,時津町役場,851-2198,西彼杵郡時津町浦郷274-1,32.82888,129.8485
42321,東彼杵町,ひがしそのぎちょう,東彼杵町役場,859-3808,東彼杵郡東彼杵町蔵本郷1850-6,33.03698,129.9171
42322,川棚町,かわたなちょう,川棚町役場,859-3692,東彼杵郡川棚町中組郷1518-1,33.07267,129.8615
42323,波佐見町,はさみちょう,波佐見町役場,859-3791,東彼杵郡波佐見町宿郷660,33.13816,129.8956
42383,小値賀町,おぢかちょう,小値賀町役場,857-4701,北松浦郡小値賀町笛吹郷2376-1,33.19103,129.059
42391,佐々町,さざちょう,佐々町役場,857-0392,北松浦郡佐々町本田原免168-2,33.23837,129.6504
42411,新上五島町,しんかみごとうちょう,新上五島町役場,857-4495,南松浦郡新上五島町青方郷1585-1,32.98446,129.0734
43000,熊本県,くまもとけん,熊本県庁,862-8570,熊本市水前寺6-18-1,32.79037,130.7411
43100,熊本市,くまもとし,熊本市役所,860-8601,熊本市中央区手取本町1-1,32.80323,130.7081
43101,熊本市中央区,くまもとしちゅうおうく,中央区役所,860-8618,熊本市中央区手取本町1-1,32.80323,130.7081
43102,熊本市東区,くまもとしひがしく,東区役所,862-8555,熊本市東区東本町16-30,32.78052,130.7681
43103,熊本市西区,くまもとしにしく,西区役所,861-5292,熊本市西区小島2丁目7-1,32.77635,130.6476
43104,熊本市南区,くまもとしみなみく,南区役所,861-4189,熊本市南区富合町清藤405-3,32.71535,130.6789
43105,熊本市北区,くまもとしきたく,北区役所,861-0195,熊本市北区植木町岩野238-1,32.90356,130.6944
43202,八代市,やつしろし,八代市役所,866-8601,八代市松江城町1-25,32.50759,130.6018
43203,人吉市,ひとよしし,人吉市役所,868-8601,人吉市下城本町1578-1,32.21689,130.7394
43204,荒尾市,あらおし,荒尾市役所,864-8686,荒尾市宮内出目390,32.98674,130.4332
43205,水俣市,みなまたし,水俣市役所,867-8555,水俣市陣内1-1-1,32.21187,130.4088
43206,玉名市,たまなし,玉名市役所,865-8501,玉名市岩崎163,32.93521,130.5628
43208,山鹿市,やまがし,山鹿市役所,861-0592,山鹿市山鹿987-3,33.01758,130.6914
43210,菊池市,きくちし,菊池市役所,861-1392,菊池市隈府888,32.97966,130.8132
43211,宇土市,うとし,宇土市役所,869-0492,宇土市浦田町51,32.68744,130.6583
43212,上天草市,かみあまくさし,上天草市役所,869-3692,上天草市大矢野町上1514,32.5875,130.4305
43213,宇城市,うきし,宇城市役所,869-0592,宇城市松橋町大野85,32.6478,130.6843
43214,阿蘇市,あそし,阿蘇市役所,869-2695,阿蘇市一の宮町宮地504-1,32.95209,131.1214
43215,天草市,あまくさし,天草市役所,863-8631,天草市東浜町8-1,32.45864,130.1931
43216,合志市,こうしし,合志市役所,861-1195,合志市竹迫2140,32.88592,130.7898
43348,美里町,みさとまち,美里町役場,861-4492,下益城郡美里町馬場1100,32.63961,130.7888
43364,玉東町,ぎょくとうまち,玉東町役場,869-0303,玉名郡玉東町大字木葉759,32.91892,130.6285
43367,南関町,なんかんまち,南関町役場,861-0898,玉名郡南関町大字関町1316,33.06157,130.5413
43368,長洲町,ながすまち,長洲町役場,869-0198,玉名郡長洲町大字長洲2766,32.92975,130.4528
43369,和水町,なごみまち,和水町役場,865-0192,玉名郡和水町江田3886,32.97816,130.6057
43403,大津町,おおづまち,大津町役場,869-1292,菊池郡大津町大字大津1233,32.87895,130.8682
43404,菊陽町,きくようまち,菊陽町役場,869-1192,菊池郡菊陽町大字久保田2800,32.86251,130.8287
43423,南小国町,みなみおぐにまち,南小国町役場,869-2492,阿蘇郡南小国町大字赤馬場143,33.09819,131.0709
43424,小国町,おぐにまち,小国町役場,869-2592,阿蘇郡小国町大字宮原1567-1,33.12152,131.0683
43425,産山村,うぶやまむら,産山村役場,869-2703,阿蘇郡産山村大字山鹿488-3,32.9955,131.2168
43428,高森町,たかもりまち,高森町役場,869-1602,阿蘇郡高森町大字高森2168,32.82721,131.122
43432,西原村,にしはらむら,西原村役場,861-2492,阿蘇郡西原村大字小森3259,32.83471,130.9031
43433,南阿蘇村,みなみあそむら,南阿蘇村役場,869-1404,阿蘇郡南阿蘇村大字河陽1705-1,32.84511,131.0178
43441,御船町,みふねまち,御船町役場,861-3296,上益城郡御船町大字御船995-1,32.71452,130.8019
43442,嘉島町,かしままち,嘉島町役場,861-3192,上益城郡嘉島町大字上島530,32.73993,130.7573
43443,益城町,ましきまち,益城町役場,861-2295,上益城郡益城町大字宮園702,32.7914,130.8164
43444,甲佐町,こうさまち,甲佐町役場,861-4696,上益城郡甲佐町豊内719-4,32.65144,130.8112
43447,山都町,やまとちょう,山都町役場,861-3592,上益城郡山都町浜町6,32.68547,130.9905
43468,氷川町,ひかわちょう,氷川町役場,869-4814,八代郡氷川町島地642,32.58236,130.6737
43482,芦北町,あしきたまち,芦北町役場,869-5498,葦北郡芦北町大字芦北2015,32.29891,130.4931
43484,津奈木町,つなぎまち,津奈木町役場,869-5692,葦北郡津奈木町大字小津奈木2123,32.23397,130.4403
43501,錦町,にしきまち,錦町役場,868-0302,球磨郡錦町大字一武1587,32.20107,130.8411
43505,多良木町,たらぎまち,多良木町役場,868-0595,球磨郡多良木町大字多良木1648,32.26418,130.9359
43506,湯前町,ゆのまえまち,湯前町役場,868-0621,球磨郡湯前町1989-1,32.27615,130.981
43507,水上村,みずかみむら,水上村役場,868-0795,球磨郡水上村大字岩野90,32.31437,131.0095
43510,相良村,さがらむら,相良村役場,868-8501,球磨郡相良村大字深水2500-1,32.23534,130.7981
43511,五木村,いつきむら,五木村役場,868-0201,球磨郡五木村甲字下手2672-7,32.39721,130.8281
43512,山江村,やまえむら,山江村役場,868-0092,球磨郡山江村大字山田甲1356-1,32.24634,130.7673
43513,球磨村,くまむら,球磨村役場,869-6401,球磨郡球磨村大字渡丙1730,32.25267,130.6514
43514,あさぎり町,あさぎりちょう,あさぎり町役場,868-0408,球磨郡あさぎり町免田東1199,32.24037,130.8978
43531,苓北町,れいほくまち,苓北町役場,863-2503,天草郡苓北町志岐660,32.51308,130.0548
44000,大分県,おおいたけん,大分県庁,870-8501,大分市大手町3-1-1,33.23813,131.6126
44201,大分市,おおいたし,大分市役所,870-8504,大分市荷揚町2-31,33.23946,131.6097
44202,別府市,べっぷし,別府市役所,874-8511,別府市上野口町1-15,33.28462,131.4912
44203,中津市,なかつし,中津市役所,871-8501,中津市豊田町14-3,33.59828,131.1882
44204,日田市,ひたし,日田市役所,877-8601,日田市田島2-6-1,33.32114,130.9414
44205,佐伯市,さいきし,佐伯市役所,876-8585,佐伯市中村南町1-1,32.96019,131.8995
44206,臼杵市,うすきし,臼杵市役所,875-8501,臼杵市大字臼杵72-1,33.12592,131.8046
44207,津久見市,つくみし,津久見市役所,879-2435,津久見市宮本町20-15,33.0724,131.8612
44208,竹田市,たけたし,竹田市役所,878-8555,竹田市大字会々1650,32.97318,131.3984
44209,豊後高田市,ぶんごたかだし,豊後高田市役所,879-0692,豊後高田市是永町39-3,33.55617,131.447
44210,杵築市,きつきし,杵築市役所,873-0001,杵築市大字杵築377-1,33.417,131.6164
44211,宇佐市,うさし,宇佐市役所,879-0492,宇佐市大字上田1030-1,33.53201,131.3495
44212,豊後大野市,ぶんごおおのし,豊後大野市役所,879-7198,豊後大野市三重町市場1200,32.97804,131.5851
44213,由布市,ゆふし,由布市役所,879-5498,由布市庄内町柿原302,33.1801,131.4268
44214,国東市,くにさきし,国東市役所,873-0503,国東市国東町鶴川149,33.56333,131.7324
44322,姫島村,ひめしまむら,姫島村役場,872-1501,東国東郡姫島村1630-1,33.72445,131.6451
44341,日出町,ひじまち,日出町役場,879-1592,速見郡日出町2974-1,33.36947,131.5325
44461,九重町,ここのえまち,九重町役場,879-4895,玖珠郡九重町大字後野上8-1,33.22845,131.1888
44462,玖珠町,くすまち,玖珠町役場,879-4492,玖珠郡玖珠町大字帆足268-5,33.28328,131.1513
45000,宮崎県,みやざきけん,宮崎県庁,880-8501,宮崎市橘通東2-10-1,31.91098,131.4239
45201,宮崎市,みやざきし,宮崎市役所,880-8505,宮崎市橘通西1-1-1,31.90767,131.4202
45202,都城市,みやこのじょうし,都城市役所,885-8555,都城市姫城町6街区21号,31.7196,131.0616
45203,延岡市,のべおかし,延岡市役所,882-8686,延岡市東本小路2-1,32.58231,131.6649
45204,日南市,にちなんし,日南市役所,887-8585,日南市中央通1-1-1,31.60195,131.3787
45205,小林市,こばやしし,小林市役所,886-8501,小林市細野300,31.99665,130.9727
45206,日向市,ひゅうがし,日向市役所,883-8555,日向市本町10-5,32.42279,131.6239
45207,串間市,くしまし,串間市役所,888-8555,串間市大字西方5550,31.46457,131.2286
45208,西都市,さいとし,西都市役所,881-8501,西都市聖陵町2-1,32.10851,131.4013
45209,えびの市,えびのし,えびの市役所,889-4292,えびの市大字栗下1292,32.04548,130.811
45341,三股町,みまたちょう,三股町役場,889-1995,北諸県郡三股町五本松1-1,31.73071,131.125
45361,高原町,たかはるちょう,高原町役場,889-4492,西諸県郡高原町大字西麓899,31.92838,131.0079
45382,国富町,くにとみちょう,国富町役場,880-1192,東諸県郡国富町大字本庄4800,31.99066,131.3236
45383,綾町,あやちょう,綾町役場,880-1392,東諸県郡綾町大字南俣515,31.99907,131.253
45401,高鍋町,たかなべちょう,高鍋町役場,884-8655,児湯郡高鍋町大字上江8437,32.12807,131.5033
45402,新富町,しんとみちょう,新富町役場,889-1493,児湯郡新富町大字上富田7491,32.06891,131.4878
45403,西米良村,にしめらそん,西米良村役場,881-1411,児湯郡西米良村大字村所15,32.22635,131.1545
45404,木城町,きじょうちょう,木城町役場,884-0101,児湯郡木城町大字高城1227-1,32.16379,131.4733
45405,川南町,かわみなみちょう,川南町役場,889-1301,児湯郡川南町大字川南13680-1,32.19206,131.5259
45406,都農町,つのちょう,都農町役場,889-1201,児湯郡都農町大字川北4874-2,32.25656,131.5597
45421,門川町,かどがわちょう,門川町役場,889-0696,東臼杵郡門川町本町1-1,32.46976,131.6488
45429,諸塚村,もろつかそん,諸塚村役場,883-1392,東臼杵郡諸塚村大字家代2683,32.51219,131.3303
45430,椎葉村,しいばそん,椎葉村役場,883-1601,東臼杵郡椎葉村大字下福良1762-1,32.46735,131.1584
45431,美郷町,みさとちょう,美郷町役場,883-1101,東臼杵郡美郷町西郷区田代1,32.44026,131.4232
45441,高千穂町,たかちほちょう,高千穂町役場,882-1192,西臼杵郡高千穂町大字三田井13,32.71173,131.3078
45442,日之影町,ひのかげちょう,日之影町役場,882-0402,西臼杵郡日之影町大字岩井川3398-1,32.65379,131.3881
45443,五ヶ瀬町,ごかせちょう,五ヶ瀬町役場,882-1295,西臼杵郡五ヶ瀬町大字三ヶ所1670,32.68292,131.1962
46000,鹿児島県,かごしまけん,鹿児島県庁,890-8577,鹿児島市鴨池新町10-1,31.56019,130.5581
46201,鹿児島市,かごしまし,鹿児島市役所,892-8677,鹿児島市山下町11-1,31.59679,130.5573
46203,鹿屋市,かのやし,鹿屋市役所,893-8501,鹿屋市共栄町20-1,31.37827,130.8522
46204,枕崎市,まくらざきし,枕崎市役所,898-8501,枕崎市千代田町27,31.27285,130.2969
46206,阿久根市,あくねし,阿久根市役所,899-1696,阿久根市鶴見町200,32.01436,130.1926
46208,出水市,いずみし,出水市役所,899-0292,出水市緑町1-3,32.09046,130.3527
46210,指宿市,いぶすきし,指宿市役所,891-0497,指宿市十町2424,31.2528,130.6331
46213,西之表市,にしのおもてし,西之表市役所,891-3193,西之表市西之表7612,30.73248,130.9974
46214,垂水市,たるみずし,垂水市役所,891-2192,垂水市上町114,31.49272,130.701
46215,薩摩川内市,さつませんだいし,薩摩川内市役所,895-8650,薩摩川内市神田町3-22,31.81321,130.3042
46216,日置市,ひおきし,日置市役所,899-2592,日置市伊集院町郡1-100,31.63373,130.4022
46217,曽於市,そおし,曽於市役所,899-8692,曽於市末吉町二之方1980,31.65349,131.0192
46218,霧島市,きりしまし,霧島市役所,899-4394,霧島市国分中央3-45-1,31.74103,130.7631
46219,いちき串木野市,いちきくしきのし,いちき串木野市役所,896-8601,いちき串木野市昭和通133-1,31.71458,130.272
46220,南さつま市,みなみさつまし,南さつま市役所,897-8501,南さつま市加世田川畑2648,31.41661,130.3234
46221,志布志市,しぶしし,志布志市役所,899-7492,志布志市有明町野井倉1756,31.49534,131.0454
46222,奄美市,あまみし,奄美市役所,894-8555,奄美市名瀬幸町25-8,28.37725,129.4938
46223,南九州市,みなみきゅうしゅうし,南九州市役所,897-0392,南九州市知覧町郡6204,31.37831,130.4418
46224,伊佐市,いさし,伊佐市役所,895-2511,伊佐市大口里1888,32.05708,130.6129
46225,姶良市,あいらし,姶良市役所,899-5492,姶良市宮島町25,31.72823,130.6278
46303,三島村,みしまむら,三島村役場,892-0821,鹿児島市名山町12-18,31.5945,130.5607
46304,十島村,としまむら,十島村役場,892-0822,鹿児島市泉町14-15,31.59329,130.5606
46392,さつま町,さつまちょう,さつま町役場,895-1803,薩摩郡さつま町宮之城屋地1565-2,31.90623,130.4553
46404,長島町,ながしまちょう,長島町役場,899-1498,出水郡長島町鷹巣1875-1,32.1993,130.1769
46452,湧水町,ゆうすいちょう,湧水町役場,899-6292,姶良郡湧水町木場222,31.95168,130.7211
46468,大崎町,おおさきちょう,大崎町役場,899-7305,曽於郡大崎町仮宿1029,31.42924,131.0059
46482,東串良町,ひがしくしらちょう,東串良町役場,893-1693,肝属郡東串良町川西1543,31.38568,130.9733
46490,錦江町,きんこうちょう,錦江町役場,893-2392,肝属郡錦江町城元963,31.2435,130.7876
46491,南大隅町,みなみおおすみちょう,南大隅町役場,893-2501,肝属郡南大隅町根占川北226,31.21734,130.7682
46492,肝付町,きもつきちょう,肝付町役場,893-1207,肝属郡肝付町新富98,31.34466,130.9452
46501,中種子町,なかたねちょう,中種子町役場,891-3692,熊毛郡中種子町野間5186,30.53294,130.9585
46502,南種子町,みなみたねちょう,南種子町役場,891-3792,熊毛郡南種子町中之上2793-1,30.41323,130.9011
46505,屋久島町,やくしまちょう,屋久島町役場,891-4207,熊毛郡屋久島町小瀬田469-45,30.37116,130.6653
46523,大和村,やまとそん,大和村役場,894-3192,大島郡大和村大和浜100,28.35802,129.3952
46524,宇検村,うけんそん,宇検村役場,894-3392,大島郡宇検村湯湾字下朝戸915,28.28078,129.2974
46525,瀬戸内町,せとうちちょう,瀬戸内町役場,894-1592,大島郡瀬戸内町古仁屋字船津23,28.14651,129.3147
46527,龍郷町,たつごうちょう,龍郷町役場,894-0192,大島郡龍郷町浦110,28.41316,129.5893
46529,喜界町,きかいちょう,喜界町役場,891-6292,大島郡喜界町大字湾1746,28.31686,129.94
46530,徳之島町,とくのしまちょう,徳之島町役場,891-7101,大島郡徳之島町亀津7203,27.72659,129.0187
46531,天城町,あまぎちょう,天城町役場,891-7692,大島郡天城町大字平土野2691-1,27.80922,128.8977
46532,伊仙町,いせんちょう,伊仙町役場,891-8293,大島郡伊仙町伊仙1842,27.67356,128.9376
46533,和泊町,わどまりちょう,和泊町役場,891-9192,大島郡和泊町和泊10,27.39217,128.6552
46534,知名町,ちなちょう,知名町役場,891-9295,大島郡知名町知名307,27.33354,128.5737
46535,与論町,よろんちょう,与論町役場,891-9301,大島郡与論町茶花32-1,27.0485,128.4148
47000,沖縄県,おきなわけん,沖縄県庁,900-8570,那覇市泉崎1-2-2,26.21237,127.681
47201,那覇市,なはし,那覇市役所,900-8585,那覇市泉崎1-1-1,26.2123,127.6792
47205,宜野湾市,ぎのわんし,宜野湾市役所,901-2710,宜野湾市野嵩1-1-1,26.28161,127.7784
47207,石垣市,いしがきし,石垣市役所,907-8501,石垣市美崎町14,24.34068,124.1556
47208,浦添市,うらそえし,浦添市役所,901-2501,浦添市安波茶1-1-1,26.24584,127.7218
47209,名護市,なごし,名護市役所,905-8540,名護市港1-1-1,26.59167,127.9776
47210,糸満市,いとまんし,糸満市役所,901-0392,糸満市潮崎町1-1,26.12428,127.6663
47211,沖縄市,おきなわし,沖縄市役所,904-8501,沖縄市仲宗根町26-1,26.33422,127.8057
47212,豊見城市,とみぐすくし,豊見城市役所,901-0292,豊見城市字翁長854-1,26.16109,127.6692
47213,うるま市,うるまし,うるま市役所,904-2292,うるま市みどり町1-1-1,26.37919,127.8574
47214,宮古島市,みやこじまし,宮古島市役所,906-8501,宮古島市平良字西里186,24.80541,125.2812
47215,南城市,なんじょうし,南城市役所,901-0695,南城市玉城字富里143,26.1444,127.7668
47301,国頭村,くにがみそん,国頭村役場,905-1495,国頭郡国頭村字辺土名121,26.74569,128.178
47302,大宜味村,おおぎみそん,大宜味村役場,905-1392,国頭郡大宜味村字大兼久157,26.7016,128.1204
47303,東村,ひがしそん,東村役場,905-1292,国頭郡東村字平良804,26.63302,128.1561
47306,今帰仁村,なきじんそん,今帰仁村役場,905-0492,国頭郡今帰仁村字仲宗根219,26.68255,127.9728
47308,本部町,もとぶちょう,本部町役場,905-0292,国頭郡本部町字東5,26.65808,127.8981
47311,恩納村,おんなそん,恩納村役場,904-0492,国頭郡恩納村字恩納2451,26.4974,127.8536
47313,宜野座村,ぎのざそん,宜野座村役場,904-1392,国頭郡宜野座村字宜野座296,26.4816,127.9756
47314,金武町,きんちょう,金武町役場,904-1292,国頭郡金武町字金武1,26.45621,127.926
47315,伊江村,いえそん,伊江村役場,905-0592,国頭郡伊江村字東江前38,26.71346,127.8071
47324,読谷村,よみたんそん,読谷村役場,904-0392,中頭郡読谷村字座喜味2901,26.39616,127.7444
47325,嘉手納町,かでなちょう,嘉手納町役場,904-0293,中頭郡嘉手納町字嘉手納588,26.36177,127.7554
47326,北谷町,ちゃたんちょう,北谷町役場,904-0192,中頭郡北谷町字桑江226,26.31994,127.7638
47327,北中城村,きたなかぐすくそん,北中城村役場,901-2392,中頭郡北中城村字喜舎場426-2,26.30105,127.7931
47328,中城村,なかぐすくそん,中城村役場,901-2493,中頭郡中城村字当間176,26.26767,127.7913
47329,西原町,にしはらちょう,西原町役場,903-0220,中頭郡西原町与那城140-1,26.22284,127.7588
47348,与那原町,よなばるちょう,与那原町役場,901-1392,島尻郡与那原町字上与那原16,26.19945,127.7548
47350,南風原町,はえばるちょう,南風原町役場,901-1195,島尻郡南風原町字兼城686,26.19106,127.7286
47353,渡嘉敷村,とかしきそん,渡嘉敷村役場,901-3592,島尻郡渡嘉敷村字渡嘉敷183,26.19739,127.3643
47354,座間味村,ざまみそん,座間味村役場,901-3496,島尻郡座間味村字座間味109,26.22891,127.3033
47355,粟国村,あぐにそん,粟国村役場,901-3702,島尻郡粟国村字東367,26.58234,127.2272
47356,渡名喜村,となきそん,渡名喜村役場,901-3692,島尻郡渡名喜村1917-3,26.37214,127.1411
47357,南大東村,みなみだいとうそん,南大東村役場,901-3895,島尻郡南大東村字南144-1,25.8289,131.2319
47358,北大東村,きただいとうそん,北大東村役場,901-3992,島尻郡北大東村字中野218,25.94575,131.2988
47359,伊平屋村,いへやそん,伊平屋村役場,905-0793,島尻郡伊平屋村字我喜屋251,27.03924,127.9687
47360,伊是名村,いぜなそん,伊是名村役場,905-0695,島尻郡伊是名村字仲田1203,26.92836,127.9412
47361,久米島町,くめじまちょう,久米島町役場,901-3193,島尻郡久米島町字比嘉2870,26.34069,126.8049
47362,八重瀬町,やえせちょう,八重瀬町役場,901-0492,島尻郡八重瀬町字東風平1188,26.15822,127.7187
47375,多良間村,たらまそん,多良間村役場,906-0692,宮古郡多良間村字仲筋99-2,24.66936,124.7016
47381,竹富町,たけとみちょう,竹富町役場,907-8503,石垣市美崎町11-1,24.33977,124.1545
47382,与那国町,よなぐにちょう,与那国町役場,907-1801,八重山郡与那国町字与那国129,24.46796,123.0046
